name,type,address,latitude,longitude,freguesia,opening_hours
Pingo Doce,supermarket,Rua de Aval de Baixo ,41.1679272,-8.5982629,,Mo-Su 08:00-21:00
Pingo Doce,supermarket, ,41.1592577,-8.6661234,,
,bicycle, ,41.1686212,-8.5912065,,
Pingo Doce,supermarket,Rua Costa Cabral 2320,41.1759522,-8.5855634,,Mo-Su 08:00-21:00
Minipreço,supermarket, ,41.1471388,-8.6037371,,
Sapaterio Varito,clothes, ,41.1594124,-8.5789379,,
Minipreço,convenience, ,41.1586548,-8.5800835,,
"Bump - Chaves, Comandos e Soluções de Segurança, Lda.",car_repair,Rua das Águas Férreas 11,41.1563616,-8.6179592,,"Mo-Fr 09:30-19:00, Sa 9:30-12:30"
Pingo Doce,supermarket,Avenida da Boavista 1319,41.15945,-8.6393339,,Mo-Su 08:30-21:30
Azeitoneira do Porto,convenience,Cais da Ribeira 36,41.1405972,-8.6117974,,
Ervanária Bio Plantas,chemist,Rua Formosa 416,41.1491866,-8.6090308,,
Armazém Alma,stationery, ,41.1479858,-8.6146993,,
Pingo Doce,supermarket, ,41.1518331,-8.6772709,,Mo-Su 08:00-21:00
Pingo Doce,supermarket,Praça Dr. Francisco Sá Carneiro 205,41.1628533,-8.5929237,,
Primazia,confectionery, ,41.1629621,-8.5927466,,
Flor do Bonjardim,bakery,Rua do Bonjardim 747,41.1554032,-8.6077459,,07:00-20:00
The Art of Joint,cannabis,Rua do Bonjardim 711,41.1550397,-8.6077438,,Mo-Sa 10:00-20:00; Su 14:00-20:00
Minipreço,supermarket, ,41.1670106,-8.5939509,,
Arons,car, ,41.1659496,-8.5884486,,
Continente Bom Dia,supermarket, ,41.1551676,-8.6635027,,
,kiosk, ,41.1485579,-8.585991,,
Quiosque Átrio Estação Campanhã,newsagent, ,41.1486296,-8.5854312,,06:00-23:00
Tulha Automóveis,car, ,41.18237,-8.5967214,,
Lima 5 (My Super),supermarket, ,41.1619685,-8.6004923,,
,bicycle, ,41.1715273,-8.6878658,,
Gamobar Peugeot,car, ,41.1712361,-8.6481239,,
Altamira - Pastelaria e Padaria,bakery,Rua de António Bessa Leite 1238 a 1264,41.1574169,-8.6450704,,"Mo-Fr 07:30-20:30; Sa,Su 08:00-20:30"
Blue Dragon,rental,Avenida Gustavo Eiffel 280,41.141102,-8.6088157,,
Saboricia,greengrocer, ,41.1520078,-8.6771577,,
,supermarket, ,41.1806005,-8.5828612,,
,butcher, ,41.1805763,-8.5827969,,
,kiosk, ,41.1809487,-8.5834349,,
"Pão Quente ""Truz Truz""",bakery, ,41.1659596,-8.6205353,,
Pingo Doce,supermarket,Rua do Ameal 667/681,41.1786395,-8.6141984,,
Adidas,clothes,Rua Rodrigues Sampaio ,41.1489067,-8.6098572,,
Camisaria Duarte,clothes, ,41.161223,-8.6001264,,
,convenience, ,41.1648764,-8.6199683,,
Congelados Nassa,seafood, ,41.1648178,-8.6198945,,
TGV,interior_decoration, ,41.1644623,-8.6207459,,
Padaria do Heroísmo,bakery, ,41.1468924,-8.5900102,,
,hairdresser,Travessa de Nova Sintra ,41.1464374,-8.5882952,,
Pérola Jovem,confectionery, ,41.1770823,-8.6087952,,
Kebell Men Care,hairdresser,Rua do Bonfim 91,41.1486819,-8.597938,,
Òtica Visão Central,optician, ,41.1486582,-8.5980038,,
Lampião Azul,convenience, ,41.1771662,-8.6090995,,
PH Informática,computer,Rua Dom Pedro V 171,41.1484898,-8.631707,,Mo-Fr 09:00-18:00
Confeitaria dos Clérigos,bakery,Rua dos Clérigos 67,41.1457974,-8.6134366,,
Lab Sixtyone,hairdresser,Rua Miguel Bombarda 61-65,41.1499989,-8.6176606,,
Restaurante Capitólio,vacant,Praça General Humberto Delgado 295,41.1496773,-8.6114149,,
Casa Arcozelo,convenience,Rua do Loureiro 46;48,41.1450736,-8.6104082,,
Confeitaria Serrana,confectionery,Rua do Loureiro 52,41.1450608,-8.6103692,,
Tomás do Douro,travel_agency, ,41.140827,-8.6132329,,
In Travel,travel_agency,Praça de Almeida Garrett 6,41.1450547,-8.6112453,,
Clínica Doutor Salgado Borges,optician, ,41.1452859,-8.604048,,
Casa dos Forros,clothes, ,41.1465136,-8.605017,,
6 Meia-Dúzia Portuguese Flavours,deli, ,41.1462313,-8.6072274,,
Perfumes & Companhia,cosmetics, ,41.1466135,-8.6093899,,
Cutelarias Finas,weapons, ,41.1468638,-8.6088549,,
Xiaomi,mobile_phone,Rua de Sá da Bandeira 120,41.1469939,-8.6087771,,Mo-Su 10:00-20:00
C&A,clothes, ,41.1468364,-8.6069988,,
Don Lopo,clothes, ,41.1470462,-8.6089845,,
Drogaria dos Lóios,doityourself, ,41.1450003,-8.6123211,,
Aliança das Malhas,clothes, ,41.1442033,-8.6124255,,
Armazém Nova Estrela,clothes, ,41.1443104,-8.6123088,,
Camisaria Serra,clothes, ,41.1446477,-8.6118743,,
The Wine Box,alcohol,Rua dos Mercadores 72,41.1416468,-8.6130472,,Mo-Su 10:00-00:00
Kiko Ouriversarias,jewelry, ,41.1464772,-8.6101127,,
Unic,clothes, ,41.1470251,-8.6116449,,
,vacant, ,41.1481728,-8.6134037,,
Tabacaria Avis,tobacco, ,41.1476984,-8.613349,,"Fr,Sa 10:00-04:00"
,vacant, ,41.1481329,-8.6132236,,
Siemens,electronics, ,41.1460632,-8.6136129,,
Vista Alegre,pottery, ,41.1462672,-8.6139556,,
Galeria Nasoni,vacant, ,41.1473589,-8.6141711,,
Raras Socks,clothes, ,41.1477504,-8.6144155,,
Solar do Pão Quente,bakery,Praça Guilherme Gomes Fernandes 36,41.1474106,-8.6147201,,
,convenience, ,41.1667436,-8.597429,,
Minipreço,supermarket, ,41.1661217,-8.5977348,,Mo-Su 08:00-21:00
Confeitaria Gelarte,bakery, ,41.1660248,-8.59737,,
Equipolar,electronics, ,41.1466614,-8.6037255,,
Electro Santo Ildefonso,electronics, ,41.1470734,-8.6025642,,
Pingo Doce,supermarket,Rua de Passos Manuel 221/223,41.1467401,-8.6046442,,Mo-Sa 8:30-21:00; Su 9:00-20:30
Traviata,clothes, ,41.1467997,-8.6031342,,
Big Fashion,clothes, ,41.1468169,-8.6030055,,
Rota do Ouro,jewelry, ,41.1469542,-8.6025884,,
La Casa de las Carcasas,mobile_phone, ,41.1482224,-8.6062753,,
,convenience, ,41.145846,-8.5871346,,
,convenience, ,41.1455134,-8.5874158,,
Minipreço,supermarket, ,41.1467311,-8.5916855,,
Ovelha Negra - Loja de Tricot Portuense,fabric, ,41.1499977,-8.6145304,,
Teresinha,shoes, 15,41.1474478,-8.6085,,
FC Porto Store,clothes,Rua de Sá da Bandeira 270,41.1486477,-8.607793,,
Adão Oculista,optician, ,41.147229,-8.6039494,,
O Cântaro,gift, ,41.1408603,-8.6109276,,
BMcar,car, ,41.1487608,-8.6114686,,
Douro Acima,travel_agency, ,41.1492119,-8.6113241,,
Forninho Doce,pastry,Rua do Professor Sousa Júnior 12,41.1778895,-8.6259797,,
,vacant, ,41.1493648,-8.6114832,,
Casa Januário,greengrocer,"Rua do Bonjardim 348,350,352",41.1492746,-8.6094267,,"Dec Mo-Sa 09:30-19:00; Jan-Nov Mo-Fr 09:30-19:00; Jan-Nov Sa 09:30-13:00; Dec 01,Dec 08 09:30-19:00; Dec 21,Dec 22,Dec 23 09:30-21:00; Dec 24 09:30-15:00; Dec 31 09:30-17:00; Jan 01 off; Jan 02 off"
Sanzala,coffee,Rua de Guilherme da Costa Carvalho 1,41.1490119,-8.6095795,,
Mitagi,clothes, ,41.1494999,-8.6076656,,
,clothes, ,41.1495947,-8.6076485,,
Armandu's Noivas,clothes, ,41.1501279,-8.6084183,,
Casa Chinesa,greengrocer, ,41.1491928,-8.6078228,,Mo-Fr 08:00-19:00; Sa 09:00-13:00
Comer e chorar por mais,greengrocer, ,41.1485499,-8.6068275,,
Lavamatic - Lavandaria Self-Service e Engomarinha,laundry, ,41.1733793,-8.6552955,,Mo-Su 07:00-22:00
Talho Formosa,butcher, ,41.1475359,-8.6038128,,
Talho Fernandes Tomás,butcher, ,41.1492764,-8.6039608,,
Escola Cond. França,car, ,41.1491436,-8.6035424,,
Material Elétrico,hifi, ,41.1491941,-8.6036444,,
Purplecrazy,clothes, ,41.1492567,-8.603816,,
Arcadia,chocolate,Avenida da Boavista 1046,41.1592079,-8.6360155,,
Alecrim Flores,florist, ,41.1574779,-8.6367537,,
Península Boutique Center,mall,Praça do Bom Sucesso 159,41.1564238,-8.6299304,,
São João da Foz,bakery,R. João de Barros 409,41.1721416,-8.6338747,,"Mo-Fr 07:00-20:30, Sa-Su 8:00-20:30"
,ticket, ,41.1403786,-8.6161834,,
Froiz,supermarket,Avenida Heróis e Mártires Guerra de Angola 49,41.15161,-8.6108579,,
Clips,pastry, ,41.1767513,-8.625622,,
Minipreço,supermarket, ,41.1722313,-8.6129336,,
Maria Antónia Florista,florist, ,41.1478814,-8.6225952,,
Casa Lobo,gift, ,41.1485307,-8.6195898,,
,kiosk, ,41.1440831,-8.6224262,,
First Stop,car_repair, ,41.1444215,-8.6237271,,
Pneus Michelin,car_repair, ,41.1446184,-8.6243199,,
Campião,lottery, ,41.1466116,-8.6095509,,
Diógenes & Santos Ferramentas,doityourself, ,41.1459757,-8.6292712,,
Gradiva Editora,books, ,41.147054,-8.621691,,
Tabacaria Belomonte,kiosk, ,41.1424123,-8.6171261,,
,vacant, ,41.1469474,-8.613637,,
rhemfurTECH,computer,Rua de Alexandre Herculano 352,41.1444154,-8.6057225,,"Mo-Sa 10:00-12:00,14:00-20:00; Su 12:00-20:00"
Pingo Doce,supermarket,Praça da República 58,41.1538458,-8.6135705,,
Perfumaria Barreiros Faria,clothes, ,41.1493784,-8.6165569,,
Maria José Oliveira,hairdresser, ,41.1495216,-8.6147756,,
Portuguese Flannel,clothes, ,41.1499793,-8.6148982,,
Afinsa Galeria,art, ,41.1503104,-8.6116564,,
Minipreço,supermarket, ,41.1503404,-8.611532,,"Mo-Fr 08:30-20:00; Sa,PH 09:00-20:00; Su off"
Guelva,shoes, ,41.1503806,-8.6109973,,
Salão Luiz,hairdresser, ,41.1535286,-8.6133566,,
Casa dos Parafusos,doityourself, ,41.153487,-8.6124996,,
David & Filhos,kiosk, ,41.1506955,-8.6094209,,
Feramentas Jones,hardware,Rua de Fernandes Tomás 900,41.1506267,-8.6091374,,
Casa Lourenço,butcher,Rua do Bonjardim 412,41.1505724,-8.6089491,,
Lev,convenience,Rua de Camões 19,41.1520668,-8.6102819,,Mo-Fr 09:30-20:00; Sa 09:00-14:00
A Padoca,bakery, ,41.1477176,-8.6205829,,
Casa Hortícola,agrarian, ,41.1488539,-8.6076709,,
Fernando Nunes,hairdresser,Rua de Santa Catarina ,41.1481886,-8.606582,,
Minipreço,supermarket, ,41.1459401,-8.6045568,,"Mo-Su,PH 08:00-23:00"
Sportours,bicycle,Rua do Breiner 412,41.1504413,-8.622386,,Mo-Sa 10:00-20:00
Kardoso,convenience,Rua do Bonjardim 662,41.1525268,-8.6080347,,Mo 14:00-19:00; Tu-Fr 09:00-19:00; Sa 09:00-13:00
Optocentro,clothes, ,41.1506637,-8.6070366,,
Escola Condução Morarte,car, ,41.152138,-8.6068218,,
Vida Sadia,convenience, ,41.151691,-8.6064415,,
Carlos Santos,hairdresser,Rua Sá da Bandeira 647,41.1518461,-8.6063443,,
La Copa,ice_cream, ,41.145539,-8.6047618,,
Riquinha,clothes,Rua Sá da Bandeira 778,41.152923,-8.6053928,,
Auto Industrial (Opel/Chevrolet),car, ,41.1533169,-8.6057293,,
Droper,clothes, ,41.1508852,-8.6060714,,
Arneto,clothes, ,41.1510448,-8.605543,,
Paiva & Faria Lda.,fabric, ,41.1507034,-8.6065488,,
Cortina,clothes, ,41.1508852,-8.6062109,,
Colorfoto,photo, ,41.1507701,-8.6066776,,
M. Russo,hairdresser, ,41.149969,-8.6061643,,
Mundiclasse Viagens,travel_agency, ,41.1495119,-8.6042156,,
Lenita Comercial Papelaria,stationery, ,41.1496108,-8.604221,,
Ervanária Kimbanda,yes, ,41.1497169,-8.6042344,,
Semavitur Viagens,travel_agency, ,41.1498048,-8.6042398,,
Loja Solidária REMAR,charity, ,41.150868,-8.6047557,,
A Lavandeira Conceição - Lavandaria Self-Service,laundry,Rua da Conceição 23,41.1499162,-8.6134909,,Mo-Su 06:00-00:00
Confeitaria Petúlia,bakery,Rua de Júlio Dinis 775,41.1554947,-8.6275406,,
,hairdresser,Rua de Alves Redol 397,41.1612747,-8.6160424,,
Armazém 14,books, ,41.1435346,-8.6142375,,
Minipreço Express,supermarket, ,41.1451479,-8.6122557,,Mo-Su 08:00-21:00
Taberna do Largo,alcohol, ,41.1433846,-8.6147166,,
Centro Comercial da Foz,mall, ,41.1591635,-8.6834195,,
MA by Maria Antónia,clothes, ,41.1498651,-8.614888,,
Chaves do Marquês,locksmith,Rua de Faria Guimarães 715,41.163525,-8.606617,,"Mo-Fr 09:00-13:00,14:30-19:30; Sa 09:00-13:00"
Climaestore,window_blind,Rua de Faria Guimarães 715,41.1635177,-8.6066204,,"Mo-Sa 09:00-13:00,14:30-19:00"
IdeiasAmuitas,printing,Rua Professor Bento de Jesus Caraça 93,41.1620989,-8.5981886,,"Mo-Fr 09:00-13:00, 14:30-20:00"
SaltPlace,beauty,Avenida de Rodrigues de Freitas 360,41.1455135,-8.6047128,,Mo-Su 09:30-19:00
Boutique dos Relógios Plus,watches,Avenida dos Aliados 127,41.1481548,-8.6114604,,
Ginginha do Porto,alcohol, ,41.1448751,-8.6076686,,
,clothes, ,41.1494013,-8.6035695,,Mo-Fr 09:00-20:00; Sa 09:00-18:00
Cristina Gonçalves,hairdresser, ,41.1508777,-8.6037519,,
Branco & Silva Gomes,clothes, ,41.1508796,-8.6039423,,
F. Gonçalves Alfaiate,clothes, ,41.1491397,-8.6024214,,
Sofia Decorações,furniture, ,41.1491336,-8.6024911,,
Órbita Viagens,travel_agency, ,41.1492376,-8.6022095,,
Bela Jóia,jewelry, ,41.1524622,-8.6047017,,
Paragon Outlet,clothes, ,41.1474406,-8.607931,,
Dio Mio,clothes, ,41.1471407,-8.6070968,,
Miss 101,clothes,Rua de Santa Catarina 101,41.1471803,-8.6068369,,
Ferlai,clothes, ,41.1474892,-8.6084762,,
Charles,clothes, ,41.1475846,-8.6084178,,
Teresinha Carteiras,bag, ,41.1485419,-8.6078388,,
Nicoleto,kiosk, ,41.148441,-8.6070445,,
Casa das Colchas,furniture, ,41.1485014,-8.6072111,,
Boa Ideia,shoes, ,41.1468777,-8.6039415,,
Sirgaria Branca,furniture, ,41.1467524,-8.6039308,,
Adão Oculista,optician,Rua de Santa Catarina 287,41.1487444,-8.6062838,,
Força Portugal,clothes, ,41.1481889,-8.6064839,,
Talho Bolhão,butcher, ,41.1485303,-8.6073074,,
Eureka,clothes, ,41.1472669,-8.6076285,,
Armazém dos Linhos,fabric, ,41.1473326,-8.6079753,,"Mo-Fr 10:00-19:00; Sa 10:00-13:00,14:30-18:00"
Continente,supermarket, ,41.1487192,-8.6080447,,
Fátima Leite,clothes, ,41.1488243,-8.6101069,,
Meta da Sorte,kiosk, ,41.1487842,-8.6100638,,
Contraste,jewelry, ,41.1483077,-8.6096107,,
Star,travel_agency, ,41.1487071,-8.6104396,,
Filinto Mota,car, ,41.1485141,-8.610482,,
A Baratinha,clothes, ,41.1486354,-8.6104608,,
Pinheiro da Rocha,clothes, ,41.1486636,-8.6096638,,
Ouro usado,jewelry, ,41.1490342,-8.6099898,,
Casa Lima,furniture, ,41.1490715,-8.6099579,,
Só Chaves,locksmith, ,41.1490532,-8.6098399,,
Dame Chic,clothes, ,41.1490477,-8.6097999,,
Marçal,jewelry,Rua de Guilherme da Costa Carvalho 11,41.1490367,-8.6097074,,
B the travel brand,travel_agency, ,41.1490332,-8.6093315,,
Cavalinho,clothes,Rua Formosa 409,41.1489311,-8.6087685,,Mo-Sa 10:00-19:00; Su 14:00-18:00
Maria Boneca,clothes,"Rua do Bonjardim 361,363,365",41.1502793,-8.6093975,,
Ourivesaria Bonjardim,jewelry, ,41.1503641,-8.609247,,
Favorita Bolhão,convenience,Rua Fernando Tomás 783,41.1501379,-8.6077801,,
Diego Martín,clothes, ,41.1503661,-8.6087186,,
Fama,hairdresser, ,41.1503096,-8.6085094,,
Casa Natal,greengrocer, ,41.1502146,-8.6083726,,
Antoniu's,jewelry, ,41.1502045,-8.6081047,,
Casa Ramos,greengrocer, ,41.1492895,-8.6077882,,
Liliana Gomes,clothes, ,41.1494286,-8.607718,,
Miacomigo,clothes, ,41.1489887,-8.6083887,,
Enzeta Fardas,clothes, ,41.1490998,-8.608684,,
Tavares,jewelry,Rua Formosa 412,41.1491563,-8.6089741,,
Cata,shoes, ,41.150385,-8.6081644,,
Reino de Iemanjá,religion, ,41.1519465,-8.6068908,,
Conta Capital: Soluções Financeiras,money_lender, ,41.152109,-8.6064042,,
El Corte Inglés,travel_agency, ,41.1513234,-8.6066643,,
Pinhos,optician, ,41.1511214,-8.6064605,,
Carlin,stationery, ,41.1516143,-8.6061571,,
Turquia no Porto,gift, ,41.151899,-8.6055966,,
Salon Krasoty,hairdresser,Rua de Guedes de Azevedo 21,41.1518445,-8.6053608,,
Downtown,clothes, ,41.1518707,-8.6054788,,
Paneuropa,travel_agency, ,41.1519597,-8.6051111,,
Portoluz,furniture, ,41.1520565,-8.6055378,,
Autolândia,car_parts, ,41.1520868,-8.6056666,,
Home Atitude,furniture, ,41.15304,-8.6053313,,
ExChange,money_lender, ,41.1510871,-8.6054466,,
António M. Saraiva,yes, ,41.1510528,-8.6060528,,
Mygod,vacant,Rua de Santa Catarina 417,41.1498793,-8.605853,,Mo-Sa 10:00-19:00
Bruxelas,clothes, ,41.1499688,-8.6062693,,
Óptica Bolhão,optician, ,41.1500238,-8.6065275,,
Mercados das Malhas,fabric, ,41.150054,-8.6066576,,
Beleza,shoes, ,41.1501453,-8.6069988,,
Belomundo,kiosk, ,41.1508912,-8.6051301,,
Goes & Guerra,clothes, ,41.1508792,-8.6049072,,
Frutaria Firmeza,greengrocer, ,41.150868,-8.6043428,,
Ara,clothes, ,41.1495502,-8.6050601,,
,vacant,Rua de Santa Catarina 390,41.149636,-8.6057418,,
Rússia no Porto,clothes,Rua de Fernandes Tomás 561,41.1495931,-8.6052467,,
Dani Home,fabric, ,41.149489,-8.6048127,,
Prata da Casa,jewelry, ,41.1494371,-8.6048751,,
Graça Batista,jewelry, ,41.1494716,-8.6047308,,
A Toga: art. académicos,clothes, ,41.1493535,-8.6043728,,
,vacant, 161,41.1489184,-8.604136,,
Electro Verisantos,electrical, ,41.148043,-8.604055,,
Fabio's,clothes, ,41.1478631,-8.6041059,,
Music Shop,music, ,41.1478793,-8.6044573,,
Vidros e Espelhos,glaziery, ,41.147956,-8.6045014,,
Só Música,music, ,41.1481004,-8.6051478,,
Ourivesaria Económica,jewelry, ,41.1481035,-8.6052954,,
Tupael: Mat. Elétrico,electrical, ,41.1478246,-8.603816,,
Genialbijoux,gift, ,41.1476612,-8.6036205,,
Carry,hairdresser, ,41.1475035,-8.6030784,,
Neves & Augusto Ferragens,hardware, ,41.1476612,-8.6030733,,
Manuel Ferreira,books, ,41.1487539,-8.6031377,,
Isabel Figueiras,hairdresser, ,41.1489053,-8.6031964,,
Mundo Columbófilo,pet, ,41.1479781,-8.6029791,,
Campos & Cardoso Reparações,hifi, ,41.1484893,-8.6038953,,
MEO,mobile_phone, ,41.1491093,-8.6032366,,
,vacant, ,41.1493457,-8.6041864,,
Barbearia Apolo,hairdresser, ,41.1473501,-8.602451,,
Bellpé,shoes, ,41.1472754,-8.6021721,,
Pluricosmética,cosmetics, ,41.1489942,-8.6026331,,
Garrafeira São Lázaro,wine,Largo do Padrão ,41.1471138,-8.6022128,,
Dragão,kiosk, ,41.1471543,-8.6022774,,
Natalina Ferreira,hairdresser, ,41.1470572,-8.6023525,,
Controlex,electronics, ,41.1471967,-8.6024786,,
Sanitária,furniture, ,41.1473158,-8.6029546,,
Douro Lingerie,clothes, ,41.1469441,-8.6025187,,
Santo Ildefonso,greengrocer, ,41.1468735,-8.6032457,,
Lutel iluminação,electrical, ,41.147347,-8.6030993,,
Ludite,greengrocer, ,41.1473784,-8.6032146,,
Bela Prata,jewelry, ,41.1473349,-8.6034037,,
Canin,pet, ,41.1474188,-8.603377,,
Sónia Pratas,jewelry, ,41.1474501,-8.6034963,,
Rock Music,music, ,41.147451,-8.6036103,,
Sonho de Pedra,jewelry, ,41.1474875,-8.6036666,,
Bebédutom,clothes, ,41.1474834,-8.6037551,,
Garrafeira do Porto,alcohol, ,41.1468734,-8.6037443,,
Compro Ouro,pawnbroker, ,41.1466634,-8.6035941,,
Carvalhais,optician, ,41.1467017,-8.6035056,,
Mendes,shoes, ,41.1466665,-8.602068,,
Super-rápido Numi,shoes, ,41.146606,-8.6020626,,
D. João IV,kiosk, ,41.146802,-8.6020763,,
Majestade,fabric, ,41.1468908,-8.6020977,,
Flama,electronics, ,41.1468291,-8.6023416,,
Os Vinte e Um,clothes, ,41.146811,-8.6024155,,
Pautónia,clothes, ,41.1467888,-8.6024812,,
São Lázaro,kiosk, ,41.1464474,-8.6021929,,"Mo-Fr 08:00-13:00, 15:00-18:00"
Casa Correia,shoes, ,41.1467432,-8.6026956,,
Padouro,bakery, ,41.1467332,-8.6027708,,
Maaj,jewelry, ,41.1466453,-8.6030457,,
Xique,clothes, ,41.1466312,-8.6029518,,
Antiquários do Ouro,pawnbroker,Rua de Santa Catarina 269,41.148637,-8.6064284,,
Ourivesaria Dolar,pawnbroker;jewelry,Rua de Cedofeita 348,41.1519135,-8.61769,,"Mo-Sa 10:00-13:00,14:00-18:00"
,laundry, ,41.1616872,-8.6069842,,
Pingo Doce,supermarket,Rua de Cedofeita 435,41.1531756,-8.6182789,,Mo-Su 08:30-21:00
Seara D'Ouro,bakery, ,41.1735691,-8.6028004,,
Aromas de Trás-os-Montes,greengrocer, ,41.1735805,-8.6026538,,
Boémia,bakery, 28,41.1592253,-8.6286084,,
claire's,fashion_accessories,Rua de Santa Catarina ,41.1481326,-8.6065042,,
Bazar Mabril,convenience,Rua de Santa Catarina 299,41.1488302,-8.606252,,
Cabeleireiro Salão Zorba,hairdresser,Rua de Santa Catarina 286,41.1486857,-8.6060698,,
Cortefiel,clothes,Rua de Santa Catarina 294,41.1487102,-8.6060606,,
Diego Martin,clothes, ,41.1461162,-8.6069476,,
Branca de Neve,shoes,Rua de Santa Catarina 304,41.1488473,-8.6060272,,
Onório Fonseca Cabeleireiros,hairdresser,Rua de Santa Catarina 42,41.1465517,-8.6068135,,
Marques Soares,clothes,Rua de Santa Catarina 39,41.1465383,-8.6071074,,
Pollux - Casa e Decoração,interior_decoration,Rua de Santa Catarina 300,41.1487997,-8.6060374,,Mo-Sa 10:00-19:00
Pé de Meia,clothes,Rua de Santa Catarina 209,41.1480431,-8.6065369,,
Óptica Lima,optician,Rua de Santa Catarina 362,41.149333,-8.6058608,,
Óptica do Porto,optician,Rua de Santa Catarina 29,41.1464605,-8.6071323,,
Rui & Valdemar,hardware, ,41.1506704,-8.6092518,,
FC Porto Store,clothes, ,41.1606279,-8.5831839,,
Bosch,car_parts,Rua Pinto Bessa ,41.1503747,-8.5914891,,"Mo-Sa 09:00-12:30, 14:30-18:00"
Citroën,car,Rua Pinto Bessa 558,41.1505716,-8.5922205,,"Mo-Sa 08:00-12:30, 14:30-18:00; Su 14:30-18:30"
LeYa na Latina,books,Rua de Santa Catarina 2;6;8,41.1462484,-8.6069903,,Mo-Sa 09:00-19:00
Óptica Mutualista,optician,Rua do Doutor Magalhães Lemos 85,41.1475795,-8.6099806,,Mo-Fr 09:00-19:00; Sa 09:00-13:00
Novacambios,kiosk, ,41.1468659,-8.6103647,,
,kiosk, ,41.1474825,-8.6093586,,
Fotosport,photo, ,41.1474286,-8.6092068,,
Tubitek,music,Praça de Dom João I 31,41.1474216,-8.6091705,,"Mo-Fr 10:00-20:00; Sa 10:00-13:30,14:30-19:30; Su off"
AFF Fotografia,photo,Rua do Bonjardim 142,41.1472768,-8.6094401,,Mo-Fr 10:00-19:00; Sa 09:30-13:00
Nórton,hairdresser, ,41.147283,-8.6093162,,
Mundo Místico,mystical,Rua do Bonjardim 146,41.1473192,-8.6094211,,
Talhos Boavista,butcher, ,41.1471924,-8.6088993,,
Jorge Campos,hifi, ,41.147169,-8.6093886,,
Amor Português,yes, ,41.1470658,-8.6094179,,
Retina,optician, ,41.1467177,-8.6102629,,
Capri,bag, ,41.1467439,-8.6103916,,
Lotarias Atlântico,lottery, ,41.1468079,-8.6107274,,
Oficina do Cabelo,hairdresser, ,41.1463643,-8.6104103,,
Leica,photo, ,41.1464389,-8.6098259,,
Âncora,jewelry, ,41.1461565,-8.6100341,,
Twenty Outlet,clothes, ,41.146555,-8.6096582,,
Tricots Brancal,sewing, ,41.1461695,-8.6096299,,
Correia d'Abreu,furniture, ,41.1461837,-8.6089532,,
Dance Planet,musical_instrument, ,41.1467537,-8.6089175,,
Armazém do Café,coffee, ,41.1468169,-8.608873,,
Maria Marques,clothes, ,41.1462072,-8.6082109,,
Galera Noivas,clothes, ,41.1462071,-8.6080932,,
Baptista,jewelry, ,41.1472543,-8.6086379,,
Garage & Stage - Music Store,musical_instrument,Rua de Sá da Bandeira 150,41.147277,-8.6086043,,
Mesquita,photo, ,41.1472307,-8.6084849,,
Cunha Rodrigues,clothes, ,41.1471932,-8.6082583,,
Premier,clothes, ,41.1470922,-8.6077299,,
Dipol,interior_decoration, ,41.146301,-8.6071995,,
Outlet Voltage,clothes, ,41.1462178,-8.6073367,,
Fnac,books,Rua Santa Catarina 73,41.1469797,-8.6071738,,Mo-Sa 10:00-22:00; Su 10:00-20:00
,vacant,Rua Heróis e Mártires de Angola ,41.1514524,-8.6108261,,
Vânia Silva,hairdresser,Rua do Bonjardim 762,41.1538636,-8.6077099,,Tu-Sa 10:00-19:00
Meu Super,convenience,Rua do Doutor Alfredo Magalhães 94,41.1548774,-8.609095,,Mo-Fr 08:00-20:00; Sa 08:30-20:00; PH off
Pingo Doce,supermarket,Rua de São João de Brito ,41.1669392,-8.6494979,,08:30-21:00
Tabacaria Santo António,kiosk, ,41.1460234,-8.6104324,,
Costa Real,vacant, ,41.1460473,-8.6100988,,
Cartbel - Sapatos Carteiras,shoes,Rua 31 de Janeiro 34,41.1460473,-8.6100422,,Mo-Sa 10:00-19:00
Moutinho Opticas,optician,Rua 31 de Janeiro 52,41.1460466,-8.6098742,,
Mass Perfumarias,perfumery,Rua 31 de Janeiro 66,41.1460496,-8.6097052,,
AJI - Carteiras / Marroquinaria,shoes,Rua 31 de Janeiro 84,41.1460576,-8.6094534,,
Cândida Teixeira,shoes,Rua 31 de Janeiro 98,41.1460633,-8.6093096,,
Gab - Grandes Armazéns da Beira,vacant,Rua 31 de Janeiro 106,41.1460651,-8.6091882,,
Souvenir Portugal,vacant,Rua 31 de Janeiro 128,41.1460616,-8.6089116,,
Galeria da Jóia,jewelry,Rua 31 de Janeiro 184A,41.1460785,-8.6080698,,
,vacant,Rua 31 de Janeiro 138,41.1460711,-8.6088546,,
António Faria,hairdresser, ,41.1459683,-8.6088516,,
Morgana,shoes,Rua 31 de Janeiro 152,41.1460699,-8.6086487,,
Portugalidades - Artesanato,vacant,Rua 31 de Janeiro 158,41.1460623,-8.6085807,,
,vacant,Rua 31 de Janeiro 164,41.1460739,-8.6084147,,
Vicent,clothes,Rua 31 de Janeiro 174,41.1460716,-8.6082786,,
,vacant,Rua 31 de Janeiro 162,41.1460717,-8.6084878,,
Stilcoup,hairdresser_supply, ,41.1460025,-8.6082557,,
Costa Braga,vacant,Rua 31 de Janeiro 194;186,41.1460809,-8.6079531,,"Mo-Fr 09:00-12:30,14:30-19:00; Sa 10:00-13:00"
Machado Joalheiro,jewelry,Rua 31 de Janeiro 200,41.1460813,-8.6078751,,
Hélio,vacant, ,41.1460793,-8.6078056,,
EcoMassage & Esthetics,massage,Rua 31 de Janeiro 210,41.1460831,-8.6077428,,
Ribeiro,hairdresser, ,41.1459616,-8.607493,,
Coruby,vacant,Rua 31 de Janeiro 220,41.1460843,-8.6076755,,
Toni,kiosk, ,41.1459711,-8.6071904,,
Amour Glamour,clothes,Rua 31 de Janeiro 256,41.1460825,-8.6072129,,
Tânia Vieira,gift, ,41.1458471,-8.6073309,,
Moloko,clothes,Rua 31 de Janeiro 248,41.1460835,-8.6073304,,
Jorge Lima,hairdresser, ,41.145947,-8.6073497,,
Casa Lima,bag,Rua de Rodrigues Sampaio 186,41.1490094,-8.610007,,
Confeitaria Paparoca da Foz,bakery, ,41.1481828,-8.6651708,,
OitoEmPonto,gift,Rua de Tânger ,41.1618603,-8.6599418,,
Marretas Bébé Infantil Juvenil,clothes,Rua de Cedofeita 230,41.150849,-8.6171215,,Mo-Sa 09:30-19:30
luis auto,car_repair,Rua Almirante Leote do Rego ,41.1657399,-8.6133752,,
,car_repair,Rua das Escolas ,41.1592446,-8.5804394,,
Vodafone,mobile_phone,Rua da Ranha ,41.1763046,-8.5670339,,
Ricardo Campus - Caricaturas,art, ,41.1543416,-8.5912762,,
Casa do Tabaco,tobacco,Rua da Boa Hora 120,41.1524606,-8.6206802,,Mo-Sa 10:00-19:30
Frutaria Campanhã,greengrocer, ,41.1487978,-8.5867368,,
,hairdresser,Rua de Justino Teixeira 53 (1º andar),41.1494921,-8.586429,,
SP Cosméticos para Cabeleireiros,cosmetics,Rua Pinto Bessa 27;29,41.1487993,-8.5865212,,
Sapataria Lado B,shoes, ,41.1488069,-8.5866177,,"Mo-Fr 10:00-12:30,14:00-19:00; Sa 10:00-13:00"
Talhos Pessegueiro,butcher,Rua de Justino Teixeira 7,41.1491093,-8.5865151,,
Froiz,supermarket,Rua Doutor Plácido da Costa ,41.1801828,-8.6039774,,"Mo-Sa 09:00-22:00; PH,Su 10:00-22:00"
Confeitaria Tamisa,bakery,Praça Dona Filipa de Lencastre 175,41.1484157,-8.612819,,
Ana Raquel,hairdresser,Avenida de Fernão de Magalhães 2976,41.1748789,-8.5839902,,
PCDiga,computer,Avenida de Fernão de Magalhães 2949,41.1747295,-8.5847464,,Mo-Sa 10:00-20:00
RHPro,computer,Avenida de Fernão de Magalhães 2962,41.1746588,-8.5840988,,
Carnes Corujeira,butcher, ,41.1630414,-8.572988,,
Mercado Laranjinha,convenience,Rua do Cerco do Porto 357,41.1636154,-8.5666861,,
Pão Quente Grupi,bakery, ,41.1628761,-8.5733035,,
,convenience, ,41.1635834,-8.5718365,,
Rent in Porto - Rent Bike Car Moto Rent Porto Centro Portugal,rental,Avenida Gustavo Eiffel 290,41.1410944,-8.6088978,,
GreenBus,travel_agency,Rua de Aleixo da Mota 86 B,41.1495931,-8.6533514,,
Nandinha,confectionery,rua Serpa Pinto ,41.1611763,-8.6208529,,Mo-Su 07:00-21:00
MHR - Informática e Electrodomésticos,electronics, ,41.1831963,-8.6093089,,
Talho de Alcantara,department_store, ,41.1704418,-8.5855531,,
Quiosque da Ponte,kiosk,Avenida Vímara Peres 57,41.1427243,-8.6103232,,
In Travel,travel_agency,Rua Mouzinho da Silveira 354;352,41.1448923,-8.6111248,,
Casa Coração de Jesus - Artigos Religiosos,religion,Rua de Mouzinho da Silveira 302;3 04,41.1445605,-8.6115659,,
Boutique,clothes,Rua Mouzinho da Silveira 288,41.1444433,-8.6117197,,
Chafariz Artesanato,gift,Rua Mouzinho da Silveira 274,41.1442379,-8.6119932,,
Tourism Point,travel_agency,Rua Mouzinho da Silveira 270,41.1440475,-8.6122379,,
Marcobaltazar - Barber shop,hairdresser,Rua Mouzinho da Silveira 258,41.1439754,-8.6123358,,
Paula Costa,clothes,Rua Mouzinho da Silveira 254,41.1439327,-8.6123877,,
Galerias Vandoma,antiques, ,41.1432628,-8.6130888,,
Portugalidades,gift,Rua Mouzinho da Silveira 172;170,41.1432291,-8.6133667,,
Fernol,furniture,Rua Mouzinho da Silveira 126,41.1429161,-8.6137969,,
Professional Brokers,pawnbroker,Rua Mouzinho da Silveira 112,41.1428197,-8.613917,,
Casa Mousinho,gift,Rua Mouzinho da Silveira 118;116,41.1428593,-8.6138645,,
Cabaz do Infante,alcohol, ,41.1425879,-8.6139689,,
Cooperativa Artística Árvore,books, ,41.1446728,-8.6184047,,
Raras Socks Kids,clothes,Rua de Santa Teresa 40,41.1478657,-8.6143202,,
Essência do Vinho,alcohol, ,41.1418779,-8.6141083,,
Moutinho,jewelry, ,41.141386,-8.6133399,,
Bandeiras Sousa & Martins,gift, ,41.1411497,-8.6131066,,
Talho São João,butcher, ,41.1410174,-8.613073,,
Magic Tourism,travel_agency, ,41.1431463,-8.6101389,,
Mercearia dos Guindais,greengrocer, ,41.1412436,-8.6084732,,
Padaria Molete,bakery,Rua do Heroísmo 207,41.1463837,-8.5928427,,
Óptica Pupila,optician,Rua 31 de Janeiro 197,41.1462139,-8.6078191,,"Mo-Fr 09:30-13:00, 14:30-19:00; Sa 09:30-13:00, 14:30-18:00"
Papeleria Castro,stationery, ,41.1590714,-8.580286,,
Oporto Confeitaria,bakery,Rua da Alegria 2112,41.1650123,-8.5986656,,
Ludimusic - Instrumentos Musicais,musical_instrument,Avenida da Boavista 25,41.1569498,-8.6240802,,"Mo-Fr 10:00-13:00,14:30-20:00; Sa 10:00-13:00,14:30-19:00; Su,PH off"
Padaria  Jamor,bakery, ,41.1729963,-8.655288,,
Restaurante Proa de Pereiró,bakery, ,41.1731297,-8.6551744,,
Adão Oculista,optician, ,41.1731172,-8.6548339,,
Talho Ponte do Infante,butcher, ,41.1435605,-8.6021315,,
Auto Recto,car_parts, ,41.144762,-8.6007021,,
Drogaria São Vítor,chemist, ,41.1448822,-8.6008429,,
Fruti Mar,greengrocer,Rua de Oliveira Monteiro 44,41.1569274,-8.6206722,,
Serralharia Orlando Ferreira,glaziery, ,41.1427825,-8.6028533,,
Castro Electrónica,computer, ,41.1433007,-8.6030476,,
Gaiatem,car_parts, ,41.1438734,-8.6048567,,
Make me a Star,photo, ,41.1436764,-8.60496,,
Suribachi (bio shop & restaurant),convenience, ,41.1488556,-8.5974681,,
Mercearia Duque de Loulé,greengrocer, ,41.1445385,-8.604602,,
Carla Cabeleireiro,hairdresser, ,41.1449385,-8.6043739,,
Donna Viagem,travel_agency, ,41.1449071,-8.6041231,,
Perfumes & Companhia,perfumery,Rua de Santa Catarina 307; 309; 311,41.1489218,-8.6062274,,
Space It,furniture, ,41.1443659,-8.6028209,,
Carpintaria das Fontaínhas,trade, ,41.1441375,-8.6027043,,
Stilcoup,cosmetics, ,41.1434922,-8.6029362,,
Manuel M. Guerreiro,hardware, ,41.1432762,-8.6023382,,
Jorge Amortecedores,car_parts, ,41.1439569,-8.6041608,,
,gift, ,41.1435179,-8.6076793,,
Padeirinha Doce,bakery, ,41.1436361,-8.6076347,,
Bazar,chemist, ,41.1437235,-8.6076332,,
Barbearia do Sol,hairdresser, ,41.1433907,-8.6073457,,
Alberto Pereira Lda.,general, ,41.1433009,-8.6054189,,
Paulista,bakery, ,41.1443583,-8.6072415,,
Manuel Sapateiro,shoes, ,41.1444754,-8.6086255,,
Nut'SãoJoão,chocolate, ,41.1837566,-8.599979,,
Cozinha Doce,confectionery,Escadas do barredo ,41.1407525,-8.6122832,,
Nortenha Pneus,tyres, ,41.1774674,-8.6523043,,
Robbialac,paint, ,41.177145,-8.651913,,
Auto Sueco - Volvo,car, ,41.1750741,-8.6499535,,
Auto Sueco - Mazda,car, ,41.1746566,-8.6494236,,
Auto Sueco - Honda,car, ,41.1744039,-8.6490908,,
Trabalho de Mestre,car_repair, ,41.1753524,-8.6497255,,
Carglass,car_repair, ,41.1751506,-8.6494266,,
BMW,car, ,41.1739725,-8.6479477,,
Moysés Cardoso & Companhia,trade, ,41.1737406,-8.6482867,,
Ambar,trade, ,41.1730959,-8.6474578,,
Top Car,car_repair, ,41.1726181,-8.6469063,,
Pneuvita,tyres, ,41.1727457,-8.6470666,,
Centro Liberty Auto,car_repair, ,41.1724836,-8.6467585,,
Kia,car, ,41.1695147,-8.646181,,
Land Rover,car, ,41.1698477,-8.6466057,,
C.A.M. Mitsubishi,car_repair, ,41.1699942,-8.6467791,,
C.A.M. Citröen,car, ,41.1700821,-8.6469242,,
C.A.M. Ford,car, ,41.1702287,-8.6470658,,
C.A.M. Fiat,car, ,41.1703938,-8.6472888,,
Jaguar,car, ,41.1719417,-8.6492778,,
Lotus,car, ,41.1720856,-8.6494548,,
Cibercar,car, ,41.1723333,-8.6497556,,
Gamobar Peças,car_repair, ,41.1725518,-8.6500387,,
Europeças,car_repair, ,41.1727462,-8.6502581,,
Ducati Norte,motorcycle,Rua de Delfim Ferreira 739,41.1736586,-8.6518135,,"Mo-Fr 09:00-13:00,14:30-18:30; Sa 09:30-12:30"
Cruzeiro das 6 pontes,ticket,Rua Canastreiros 40,41.1403075,-8.6130334,,Mo-Su 10:00-18:00
Marques Soares,clothes,Rua das Carmelitas 132,41.1467616,-8.6147235,,
,yes,Rua Miguel Bombarda 648,41.1492063,-8.62456,,
Bella Torre,pastry,Rua das Carmelitas 152,41.1468666,-8.6149444,,
Era uma vez no Porto,vacant,Rua das Carmelitas 162,41.1469446,-8.6150732,,"Mo-We,Sa 17:00-02:00; Th-Fr 17:00-04:00; Su 21:30-02:00"
Pedras & Pêssegos,furniture,Praça Coronel Pacheco 34,41.151507,-8.6145526,,
O Sótão da Tia Becas,antiques,Travessa de São Carlos 22,41.1515454,-8.6142863,,Mo-Fr 14:30-19:00
Marpel - Artigos de Descanso,bed,Rua Álvares Cabral ,41.1541322,-8.6135121,,
,vacant,Rua de Miguel Bombarda 425,41.1494384,-8.6220007,,
Vieguini Scooters & Bikes,bicycle,Rua Nova da Alfândega 7,41.1407762,-8.6167084,,Mo-Su 09:00-19:30
Lua-de-Mel,bakery, ,41.1665253,-8.6553317,,
Casa Navarro,leather,Rua Fernando Tomás 747,41.1500058,-8.6073665,,Mo-Sa 10:00-19:00
Viva,interior_decoration, ,41.1466642,-8.6070446,,
Casa Othello,houseware,Rua de Santa Catarina 54; 60,41.1466653,-8.6068286,,
Feels Like Home,yes,Rua de Santa Catarina 53,41.1466983,-8.6071069,,
Auto Ortigão,car_repair, ,41.1514071,-8.590066,,
Madureira,clothes,Rua das Carmelitas 20,41.1461253,-8.6137246,,
Padaria Ribeiro,bakery, ,41.1475189,-8.6149832,,
Casa Cerdeira Mercearia,convenience,Rua de Santa Catarina 533,41.1508772,-8.6054957,,Mo-Sa 09:00-20:00
Cais da Ribeira,travel_agency, ,41.1402959,-8.6135611,,
Frutaria da Trindade,greengrocer,Rua de Fernandes Tomás 957,41.1506214,-8.6097423,,Mo-Sa 07:00-18:30
,butcher,Rua Escura ,41.1433542,-8.6115954,,
Padaria Molete,bakery, ,41.1456769,-8.6033749,,Tu-Sa 07:00-20:00; Su 08:00-19:00
Paladar,coffee, ,41.1438546,-8.613881,,
A Padaria Portuguesa,bakery,Rua dos Heróis e Mártires de Angola 71,41.1515978,-8.6105587,,
Modo de Ler,books, ,41.1477072,-8.6149581,,
Chio Tattoo Art,tattoo, ,41.1477735,-8.6150262,,
Steak 'n Shake,vacant, ,41.147935,-8.6149309,,
Mosaico de Sabores,coffee, 65A,41.1478869,-8.6149388,,
Quelhas & Matias,clothes, ,41.1450281,-8.6102718,,
Luz Lar,lighting, ,41.1450804,-8.6104467,,
Plásticos São Bento,interior_decoration,Rua do Loureiro 62,41.1450425,-8.6102862,,
Óptica da Baixa,optician,Rua do Loureiro 68,41.1450329,-8.6102527,,"Mo-Fr 09:30-12:30,14:30-18:45; Sa 09:30-12:30"
Chapelaria Ideal,clothes,Rua do Loureiro 90,41.1449627,-8.6099642,,
Electro Duques,hifi, ,41.1449582,-8.6102498,,
Squid Ink Works,art,Rua do Loureiro 110,41.1448969,-8.6097253,,
Casa Madanços,electronics, ,41.1447492,-8.6093728,,
Discoluz,electronics, ,41.144526,-8.6094529,,
Fatuxa,clothes, ,41.1444548,-8.6094631,,
Zhong,hifi, ,41.1443518,-8.6094497,,
A. Sousa & Sameiro,trophy,Rua de Cimo de Vila 23,41.1443467,-8.6090959,,
Silva Cunha & Filhos,leather, ,41.1444759,-8.6088541,,
Almeida Gravador,trophy, ,41.1443739,-8.6090435,,
Casa Crocodilo,leather, ,41.1446562,-8.6084867,,
Indiana,greengrocer, ,41.1448999,-8.6081805,,
Oculista Garantia,optician, ,41.1448381,-8.6096336,,
,gift, ,41.144824,-8.6095525,,
Lycamobile,mobile_phone, ,41.1447452,-8.6095256,,
,gift, ,41.1446554,-8.6095257,,
,optician, ,41.1446412,-8.6095247,,
,electronics, ,41.1446927,-8.6095257,,
,clothes, ,41.1445958,-8.6095277,,
,convenience, ,41.1445534,-8.6095371,,
Emílio & Paulo,optician, ,41.1445165,-8.6095451,,
,gift,Rua do Loureiro 166,41.1444323,-8.6095614,,
,gift,Rua Chã ,41.1441897,-8.6097469,,
Real Bangla - Lycamobile,mobile_phone,Rua Chã 119; 121,41.1442508,-8.6097183,,
,gift,Rua Chã 123,41.1442824,-8.6096607,,
Real Bangla - Lycamobile,mobile_phone, ,41.1443836,-8.6095892,,
Por Vocaçäo,clothes,Avenida da Boavista 971,41.1587921,-8.6351846,,Mo-Sa 11:00-19:00
Alphamoment,clothes,Rua da Senhora da Luz 128,41.1503308,-8.6759292,,
Parfois,clothes,Rua de Santa Catarina 97,41.1471443,-8.6068531,,
CARVAP Skoda,car,Rua de São João de Brito 18 a 28,41.1618384,-8.6506795,,
Fábrica da Nata,confectionery,Rua de Santa Catarina 333,41.1491234,-8.6061386,,Mo-Su 08:00-23:00
Claus Porto,gift, ,41.1434768,-8.6143339,,
Casa Portuguesa do Pastel de Bacalhau,confectionery, ,41.1455127,-8.6148698,,
Jocorum,tobacco, ,41.1489478,-8.5988322,,
Meu Super,supermarket,Rua da Boavista 400,41.1561624,-8.6180014,,"Mo-Sa 08:30-20:30, Su 09:00-20:00"
Confeitaria da Lapa,bakery,Travessa da Figueirôa 98,41.1559567,-8.6179366,,Mo-Su 07:00-21:00
Minipreço,supermarket,Rua de Latino Coelho 271,41.1595736,-8.6018346,,Mo-Su 09:00-21:00
Classics,hairdresser,Rua de Fonseca Cardoso 195,41.1569308,-8.6093485,,
,convenience, ,41.1715789,-8.6626426,,
Onedrive,car_parts,Rua Manuel Pinto de Azevedo ,41.1770942,-8.6526573,,
ExpressGlass,car_parts, ,41.1773244,-8.6532507,,
Espaço Mamãs,baby_goods, ,41.1768901,-8.6516545,,
Pajaro Malandro,clothes, ,41.1454343,-8.6131042,,
Armazém,general,Rua de Miragaia 97,41.1429218,-8.6200716,,"Mo-Sa 8-14, 15-20 Su 8:30-13"
cáBARé,vacant,Rua do Conde de Vizela 141,41.14719,-8.6135745,,
Fine & Candy,gift,Rua de Tânger ,41.1617387,-8.6597159,,
Casa do Vale - Flavours,confectionery,Rua de Tânger ,41.1614074,-8.6592116,,
Mercados 31,convenience, ,41.1613795,-8.6580991,,
Bernado Monteio Atelier,clothes, ,41.160881,-8.6588616,,
GaiaBike Bessa-Leite,bicycle,Rua de António Bessa Leite 1268,41.1574933,-8.6450351,,"Mo-Sa 10:00-13:00, Mo-Fr 15:00-19:30, Sa 13:00-19:00"
Portosigns,gift,Rua do Infante Dom Henrique 71,41.1408878,-8.6147334,,Mo-Su 10:00-20:00
Auto Reparadora Semfim das Antas,car_repair,Rua de Contumil 901,41.1685057,-8.5861373,,
Minipreço,supermarket,Rua da Firmeza ,41.1511148,-8.6005336,,Mo-Sa 09:00-20:00; Su 09:15-15:20
forno DOS clérigos,confectionery, ,41.1429917,-8.6092371,,
Novo's,clothes,Rua da Fábrica ,41.1473538,-8.6125296,,"PH,Mo-Su 11:00-18:30"
,laundry, ,41.1453239,-8.6127416,,
Unicepe,books,Praça de Carlos Alberto 128,41.1474893,-8.6159223,,
Top N Dolls,toys,Avenida da Boavista 305,41.1574825,-8.6274353,,
Multiópticas,optician,Praça de Mouzinho de Alburquerque 119-124,41.1571432,-8.6281662,,
,jewelry,Praça Mouzinho de Albuquerque 126,41.1570796,-8.6282493,,
Castelbel,gift,Rua Ferreira Borges ,41.142667,-8.6151503,,Mo-Su 12:00-20:00
Gamobar Porto - Opel,car,Rua Dom Pedro V 201,41.1486855,-8.6315069,,Mo-Fr 09:00-20:00; Sa 10:00-17:00
Confeitaria Calica,bakery,Rua do Barão de Forrester 655,41.1567125,-8.6195015,,Mo-Sa 07:00-20:00
Casa Natal,butcher, ,41.1502979,-8.6083299,,
Minipreço,supermarket, ,41.1567413,-8.6217201,,Mo-Sa 08:30-20:00; Su 09:00-19:00
Velurb - Rent a bike,bicycle,Rua de Fernandes Tomás 207,41.1487772,-8.6012462,,Mo-Fr 09:30-19:00; Sa 09:30-13:00
Lavanda,laundry, ,41.1535238,-8.5992742,,
Terraço da Cotovia,beauty,Travessa da Figueirôa 48,41.155605,-8.6184631,,Mo-Fr 12:30-19:30; Sa 12:30-17:30
"Korpus de Beleza, Centro de estética",beauty,Travessa da Figueirôa 44,41.155572,-8.6185043,,Tu-Sa 09:00-19:00
BelaFlorista,florist,Travessa da Figueirôa 34,41.1555059,-8.6185869,,Mo-Sa 09:00-20:00; Su 10:00-13:00
"Ortigão, Tabacaria e Papelaria",newsagent,Travessa da Figueirôa 21,41.1555275,-8.6187119,,"Mo-Sa 08:00-14:00, 14:30-20:00; Su 08:00-13:30"
Flôr da Figueirôa,greengrocer,Travessa da Figueirôa 33,41.1556508,-8.6185535,,
Vinofino,wine, ,41.1442101,-8.6132351,,
Padaria & Pastelaria Cristal,bakery,Rua de Cedofeita 585,41.1558619,-8.6193323,,Mo-Fr 07:00-20:00; Sa 07:00-14:00; Su 07:00-13:00
,hardware, ,41.1501791,-8.6078877,,
Miss 101,gift, ,41.1496019,-8.605976,,Mo-Sa 10:00-19:30
Manteigaria,pastry, ,41.148574,-8.6069582,,
Casa dos Neves,clothes, ,41.1503622,-8.608072,,
Carlin,stationery,Rua de Fernandes Tomás 808,41.1503456,-8.6080012,,
Oporto Lingerie,clothes,Rua de Fernandes Tomás 866,41.1504895,-8.6086648,,
Ourusado,jewelry,Rua de Fernandes Tomás 880,41.1505181,-8.6088002,,"Mo-Fr 09:30-12:30,14:30-19:00; Sa 10:30-13:00"
Perfumes & companhia,perfumery,Rua de Fernandes Tomás ,41.1504488,-8.6084657,,
Loja das Coisas,variety_store, ,41.1504288,-8.6083719,,
,yes,Rua de Fernandes Tomás 836,41.1504175,-8.608325,,
Pau de Canela,fine grocery store,Rua do Vale Formoso 118,41.1664658,-8.6114761,,
Com Cuomo Sem Glúten,pastry,"Rua Trindade Coelho entrada 10 loja 11, 4050-618 Porto, Portugal 10",41.1452404,-8.6115243,,Tu-Su 10:30-19:30
Mercearia BeloSabor,convenience, ,41.1427295,-8.616051,,Mo-Su 09:00-19:00
,bakery, ,41.1428072,-8.6156038,,
Bazar Bangla,gift,Praça de Almeida Garrett ,41.1457299,-8.6109951,,
The Traveller Caffé,coffee,Praça de Almeida Garrett 22,41.1454334,-8.6111573,,
Souvenir land,gift, ,41.1447665,-8.6124708,,
J-B-S Souvenirs,gift,Praça de Almeida Garrett ,41.1453936,-8.6111801,,
,alcohol, ,41.1445181,-8.6124073,,
Bazar Bangla 3,gift,Praça de Almeida Garrett ,41.1457685,-8.6109756,,
Canadoce,bakery, ,41.1567257,-8.6214248,,
New Souvenirs,gift, ,41.1482635,-8.6161583,,
Chocolataria Equador,confectionery,Rua das Flores 298,41.1448439,-8.6116407,,
Loja das Conservas,seafood,Rua de Mouzinho da Silveira 242;240,41.1438572,-8.6124928,,Mo-Su 10:30-18:00
Loja Tradições,gift,Rua das Flores 238,41.1446406,-8.6121662,,Mo-Su 10:00-19:00
Garrafeira Cleriporto,wine,Rua da Assunção 38,41.1455283,-8.6145849,,
Garrafeira Tio Pepe,wine,Rua Engenheiro Ferreira Dias 51,41.1704948,-8.6434696,,"Mo-Fr 10:30-13:30,14:30-19:30; Sa 10:00-13:00"
,vacant,Rua do Rosário 44,41.1481082,-8.6204729,,
Instituto dos Vinhos do Douro e do Porto,wine,Rua Ferreira Borges 27,41.1419428,-8.6154181,,Mo-Fr 11:00-19:00
Espaco do Vinho,wine,Rua da Constituição 103,41.1612176,-8.5997292,,"Mo-Sa 10:00-13:00, 15:00-20:00"
,vacant,Rua da Torrinha 11,41.1522077,-8.618206,,
Ale Mistico,tattoo,Rua do Campo Alegre 434,41.1527103,-8.6337724,,
,vacant,Rua do Loureiro 38,41.1450904,-8.6104869,,
Meu Super,convenience, ,41.1586955,-8.5930453,,
,gift, ,41.1449838,-8.611412,,
,alcohol, ,41.1421923,-8.6144738,,Mo-Su 09:00-19:30
AquaSecret,dry_cleaning, ,41.1573445,-8.5941633,,"Mo-Fr 09:30-12:30,14:00-19:00; Sa 09:30-13:00"
Via Rápida Stop & Shop,mall,Rua Engenheiro Ferreira Dias 954,41.1767491,-8.6470505,,Mo-Su 06:45-21:45
Cervejaria Artesanal Levare,vacant,Praça da Batalha 12A,41.1459166,-8.60639,,Th-Tu 12:00-00:00
Clínica Eva Morena,beauty,Rua das Águas Férreas 18,41.1562901,-8.6176917,,
Anabela Oliveira Cabeleireiro/Estética,hairdresser,Rua da Boavista 349,41.1559244,-8.6176709,,Tu-Sa 09:00-19:00
Salão Magui Unisexo,hairdresser,Rua da Boavista ,41.1561222,-8.6187661,,"Mo-Fr 09:00-12:00, 12:45-19:00; Sa 08:30-18:00"
Estúdio 541,hairdresser,Rua da Boavista 541,41.1562146,-8.6196495,,Mo-Fr 09:30-19:30; Tu off; Sa 09:00-19:00
Ramos & Dinis,craft,Rua da Boavista 527,41.156198,-8.6194916,,"Mo-Fr 09:00-12:30,14:30-19:30; Sa 09:00-13:00"
Cosmopolitana,clothes,Rua de Santa Catarina 530; 528,41.1507786,-8.6053112,,
Miss Pavlova,gift, ,41.1462399,-8.6122764,,
Prometeu,gift, ,41.1411054,-8.6133843,,
Circus Records Record Shop,music,Rua do Rosário 54,41.1482772,-8.6205089,,Mo-Sa 10:00-20:00
Porto Calling,gift,Rua da Conceição 80,41.1500817,-8.6142525,,Mo-Sa 11:00-19:00
Louie Louie,music,Rua do Almada 536,41.1520554,-8.6119557,,"Mo-Su 10:30-13:30, 14:30-19:00"
Mini-Mix Porto,supermarket,Rua de Gonçalo Cristóvão 292,41.1537106,-8.6105327,,"10:00-14:00,15:00-20:00"
Miss Pavlova,bakery,Rua do Almada 13,41.1462487,-8.6125084,,Mo-Su 11:00-19:00
Spekti,watches,Rua de Ceuta 17,41.1481619,-8.6132797,,
Clerigos Craft Corner,gift,Campo dos Mártires da Pátria 131,41.1451275,-8.6152866,,Mo-Su 10:00-20:00
The Feeting Room,clothes,Largo dos Lóios 86,41.1455993,-8.6125042,,Mo-Th 10:00-20:00; Fr-Sa 10:00-21:00; Su 12:00-20:00
Coração Alecrim,clothes,Travessa de Cedofeita 28,41.1497119,-8.6157095,,Mo-Sa 11:00-19:00
Pinto Lopes Viagens,travel_agency,Rua Pinto Bessa 466,41.1503195,-8.5912748,,
Brasão Cervejaria Coliseu,vacant, ,41.1466725,-8.6045245,,
Pingo Doce,supermarket,Rua de Nossa Senhora de Fátima ,41.1589124,-8.6272224,,Mo-Su 09:00-21:00
Roupa na Mão,laundry, ,41.1615696,-8.6070718,,
Hungry Biker,vacant,Rua das Taipas 68/72,41.1429436,-8.6173244,,Mo-Su 09:00-16:00
De Porto e Alma,convenience,Rua de Santa Catarina 479,41.1503983,-8.6056564,,
Tabacaria Carmo,tobacco,Praça de Almeida Garrett ,41.1457985,-8.6109593,,
Joybangla Souvenir,gift,Praça de Almeida Garrett 31,41.1455498,-8.6110969,,
,vacant, 20,41.1480471,-8.6143618,,
Self service laundry,laundry, ,41.1522055,-8.6178414,,"PH,Mo-Su 08:30-22:00"
Spar,convenience, ,41.1415132,-8.6133941,,"PH,Mo-Su 09:00-21:00"
Garrateira,vacant,Rua da Conceição ,41.1500252,-8.6137213,,
Pirata,stationery, ,41.1506741,-8.5942094,,
Touriga,beverages,Rua da Fábrica 32,41.1474058,-8.6127163,,"Mo-Sa 10:00-13:00, 14:30-20:00"
O Mundo Fantástico da Sardinha Portuguesa,seafood, ,41.1458871,-8.6125136,,
Azulima,gift,Rua do Barão de Forrester 707,41.1574787,-8.6197178,,
Lavandaria Lava-Giro,laundry, ,41.1618666,-8.6142173,,07:00-23:30
autoDTL,yes, ,41.180371,-8.5853012,,
Mercadejo,outpost,Rua da Fábrica Social ,41.1566756,-8.605945,,
,vacant, ,41.1491638,-8.6129034,,
,vacant,Rua do Loureiro 58,41.1450479,-8.6103077,,
,gift,Rua do Loureiro 82,41.1449898,-8.6100834,,
,lighting,Rua do Loureiro 84,41.1449832,-8.6100492,,
(desocupado),vacant, ,41.1449712,-8.6100061,,
,gift,Rua do Loureiro 94,41.1449542,-8.6099292,,
(desocupado),vacant, ,41.1449412,-8.6098737,,
J. Oliveira,mobile_phone,Rua do Loureiro 37,41.1448338,-8.6094393,,
J. Oliveira,mobile_phone,Rua do Loureiro 37,41.1448986,-8.609439,,
Bazar Bangla 5,gift,Praça de Almeida Garrett ,41.1457853,-8.6109667,,
in travel,travel_agency,Praça de Almeida Garrett ,41.1451357,-8.6112208,,
Prometeu - Artesanato,gift,Rua Mouzinho da Silveira 136,41.1429783,-8.613698,,
Bem Português,gift,Rua Mouzinho da Silveira 148;146,41.1430572,-8.6136033,,
A Sementeira,garden_centre,Rua Mouzinho da Silveira 178,41.1432906,-8.6132846,,
Cultura Portuguesa Arts & Crafts,interior_decoration,Rua Mouzinho da Silveira 318,41.1446719,-8.6114198,,
Poli Mercado,convenience, ,41.1643977,-8.6051568,,
,vacant,Rua da Galeria de Paris 28,41.1468984,-8.6144461,,
Loja das Tábuas,gift, ,41.1427465,-8.6150032,,
Loja das Flores,florist,Praça da Liberdade 123,41.1467411,-8.61083,,
Yellow Bus,travel_agency, ,41.1461477,-8.6118212,,
Fátima Mendes,clothes,Avenida dos Aliados 173,41.1485765,-8.6114385,,
Tod's,shoes,Avenida dos Aliados 115,41.1480461,-8.6114622,,
Marcolino,jewelry, ,41.145937,-8.6113748,,
OWD - Oporto Wine Depot,wine, ,41.1499962,-8.6113543,,
Via Garret,vacant, 307,41.1500277,-8.6112579,,
,vacant,Praça General Humberto Delgado 307,41.149745,-8.6114005,,
Cibercafé,vacant, 291,41.1496493,-8.6114208,,
Top Atlântico,travel_agency, ,41.1494479,-8.6114655,,
Feniana,shoes,Rua do Clube dos Fenianos ,41.1502934,-8.6110453,,
Byrdstore,car,Rua Egas Moniz 13,41.1623226,-8.6166252,,
Móveis Pina,furniture,Rua da Lada 132;134,41.1408115,-8.6119249,,
Douro Sport,gift,Rua da Lada 82; 80,41.1408283,-8.6113692,,
Loja d'Avó Esperança,gift,Cais da Ribeira 39; 38,41.140585,-8.6119282,,
Pomar Macedo,convenience,Cais da Ribeira 44B; 44A,41.1405685,-8.6122521,,
O Lugar da Jóia,jewelry,Rua 31 de Janeiro 186,41.1460789,-8.6080128,,
Backstage,clothes, ,41.1460823,-8.6074055,,
Calzedonia,vacant,Rua dos Clérigos 60,41.1460328,-8.6130467,,
Natura,clothes, ,41.1460498,-8.6129104,,Mo-Su 10:00-20:00
,vacant,Rua 31 de Janeiro ,41.1460484,-8.6098319,,
,gift,Rua 31 de Janeiro 40,41.1460479,-8.6099567,,
Massima Paris,jewelry,Rua 31 de Janeiro 38,41.1460477,-8.6099912,,
Souvenir Portugal,gift,Rua 31 de Janeiro ,41.146041,-8.6101565,,
Toranja,gift,Rua 31 de Janeiro 18,41.1460473,-8.6102423,,
,kiosk,Rua 31 de Janeiro 20,41.1460475,-8.6102069,,
Bazar - Bruna,clothes,Rua 31 de Janeiro 70; 68,41.1460515,-8.6096475,,
Casa António Porto,gift,Rua 31 de Janeiro 74,41.1460527,-8.6095949,,
Machado Joalheiro,jewelry,Rua 31 de Janeiro 90,41.1460588,-8.6093964,,
Gio Rodrigues,clothes,Rua 31 de Janeiro 114,41.1460669,-8.6090725,,
Porto Standard,vacant,Rua 31 de Janeiro 140,41.1460681,-8.6087825,,
Vanny,vacant,Rua 31 de Janeiro 146,41.1460719,-8.6087326,,
,vacant,Rua 31 de Janeiro 170,41.1460754,-8.6083493,,
,gift, ,41.1460852,-8.607574,,
Coisas & Gourmet,deli,Rua da Bainharia 105,41.1432206,-8.6126184,,Mo-Sa 10:00-18:30
,gift,Rua da Bainharia 111,41.143226,-8.6125755,,
Lago Artes,art,Rua da Bainharia 119;121;123,41.1432534,-8.6124633,,Mo-Sa 10:30-18:30
Barbearia Bessa,hairdresser,Rua da Bainharia 134,41.1432674,-8.6122684,,
21 de Fevereiro,kiosk,Rua Chã ,41.1441344,-8.6098145,,
Livraria Lopes da Silva,books,Rua Chã ,41.1441008,-8.6098507,,
D'Época,deli,Rua Chã 116,41.1440531,-8.6096512,,
,gift,Rua Chã 128,41.144096,-8.6095027,,
"Lidador, taças troféus e medalhas",yes, ,41.144832,-8.6077237,,
Moloko,clothes,Praça da Batalha ,41.1460133,-8.6071936,,
Amour Glamour Porto,clothes,Rua de Santa Catarina 17,41.1463928,-8.6072114,,
Marques Soares,clothes,Rua de Santa Catarina 19,41.1464226,-8.6071477,,
Gália,bag,Rua de Santa Catarina 31,41.1464913,-8.6071195,,
Bem Português,gift, ,41.1465938,-8.60708,,
Perfecta,jewelry," 83,89,95,91",41.1471156,-8.6068902,,
Salão Azul,hairdresser, ,41.1472121,-8.6068285,,
Anel,jewelry,Rua de Santa Catarina 251,41.1472987,-8.606797,,
Sephora,cosmetics, ,41.1473835,-8.6067742,,
Bershka,clothes, ,41.1472403,-8.6068235,,
Ponto das Artes,art,Rua de Santa Catarina 125,41.147337,-8.6067843,,
Calçado Guimarães,shoes, ,41.1474289,-8.6067561,,
Salsa,clothes, ,41.1477117,-8.6066508,,
Swarovski,jewelry,Rua de Santa Catarina 203,41.1479637,-8.6065603,,
Papelaria Progresso,stationery, ,41.1481384,-8.6069653,,
Porto Meia,clothes,Rua de Santa Catarina ,41.1480904,-8.6065184,,
,clothes,Rua Formosa ,41.1483563,-8.6066337,,
Miss 101,clothes,Rua Formosa ,41.1483229,-8.6065258,,
Fio d'Ouro,jewelry, ,41.1483363,-8.606569,,
Falconeri,clothes,Rua de Santa Catarina ,41.1482686,-8.606449,,Mo-Su 10:00-19:00
Casa Lima,bag,Rua de Santa Catarina 231,41.1482303,-8.6064614,,
Ana Margarida,hairdresser,Rua de Santa Catarina 269,41.1486181,-8.6063588,,
Primor,cosmetics,Rua de Santa Catarina 257-261,41.1485525,-8.6063534,,Mo-Su 10:00-23:00
Ericeira Surf & Skate,clothes,Rua de Santa Catarina 273,41.1486325,-8.6063263,,
Ordem dos Magos,yes,Rua de Santa Catarina 279,41.1486751,-8.6063095,,
Rosa Clará,clothes,Rua de Santa Catarina 283,41.1487069,-8.6063021,,Mo-Sa 10:00-19:00
Saboriccia,convenience,Rua de Santa Catarina 303,41.1488665,-8.6062337,,
Mass Kids,clothes,Rua de Santa Catarina 315,41.1489912,-8.6061918,,
Mazal,jewelry,Rua de Santa Catarina 251,41.1484577,-8.6064014,,
Haity,vacant,Rua de Santa Catarina 247,41.1484267,-8.6064114,,
Hawkers,clothes,Rua de Santa Catarina 315,41.1487885,-8.6062726,,
Ale-Hop,clothes, ,41.1490331,-8.6061818,,
Adidas Store,shoes,Rua de Santa Catarina 337,41.1492013,-8.6061509,,
Multiopticas,optician,Rua de Santa Catarina 325,41.1490881,-8.6061684,,
BMC Pharma,cosmetics,Rua de Santa Catarina 347,41.1492598,-8.6061486,,
Flormar,cosmetics,Rua de Santa Catarina 345,41.1492411,-8.6060929,,
Flying Tiger Copenhagen,variety_store,Rua de Santa Catarina 349,41.1492815,-8.6060758,,
Bruxelas,clothes,Rua de Santa Catarina 351,41.1492988,-8.606082,,
Rituals...,cosmetics, 365,41.1493918,-8.6060654,,
Skechers,shoes,Rua de Santa Catarina 369,41.1494356,-8.6060431,,
Emília Rodrigues,hairdresser,Rua de Santa Catarina 375,41.1495433,-8.606047,,
Foot Locker,shoes,Rua de Santa Catarina 377,41.1495234,-8.6059957,,
Misako,clothes, ,41.1496961,-8.6059387,,
Novalma,clothes, ,41.1500947,-8.6057644,,
Gente Miúda,baby_goods, ,41.1501805,-8.6057416,,
La Citta,clothes,Rua de Santa Catarina 457,41.1502179,-8.6057204,,
Casa Rocha,clothes,Rua de Santa Catarina 467,41.1503053,-8.6056883,,
Porto Souvenir Shop 2,gift,Rua de Santa Catarina 471,41.1503378,-8.6056703,,
Bico Doce,confectionery, ,41.150461,-8.6056497,,
Bairro Arte,gift,Rua de Santa Catarina 493,41.1505173,-8.6056101,,
Humana,clothes,Rua de Santa Catarina 513,41.1506835,-8.6055798,,Mo-Sa 09:30-19:30; Su 11:00-18:30
Gift Point,gift,Rua de Santa Catarina ,41.1507182,-8.6055667,,
,vacant,Rua de Santa Catarina 521,41.1507874,-8.605542,,
Jogos Santa Casa,kiosk,Rua de Santa Catarina 527,41.1508317,-8.60552,,
,gift, ,41.1507334,-8.6053516,,
Inatel,travel_agency,Rua de Santa Catarina 518,41.1506961,-8.6053707,,Mo-Fr 10:00-19:00; Sa 09:30-13:30
HD,clothes, ,41.150403,-8.6054767,,
Cex - Entertainment Exchange,electronics,Rua de Santa Catarina 480,41.1503674,-8.6054945,,Mo-Su 10:00-20:00
Em Viagem Travel Solutions,travel_agency,Rua de Santa Catarina 470,41.1502871,-8.6055196,,
Montra 190,vacant,Rua de Santa Catarina 464,41.1502384,-8.6055401,,
Almas Jóia,jewelry,Rua de Santa Catarina 472,41.1503224,-8.6055069,,
Capitólio,perfumery,Rua de Santa Catarina 458,41.1501805,-8.6055558,,
Tip Top,gift, ,41.1500892,-8.6055887,,
Funerária Portuense,funeral_directors,Rua de Santa Catarina 432,41.1499816,-8.6056215,,
Mac Joias,jewelry,Rua de Santa Catarina 430,41.1499349,-8.605646,,
Laser IN Estética,beauty,Rua de Fernandes Tomás 557,41.1495413,-8.6051568,,
Camport Style & Confort,shoes, ,41.149614,-8.6053526,,
,vacant,Rua de Santa Catarina 400; 404,41.1496908,-8.6057225,,
Max,shoes,Rua de Santa Catarina 380,41.1494641,-8.6057979,,
Ecco,shoes, ,41.1493783,-8.6058392,,
Paula Teixeira,hairdresser, ,41.1493239,-8.605823,,
Chuak 2,clothes,Rua de Santa Catarina 360,41.149304,-8.605872,,
Sportino Megastore,clothes,Rua de Santa Catarina 354; 356,41.1492611,-8.60587,,"Mo-Sa 10:30-19:30; Su 11:00-13:30,14:30-20:00"
Maria Paquete,hairdresser,Rua de Santa Catarina 310,41.1488597,-8.6059115,,Mo-Sa 10:00-19:00
Salão Zorba,hairdresser, ,41.1487443,-8.6060272,,
MS Nails,beauty,Rua de Santa Catarina 286,41.1487274,-8.6059997,,Tu-Sa 09:30-19:00
Pronovias,clothes,Rua de Santa Catarina 276,41.1486138,-8.606113,,
Milénio Gold,pawnbroker, ,41.1485568,-8.6060649,,
Fátima & Teresa Simas,hairdresser, ,41.1485345,-8.6060519,,
Freestyle Ink Tatoo,tattoo,Rua de Santa Catarina 274,41.1485433,-8.6060996,,
Nice Sapataria,shoes, ,41.1485446,-8.6061432,,
Tezenis,clothes, ,41.1483626,-8.6061949,,
Sapataria Ana,shoes, ,41.14797,-8.6063806,,
Calzedonia,clothes,Rua de Santa Catarina 208,41.1480072,-8.6063652,,
Stradivarius,clothes,Rua de Santa Catarina 212,41.1480604,-8.6063418,,Mo-Fr 10:00-20:00; Sa 10:00-13:00
SEASIDE,shoes, ,41.1479076,-8.6063876,,
Mass Perfumarias,perfumery,Rua de Santa Catarina ,41.1477748,-8.6064537,,
Mass Perfumarias,perfumery,Rua de Santa Catarina 174,41.1477418,-8.6064625,,Mo-Fr 10:00-19:30; Sa 10:00-19:00
Pull & Bear,clothes, ,41.1475236,-8.6065395,,
Oysho,clothes, ,41.1474496,-8.6065694,,
Ricami Veronica,clothes, ,41.1473739,-8.6066026,,
Bruxelas,clothes,Rua de Santa Catarina 130,41.1472977,-8.606626,,
Plácido,clothes,Rua de Santa Catarina 76,41.1468404,-8.6067826,,
"Portiny - Carteiras, Marroquinaria",bag,Rua de Santa Catarina 74,41.1468043,-8.606792,,
G.E. Cabeleireiros Estética,hairdresser,Rua de Santa Catarina 66,41.1467268,-8.6067792,,
Gift Paradise,gift,Rua de Santa Catarina 62,41.1467114,-8.6068299,,
Pedra Dura,jewelry,Rua de Santa Catarina 68,41.1467617,-8.6068087,,
MAX,shoes,Rua de Santa Catarina 50,41.1466074,-8.6068664,,
"Machado, Malcher - Material Dentário",medical_supply,Rua de Santa Catarina 36,41.1464993,-8.606796,,
Cabeleireiros Isabel & Branca,hairdresser,Rua de Santa Catarina 36,41.1465039,-8.606858,,
Tinoco Perfumarias,perfumery,Rua de Santa Catarina 24; 26,41.146387,-8.6069368,,
Choc,clothes, ,41.1463213,-8.6069677,,
Minisom,hearing_aids, 86,41.1449938,-8.607484,,
Talho Batalha,butcher, 78,41.1449375,-8.6075212,,
,clothes,Rua de Cimo de Vila 85,41.1447737,-8.6083208,,
Porto Lab,mobile_phone,Rua de Cimo de Vila 2; 4,41.1444013,-8.6087661,,
,bag, ,41.1444311,-8.6087255,,
Dreams Souvenir,gift,Rua do Cativo ,41.1441437,-8.6093444,,
,gift,Rua Chã 86,41.1439046,-8.6099989,,
Clean Express,laundry, ,41.1495479,-8.6207794,,08:00-24:00
Enaltece Sabor,vacant,Rua do Almada 294,41.1490167,-8.6120453,,Mo-Sa 11:00-23:00; Su 16:00-23:00
Grupótica,optician,Avenida da Boavista 201,41.1573331,-8.6261604,,Mo-Fr 09:30-19:30; Sa 09:30-13:00
Cafe Porto Santo,coffee, 276,41.1486107,-8.6248817,,
,travel_agency, ,41.1465113,-8.6117249,,
Rui das Frutas Frescas,greengrocer, ,41.162667,-8.6112547,,
H7M - Informática,computer,Rua de António Carneiro 428,41.1503696,-8.5938951,,
Ritual,bakery, ,41.1837271,-8.5998641,,
Olmar Megastore Porto,stationery, ,41.1802104,-8.6193976,,
Papelaria Belas Artes,stationery, ,41.1467065,-8.6008482,,
Alcatifas das antas,interior_decoration, ,41.170462,-8.6493393,,
Tabacaria Escorpião,tobacco, ,41.1526067,-8.607053,,Mo-Fr 07:00-19:00; Sa 07:00-13:00
Andre's,estate_agent, ,41.1533193,-8.6050613,,
Relojoaria & Ourivesaria Loureiro,watches, ,41.1525759,-8.6070083,,"Mo-Fr 10:00-13:00,15:00-19:30; Sa 10:00-13:00"
Remax,estate_agent, ,41.1522598,-8.6058168,,
Plee Tattoos,tattoo,Rua de Gonçalo Cristóvão 13E,41.1533162,-8.604909,,
Arena Porto,games,Rua de Santa Catarina 801,41.1532721,-8.6048574,,"Mo-Fr,Su,PH 14:00-20:00; Sa 10:00-20:00"
Luís Bichinho,clothes, ,41.1530956,-8.6053281,,
Garrafeira Tio Pepe,alcohol,Rua Engenheiro Ferreira Dias 51,41.1742117,-8.6482412,,
The bird,tea,Rua da Agra 143,41.155553,-8.6783404,,
Extinporto,yes, ,41.1531962,-8.6036639,,
Leiloeira São Domingos,yes, ,41.1481417,-8.6505865,,
Padaria Pastelaria Veiga (Filial 17),pastry, ,41.1669505,-8.6526958,,
Foto-Optica José Arnaldo,optician, ,41.1622926,-8.6473899,,
Alberto Marinho Cabeleireiros,hairdresser, ,41.1605733,-8.6442356,,
D'Epiderme,beauty, ,41.1605324,-8.644029,,
,laundry, ,41.1413256,-8.6170724,,
Loja saúde,medical_supply,Rua da Fábrica 36,41.1474391,-8.6128384,,
Moureja,vacant,Rua da Fábrica 22,41.1473746,-8.612612,,
,vacant, ,41.1472266,-8.6124774,,
Escovaria de Belmonte,hardware,Rua de Belomonte 34,41.1427869,-8.6156879,,
EuPoupo,variety_store, ,41.1593594,-8.6366781,,
Sapateiro Económica,shoes, ,41.1607178,-8.6330569,,
Marchand de marons,greengrocer,Rua de Gil Eanes ,41.1574144,-8.6601788,,Mo-Fr 17:00-19:00
Espiga,art,Rua de Clemente Meneres 66A,41.1487306,-8.6192968,,
Pomar da agra,supermarket,Rua da Agra 72,41.1551422,-8.6791835,,08:00-20:00
,furniture, ,41.154924,-8.6798452,,
Padaria Ribeiro,bakery, ,41.1556259,-8.6637078,,
Minipreço,supermarket,Rua das Condominhas ,41.1513342,-8.6495404,,Mo-Su 09:00-20:00
,hairdresser,Rua das Condominhas ,41.1499345,-8.6523926,,
,hairdresser, ,41.1594597,-8.6655115,,
,laundry, ,41.1591567,-8.6660131,,
,bakery, ,41.1543447,-8.6473784,,
,kiosk, ,41.1543447,-8.6472979,,
Roupa na Mão,laundry, ,41.1550333,-8.6479523,,
Alegre Pet,pet, ,41.1551424,-8.6480194,,
Mega Hair,hairdresser, ,41.1595334,-8.6360026,,
Oporto Look,hairdresser,Avenida do Doutor Antunes Guimarães 24,41.1638552,-8.6623641,,09:30-19:30
Amadeu's Cabeleiro e Barberia,hairdresser,Rua das Condominhas 451,41.1512612,-8.6498625,,
Farmácia Valdrez,vacant,Rua de Luís Cruz 230,41.1506168,-8.6507936,,
Hair Identity,hairdresser,Rua de Miguel Bombarda 295,41.149644,-8.6204554,,Mo-Su 09:00-20:00
Fresh-Peixaria,seafood,Rua Guerra Junqueiro ,41.1584721,-8.6359188,,
liga tu,electronics, ,41.1554325,-8.6303608,,Mo-Sa 08:00-18:00
Flores Joaquim Santos,florist, ,41.1541981,-8.6745833,,
Clínica Mira Corrêa,hairdresser,Rua da Quinta 551,41.1500892,-8.6645221,,
Cães y coisas,pet,R. Dom Domingos Pinho Brandão 116,41.1636024,-8.6754914,,
,general, ,41.1512479,-8.6499158,,
primo verde,convenience, ,41.1502834,-8.6517402,,
,locksmith, ,41.150275,-8.6517541,,
serrurier,locksmith, ,41.1502221,-8.6518543,,
Vidal Tecidos,clothes, ,41.1650455,-8.6701145,,
Cabeleireiro Palmeiras-Foz,hairdresser,Rua da Quinta 565,41.1500569,-8.6647367,,
Blue Drop,laundry, ,41.1767444,-8.5875964,,Mo-Su 07:00-24:00
Vista alegre,furniture, ,41.1516051,-8.6275967,,
Fresh Clean,laundry, ,41.1652313,-8.6248134,,
Confeitaria Magalhães,confectionery, ,41.1655921,-8.6250471,,
Lavandaria Limpal,laundry, ,41.1646869,-8.6249699,,
Intertom,clothes, ,41.1653532,-8.6248042,,
Dep'l centro laser,beauty, ,41.1647698,-8.6249601,,
Berta Sousa,hairdresser, ,41.1649574,-8.6249635,,
Chave Nova,estate_agent, ,41.1653233,-8.6248243,,
Viesdi,chemist, ,41.1646666,-8.6247693,,
Bombom retrosaria,sewing, ,41.1652779,-8.6248194,,
Mr. Boss Barber Shop and Miss Boss Hair Saloon,hairdresser,Rua de Francos 25,41.1671736,-8.6342946,,Mo-Fr 09:00-20:00; Sa 09:00-19:00
Princesinha - Papelaria e Tabacaria,newsagent,Rua de Cedofeita 486,41.1536673,-8.618453,,Mo-Fr 08:30-19:00; Sa 09:00-13:00
Drogaria Anabela,garden_centre,Rua de Cedofeita 463,41.1547032,-8.6189923,,"Mo-Fr 09:00-13:00, 14:00-19:00"
Candelabro,books, ,41.1547512,-8.6190119,,
Novo Talho Sacadura Cabral,butcher, ,41.1551719,-8.619224,,"Mo-Sa 07:30-13:00,14:30-19:30"
Continente,supermarket, ,41.1632247,-8.6212328,,
ALE-HOP,gift,Avenida Vimara Peres 70,41.1427969,-8.6101155,,"Mo-Fr 09:00-12:30, 14:00-18:00; Sa 10:00-12:30"
Casa dos Forros,craft,Rua de Cedofeita 189,41.1508544,-8.6173783,,"Mo-Fr 09:30-12:30,14:30-19:00; Sa 09:30-12:30; PH closed"
,seafood, ,41.1432148,-8.616553,,
Douro Clean,laundry, ,41.1687088,-8.6361752,,
Nova Prelada,bakery, ,41.1698779,-8.6348458,,
Ruta de China,general, ,41.1693401,-8.6320159,,
Continente,supermarket, ,41.1670014,-8.6268845,,Mo-Su 08:00-21:00
Novo mercado de francos,general,Rua Central de Francos ,41.1671497,-8.6347116,,Mo-Sa 08:00-18:00
Royal Enfield Porto,motorcycle,Rua de Faria Guimarães 295,41.1599263,-8.6080603,,"Mo-Fr 10:00-13:00,14:00-19:00; Sa 10:00-13:00; PH off"
Motocidade,motorcycle,Travessa de Antero de Quental 1750,41.1603137,-8.6090129,,"Mo-Fr 10:00-13:00,14:00-19:00; Sa 10:00-13:00; PH off"
Garagem Montebelo,car_repair, ,41.1533141,-8.5961585,,
Glass Drive,car_repair, ,41.1538446,-8.595841,,
Midas,car_repair, ,41.1537085,-8.5959243,,
Golden Hair,hairdresser, ,41.154357,-8.5956407,,
Talho Miranda,butcher, ,41.1544523,-8.5955852,,"Mo-Fr 08:00-13:00,15:00-19:30; Sa 08:00-13:00"
Confeitaria Atlântico,bakery, ,41.1544043,-8.5956111,,Mo-Sa 07:00-19:00
Pingo Doce,supermarket,Campo 24 Agosto 170-172,41.150003,-8.5981112,,
Talho Primor,butcher, ,41.1487125,-8.5982855,,
,convenience, ,41.148808,-8.598355,,
,religion, ,41.1488713,-8.5984001,,
Lê Beautiful,hairdresser, ,41.1489338,-8.5984587,,
Optima Tours,travel_agency, ,41.1491082,-8.5986025,,
Fernanda Rua,hairdresser, ,41.149178,-8.5985976,,
Iasil,clothes, ,41.1492303,-8.5985672,,
Phone Clínica,mobile_phone, ,41.14976,-8.5982599,,
Norsec,dry_cleaning, ,41.1499216,-8.59816,,
,greengrocer, ,41.1486598,-8.5988977,,Mo-Fr 10:00-19:00
Luar Protector Opticas,optician, ,41.1486139,-8.5988733,,Mo-Fr 10:00-19:00; Sa 10:00-13:00
Paula Teixeira,hairdresser, ,41.1484642,-8.5990062,,
Grab & Go,convenience, ,41.1484532,-8.598938,,24/7
,florist, ,41.1508736,-8.5942398,,
Óptica da Fábrica,optician,Rua da Fábrica 58,41.1475281,-8.613151,,
"Quiosque São Bento - Fortuna das Letras, Lda.",kiosk, ,41.1456072,-8.6103953,,
Prassa,clothes,Rua Sá da Bandeira 641,41.1517211,-8.6061077,,Mo-Fr 14:00-18:00; Sa 10:30-19:00
"Skin, Nails & I",beauty,Rua Sá da Bandeira 655,41.1519056,-8.6063086,,Mo-Sa 09:00-20:00
Chocolataria Equador,chocolate,Rua Sá da Bandeira 637,41.1517747,-8.6063895,,"Mo-Sa 11:00-14:00, 14:30-19:30"
MoMA Porto,clothes,Rua Sá da Bandeira 633,41.1517357,-8.6064122,,
Doces regionais,pastry, ,41.1454422,-8.6103559,,
Confeitaria Leblon,pastry, ,41.1524389,-8.6307519,,
Mercado de Invicta,gift, ,41.1472768,-8.6126424,,
Paiva e Cid,clothes, ,41.1500923,-8.6075038,,
Humana,clothes,Rua de Cedofeita 327,41.1525278,-8.6182047,,Mo-Sa 09:30-19:30; Su 11:00-18:30
Planeta Fresco,convenience,Rua Alcaide de Faria ,41.1723578,-8.6663625,,"PH,Mo-Su 08:00-19:00"
Talho Fabius,butcher, ,41.1720487,-8.6662109,,Mo-Sa 10:00-19:30
Minimercado Donas de Casa,convenience, ,41.1749395,-8.66612,,
Bazar BIBI,convenience, ,41.171559,-8.6655958,,
Estores Ferreira,window_blind, ,41.1715893,-8.6655345,,
Lavandaria da Rita,laundry, ,41.1717769,-8.6652199,,
,stationery, ,41.1721282,-8.6647373,,
Adérito Barbeiro,hairdresser, ,41.1721606,-8.6646937,,
,general, ,41.1717056,-8.6653204,,
FlorHália,florist, ,41.1718122,-8.665161,,
,yes, ,41.1718929,-8.6625123,,
,stationery, ,41.1718756,-8.6651,,
,car_repair, ,41.171678,-8.6656627,,
Augusta Silva Cabeleireiro,hairdresser, ,41.1722027,-8.664624,,
Luisa Cabeleireiros,hairdresser, ,41.1720098,-8.6649106,,
,hairdresser, ,41.1719532,-8.6649885,,
Petoutlet,pet, ,41.165126,-8.6703578,,
Sr. Cão & Dona,pet, ,41.1683822,-8.6711079,,Mo-Fr 10:00-19:00; Sa 10:00-13:30
O Brasileiro,bakery, ,41.1716921,-8.6622853,,
3 Desejos,supermarket, ,41.1695589,-8.6590934,,"PH,Mo-Su 08:00-19:30"
Florista do Lidador,florist, ,41.1706445,-8.657653,,
Alice Nunes Cabeleireiros,hairdresser, ,41.1707764,-8.6575291,,
Auto Luanda,car_repair, ,41.1702972,-8.6588784,,
Pão Quente Fonte da Moura,bakery, ,41.1644765,-8.6633599,,
Garagem da Vilarinha,car_repair, ,41.1641785,-8.6629845,,
Optica Invicta,optician, ,41.1640057,-8.6629071,,
Papelaria da Fonte da Moura,stationery, ,41.1642462,-8.6626932,,
Barbearia Maria Cruz,hairdresser,Avenida Doutor Antunes Guimarães 47,41.1641238,-8.6628016,,Mo-Fr 09:00-13:00; Mo-Fr 15:00-19:30; Fr 00:00-13:00; Sa 15:00-17:00
Ametista,beauty, ,41.1703729,-8.667004,,
,fashion_accessories, ,41.1635931,-8.6651825,,
Go Natural,supermarket, ,41.1512051,-8.6765047,,
Vasco Freitas - VF - Hairstylist Salon,hairdresser, ,41.1585196,-8.6820056,,
Centro Comercial da Foz,mall, ,41.1592468,-8.6834984,,
Interdesign,interior_decoration, ,41.1578338,-8.6823251,,
Foz 17,jewelry, ,41.157291,-8.6816707,,
Haity,clothes, ,41.1570697,-8.68166,,
Haity,shoes, ,41.1569533,-8.6815634,,
Minipreço,supermarket, ,41.1574818,-8.6807705,,
Hairstudio,hairdresser,Rua do Marechal Saldanha 68,41.1555465,-8.6779199,,Mo-Sa 08:30-20:30
Dourobike,bicycle, ,41.1507731,-8.6769616,,
Anízia Florista,florist,Rua de Cândida Sá de Albergaria ,41.1536727,-8.6758643,,Mo-Fr 09:00-17:00
Talho do tunel,butcher,Rua de Cândida Sá de Albergaria ,41.1538856,-8.6760953,,Mo-Sa 08:00-20:00
Rainha da Foz,bakery,Rua de Diu 297,41.1540747,-8.6747194,,Mo-Sa 07:00-20:00
Reprografia Aeflup,copyshop, ,41.1509219,-8.6320707,,Mo-Fr 09:00-17:00
Informática FLUP,computer, ,41.1506545,-8.6330273,,Mo-Fr 09:00-16:00
Reprografia FLUP,copyshop, ,41.150614,-8.6330435,,Mo-Fr 09:00-17:00
AkiháCarne,butcher, ,41.151867,-8.6766506,,
Pingo Doce,supermarket, ,41.1483186,-8.6581726,,Mo-Su 08:30-21:00
Continente,supermarket, ,41.1770803,-8.6466498,,Mo-Su 08:00-21:00
WERA Store 2,variety_store, ,41.1771154,-8.6503427,,
Espeto Talhos,butcher, ,41.1699306,-8.6492626,,"Mo-Fr 08:00-13:00,14:30-17:30; Sa 08:00-13:00,14:00-18:00"
Barber Shop New York,hairdresser, ,41.1674099,-8.6503642,,
Padaria O Sultão,bakery, ,41.1707382,-8.656157,,
Sapataria Picha,shoes, ,41.170559,-8.6565867,,
Tabacaria Welwitschia,stationery, ,41.1706656,-8.6568147,,
EuroStore,convenience, ,41.1703862,-8.656656,,
Abreu - Viagens e Turismo,travel_agency, ,41.1660656,-8.6493789,,
Casa Havanesa,tobacco, ,41.1660689,-8.6491223,,
Estores J Machado,window_blind,Rua da Preciosa 402,41.1764086,-8.6568912,,Mo-Fr 09:00-19:00
Clínica do Motoe,car_repair, ,41.1757048,-8.6564706,,
Talho de Pereiró,butcher, ,41.1738362,-8.6546618,,
Tubos na Hora - Comércio de Tubos Hidráulicos,trade, ,41.1770302,-8.6575459,,
Talho Martim Moniz,butcher, ,41.1727857,-8.6640335,,
Peixaria Martim Moniz,seafood, ,41.1728249,-8.6637714,,
Mercearia Manuel Macedo,convenience, ,41.1730352,-8.6634691,,
Colunex,bed, ,41.1648244,-8.6721322,,
Fashion Clinic,clothes, ,41.1648522,-8.6722195,,
Alcina Alves & Filhos,clothes,Rua Alcaide de Faria ,41.1721845,-8.66704,,Mo-Fr 08:30-17:00
,car_repair, ,41.172119,-8.6730521,,
Cabeleireiro Celina e Laura,hairdresser, ,41.1718202,-8.6727401,,
1000 Paladares,deli, ,41.1705451,-8.6715514,,
Minimercado da Vilarinha,general, ,41.1725839,-8.6737851,,
Frutaria do Bolhão,greengrocer, ,41.1514877,-8.6073755,,
,hairdresser, ,41.1717962,-8.6643821,,
Spar,supermarket, ,41.1596239,-8.6284866,,
Loja GALP Casa,yes, ,41.1589018,-8.6301852,,
Zara Home,interior_decoration, ,41.1566536,-8.6292481,,
SEASIDE,shoes, ,41.1552853,-8.6304311,,
Mundoffice,stationery, ,41.1527698,-8.6311803,,
QUALQUERIDEIA,copyshop, ,41.1524692,-8.6312154,,
,general, ,41.1545948,-8.6313298,,
Continente,supermarket, ,41.1553385,-8.6288498,,
Froiz,supermarket, ,41.1548295,-8.6294617,,
Mundoffice,copyshop, ,41.1527532,-8.6310855,,
Scrape Needle,music, ,41.1611331,-8.6114166,,
Perry Sampaio,yes, ,41.1525734,-8.6369443,,
Tintas CIN,paint, ,41.1541761,-8.6421671,,
Cassio,furniture, ,41.1540489,-8.6418225,,
ManMood,clothes, ,41.1537955,-8.6411144,,
,florist, ,41.1523056,-8.6352035,,
,general, 283,41.1707755,-8.6614707,,
Tipografia do Carmo,copyshop, ,41.1466299,-8.6165427,,
Lavandaria Lidador,laundry, ,41.1711805,-8.6583095,,
,general, ,41.1704267,-8.6578254,,
Only Battery,batteries, ,41.1711098,-8.6572703,,"Mo-Fr 09:00-12:30,14:00-18:30; Sa,Su off"
Casa Macedo,hardware, ,41.1715404,-8.6578564,,
Salão,hairdresser, ,41.1713522,-8.6590494,,
Margot,clothes, ,41.1474668,-8.6159328,,
Pétalas,clothes,Rua de Carlos Alberto 119,41.1476715,-8.6158442,,
Marmi,fashion_accessories,Rua de Carlos Alberto 117,41.1477175,-8.615835,,
Invicta Cabeleirieiros,hairdresser, ,41.147711,-8.6157659,,
Miescarpa,fashion_accessories, ,41.1478413,-8.6158458,,
,vacant, ,41.1478706,-8.6158358,,
Lopo Xavier & Companhia,fabric, ,41.1480908,-8.616129,,
Spar,convenience, ,41.1478295,-8.616152,,
Armazens Branco,vacant, ,41.1477659,-8.6161596,,
Alves Óptica,optician, ,41.1470635,-8.6167581,,
Papelaria do Carmo,stationery, ,41.1471221,-8.6169083,,
Garrafeira do Carmo,wine, ,41.1471395,-8.6169684,,
Tabacaria do Piolho,tobacco, ,41.1468851,-8.6165741,,
Angel Outlet,clothes, ,41.1458171,-8.6132225,,
Principe Porto Portugal,gift,Rua dos Clérigos 45-47,41.1458355,-8.6130589,,
Manteigaria - Fábrica de Pastéis de Nata,pastry,Rua dos Clérigos 37,41.1458485,-8.6129674,,"Mo-Th,Su 08:00-23:00; Fr-Sa 08:00-24:00"
Dom João,wine, ,41.1458508,-8.6129224,,
Souvenirs dos Clérigos,gift, ,41.1458543,-8.6128792,,
Navarro,bag, ,41.1458759,-8.6126866,,
Lidia Joias,jewelry, ,41.1458825,-8.6126212,,
Fly London,shoes, ,41.1459902,-8.6134974,,
,gift,Rua dos Clérigos 84,41.1459976,-8.613418,,
Força Portugal - Official Store,gift, ,41.1460055,-8.6133316,,
Sportino,shoes,Rua dos Clérigos 78,41.1460108,-8.6132656,,"Mo-Sa 11:00-20:00; Su 11:00-14:00,15:00-20:00"
Noiva,clothes,Rua dos Clérigos 70,41.1460218,-8.6131833,,"Tu-Fr 10:00-13:00, 14:30-19:00; Sa 09:30-18:30"
Parfois,fashion_accessories, ,41.1460425,-8.6129743,,
,vacant,Rua dos Clérigos 28,41.1460627,-8.6127064,,
RayBan,optician,Rua dos Clérigos 18,41.1460706,-8.6125739,,
Perfumaria Cleril,perfumery, ,41.146064,-8.6126369,,"Mo-Fr 09:30-12:30, 14:30-19:00; Sa 10:00-13:00"
,vacant, ,41.1460781,-8.6125132,,
Daniel Barbosa & Companhia,vacant, ,41.1461051,-8.6122868,,
David Rosas,watches, ,41.1461171,-8.6119637,,
Casa Oriental,gift,Campo dos Mártires da Pátria 112,41.1454484,-8.6150307,,
,antiques, ,41.1455291,-8.6147083,,
Pedantes,vacant, ,41.145747,-8.6136112,,
Loja da Universidade do Porto,gift, ,41.1468265,-8.6159464,,
Raras Socks,clothes, ,41.1462203,-8.6203579,,
,kiosk, ,41.1462556,-8.6177821,,
Funerária Pátria,funeral_directors, ,41.144601,-8.6169854,,
Porto In,vacant, ,41.1471258,-8.6149421,,
"Fernandes, Matos & Companhia",clothes, ,41.1466376,-8.6145566,,
Velho Jack,hairdresser, ,41.146243,-8.614376,,
,yes, ,41.1461904,-8.6142848,,
American Vintage,clothes, ,41.1461431,-8.614207,,
IdealBio,supermarket,Rua de Cinco de Outubro 352,41.1615201,-8.6319925,,Mo-Fr 09:00-20:00; Sa 09:00-19:00; Su 09:00-17:00
Aquário Electrónica,radiotechnics,Rua Doutor Júlio de Matos 65,41.1724169,-8.5885846,,
Luciano Florista,florist, ,41.1643584,-8.6621356,,
KA,interior_decoration, ,41.164124,-8.6622701,,
Divani & Divani,furniture, ,41.163727,-8.6625125,,
Dis'fruta,greengrocer, ,41.1704495,-8.6566152,,
M&F,hairdresser, ,41.1706522,-8.6566579,,
Ellana Store,variety_store, ,41.1706048,-8.6564099,,Mo-Su 09:00-20:00
Móveis Graça,furniture,Rua do Monte dos Burgos 786,41.1764759,-8.6281071,,
Pá do Forno,bakery, ,41.1557899,-8.5948106,,Mo-Sa 07:00-20:00; Su 07:00-13:00
Fruta na Cidade - Organic Farm Fresh Fruit,farm, ,41.1454452,-8.610405,,
Studio color,beauty, ,41.1842193,-8.6021588,,
Tiffosi,clothes, ,41.1470757,-8.6087243,,
CitySightseeing Portugal,travel_agency, ,41.1471522,-8.6086951,,
Talho Fonte da Moura,butcher, ,41.1651896,-8.663742,,
Barbearia Teixiera,hairdresser, ,41.1651332,-8.6637057,,
Peixaria Fonte da Moura,frozen_food, ,41.1641234,-8.6633242,,
,electrical, ,41.1660884,-8.6618152,,
Só Colchão,bed, ,41.1562606,-8.5941273,,
Loja da Sónia,clothes, ,41.1554406,-8.5949908,,
Nova Linha,computer, ,41.1553671,-8.5950384,,
Entrem... Entrem,supermarket, ,41.1551686,-8.5951607,,Mo-Sa 09:00-19:30
Foto Clube Estúdio kodak,photo, ,41.1549886,-8.5952798,,
PICO,kiosk, ,41.1549354,-8.59531,,
Toque Fino,hairdresser, ,41.1548917,-8.5953354,,
Johnny King Moustache,hairdresser, ,41.1735448,-8.6649642,,
Don Felipe barber,hairdresser, ,41.1598281,-8.6332162,,
Gato Vadio,books,Rua da Maternidade 124,41.151538,-8.6214024,,
Casa das Cortinas,curtain,Rua de Fernandes Tomás 753,41.1500999,-8.6075365,,
Good things will happen soon,gift, ,41.1509949,-8.6212136,,
Salão Bello Capelli,hairdresser,Rua do Capitão Pombeiro 269,41.166816,-8.6123573,,Mo-Sa 09:00-19:30
,vacant, ,41.1628915,-8.6642031,,
Luis Onefre,clothes, ,41.1635962,-8.6645368,,
Ermenegildo Zegna,clothes, ,41.1636201,-8.6646688,,
Joalharia Mahado,jewelry, ,41.1636449,-8.6648067,,
Rosa & Teixeira,clothes, ,41.1636495,-8.665239,,
Bang & Ofulsen,clothes, ,41.1634086,-8.664402,,
O'Parquet,furniture, ,41.1633369,-8.6646075,,
S11 Travel,travel_agency, ,41.1633536,-8.6646932,,
Clínica Endul,beauty, ,41.1634286,-8.6650784,,
Cenário Alfaiates,tailor, ,41.1633186,-8.6656944,,
Leonor Freitas - Clínica de Unhas,beauty, ,41.1633262,-8.6657395,,
Jesus Pfiro,clothes, ,41.1633545,-8.6659058,,
Stefanel,clothes, ,41.1633744,-8.666023,,
Marisa Guimarães,clothes, ,41.1633986,-8.6661652,,
Trendy Beauty Lounge,cosmetics, ,41.1634097,-8.6662304,,
Pili Carrera,clothes, ,41.1631267,-8.6674002,,
Gerald Darel,clothes, ,41.1629171,-8.6668086,,
Solário do Aviz,beauty, ,41.1628637,-8.6665246,,
Marisa Guimarães,clothes, ,41.162957,-8.6664592,,
Espaço B,hairdresser, ,41.163002,-8.6664494,,
OR Jóias de Autor,jewelry, ,41.1630806,-8.6665051,,
VYP,clothes, ,41.1631089,-8.6666485,,
Agatha Ruiz de la Prada,clothes, ,41.1631215,-8.6667474,,
Max Mara,clothes, ,41.1624909,-8.6666623,,
LTD-EDITION,clothes, ,41.1624542,-8.6669048,,
Two Friends,clothes, ,41.1624717,-8.6670095,,
Quarter Latin,clothes, ,41.1624996,-8.6671757,,
Salt,clothes, ,41.1625103,-8.6672393,,
D'Adélia,clothes, ,41.1625228,-8.6673139,,
Quinze e Meio,interior_decoration, ,41.1625514,-8.6674849,,
Quinto Império,interior_decoration, ,41.1625764,-8.6676336,,
Perfumes da Àgua,laundry, ,41.1626027,-8.6677905,,
Cutipol,interior_decoration, ,41.1627101,-8.6677945,,
,optician, ,41.1626289,-8.6672913,,
BBraune,tailor, ,41.1626095,-8.6671707,,
Julieta Joias,jewelry, ,41.1625851,-8.6670195,,
Godiva,chocolate, ,41.1625757,-8.6669615,,
Sia,interior_decoration, ,41.1625624,-8.6668792,,
Bistingo,clothes, ,41.1625558,-8.6668381,,
Forum Optica,optician, ,41.1628992,-8.6647268,,
,clothes, ,41.1629436,-8.6648396,,
Wesley,clothes, ,41.1630086,-8.6651191,,
Vispering,bed, ,41.1630461,-8.6653407,,
Jorge Oculista,optician, ,41.1629616,-8.6657381,,
Girasol Flores,florist, ,41.1623616,-8.6657654,,
Fátima Mendes,clothes, ,41.1621131,-8.6665101,,
BMB Jewels,jewelry, ,41.1621694,-8.6668206,,
Amoré - Trends & Brands,clothes, ,41.1621474,-8.6668825,,
ALRAC,perfumery, ,41.1621747,-8.6670354,,
Yoon - Concept Store,clothes, ,41.1621806,-8.6671983,,
,clothes, ,41.1622202,-8.6674213,,
Nude Professionals Foz,hairdresser, ,41.1631279,-8.6626754,,
Hastens,car, ,41.1632251,-8.6624258,,
Clínica do Pêlo,beauty, ,41.1631469,-8.662316,,
Etxart & Panno,clothes, ,41.163081,-8.6618975,,
Cenário d'Excelência Cabeleireiros,hairdresser, ,41.1631004,-8.6615568,,
Victus,bed, ,41.1631077,-8.661605,,
Reutilizar.org,books, 3213,41.1629746,-8.6613621,,"Tu,Th,Sa 10:00-12:00"
Gabinete de Estética,beauty, ,41.162861,-8.6613975,,
ItalianJob,clothes, ,41.1625237,-8.6579612,,
Club-Tour - Viagens e Turismo,travel_agency, ,41.1624599,-8.6575408,,
Margarida Flores,florist, ,41.1622592,-8.6573579,,
jcd,furniture, ,41.1621692,-8.6574181,,
Galeria Comercial Fonte da Moura,mall, ,41.1623318,-8.6574181,,
LavaMaria,laundry,Rua Engenheiro Ferreira Dias 954,41.1769433,-8.6468617,,Mo-Su 08:00-20:00
Poggenpohl,kitchen, ,41.1601726,-8.6448165,,
Galeria Comercial Edifício Bristol,mall, ,41.1600103,-8.6434312,,Mo-Sa 10:00-19:00
Ana Resende Fala-me da Moda,clothes, ,41.1597999,-8.642653,,
Evoque,shoes, ,41.1598412,-8.6425605,,
Divergencias,clothes, ,41.1599955,-8.6425494,,
BAnails,beauty, ,41.1600585,-8.6429228,,
Peonia Estética,beauty, ,41.1600463,-8.6428507,,
Autódromo Virtual da Boavista,video_games, ,41.1600353,-8.6427849,,
CTravel,travel_agency, ,41.1600757,-8.6430244,,
Live Travel,travel_agency, ,41.1600838,-8.6430728,,
Clube Code,clothes, ,41.1600937,-8.6431317,,
OuroValor,pawnbroker, ,41.1600512,-8.6434664,,
Aggs,kitchen, ,41.1600802,-8.643457,,
Orbitur,travel_agency, ,41.1600766,-8.6435212,,
Francesca Store,clothes, ,41.1600617,-8.6433741,,
Bora,hairdresser, ,41.1600635,-8.6432142,,
Stand da Avenida,car, ,41.1601133,-8.643703,,
Lili de Sousa,hairdresser, ,41.1595316,-8.6410203,,
Perafitas,clothes, ,41.1594609,-8.641035,,
Hugo Boss,clothes, ,41.1596871,-8.6411021,,
Carlos Sousa Alfaiate,tailor, ,41.1596326,-8.6414513,,
G's Collection,clothes, ,41.1596935,-8.6416062,,
Samp Studio,furniture, ,41.1597353,-8.6418288,,
Drip,clothes, ,41.1596785,-8.6414452,,
Norsec,laundry, ,41.1595027,-8.639627,,
Galeria St André,clothes, ,41.1595227,-8.6397448,,
Salão Madame,hairdresser, ,41.1592637,-8.6379993,,
Optica Boavista,optician, ,41.1588588,-8.6355799,,
Andiá Retrosaria,sewing, ,41.1588861,-8.6357611,,
Nespresso,coffee, ,41.1588573,-8.6330156,,
Livraria Nunes,books, ,41.158644,-8.6342888,,
Sapataria Céusinha,shoes, ,41.1585132,-8.6334808,,
TravelGate by Circe,travel_agency, ,41.1580825,-8.6313518,,
Casa da Baviera,stationery, ,41.1581505,-8.6314172,,
Premium Ópticas - Boavista,optician, ,41.1581763,-8.6315633,,
Drogaria Avenida,chemist, ,41.1583191,-8.6324301,,
Sumirux Home Decor,interior_decoration, ,41.1585926,-8.632231,,
HPDrones,photo, ,41.1586168,-8.6323793,,
Wrong Weather,clothes, ,41.1586388,-8.6325322,,
Tempur,bed, ,41.1587585,-8.632893,,
Thai Care,massage, ,41.159054,-8.6332421,,
Maison Rafael Freitas,clothes, ,41.1588335,-8.6337376,,
Centro Comercial Boavista,mall, ,41.1590647,-8.6351179,,
GeoStar,travel_agency, ,41.1593371,-8.636546,,
Best Travel,travel_agency, ,41.1605171,-8.643926,,Mo-Fr 09:30-19:00; Sa 09:30-13:00
SunSecret Solário,beauty, ,41.1606808,-8.6438808,,
Tesla,car_repair, ,41.1553521,-8.6493795,,
Mini Mix,convenience, ,41.1555237,-8.6481865,,
Banak Importa,furniture, ,41.1606948,-8.6447749,,
Falber Collections - Vestuário Masculino,clothes, ,41.1624546,-8.6482745,,
Carlos Sampaio,hairdresser, ,41.1624289,-8.6486351,,
Abreu,travel_agency, ,41.1633651,-8.6480689,,
Afetco,interior_decoration, ,41.163502,-8.6479148,,
,clothes, ,41.1633662,-8.6478869,,
Biclas & Triclas,bicycle, ,41.1421981,-8.6193598,,
António Cabeleireiro,hairdresser, ,41.1622501,-8.6472644,,
Bonitos Bombonaria,chocolate, ,41.1632326,-8.6471338,,
,clothes, ,41.1630398,-8.6472029,,
Esquina,stationery, ,41.1629565,-8.6471257,,
Pingo Doce,supermarket, ,41.163905,-8.6468012,,
Mixpão - Baixa,bakery,Rua de Mouzinho da Silveira ,41.1418571,-8.6143891,,
Cash converters,second_hand, ,41.1493968,-8.6036504,,
Minipreço,supermarket, ,41.1493646,-8.6034217,,
Teatro Salon,hairdresser, ,41.1534413,-8.6766644,,
Note!,stationery,Praça da Trindade 146,41.1510579,-8.6109616,,"Mo-Su,PH 08:30-20:00"
Mercado São João,convenience, ,41.1410251,-8.6133013,,
Euroviagens,travel_agency,Rua do Bolhão ,41.1516666,-8.6073222,,
Mercalimentar,convenience,Rua do Bolhão ,41.1515737,-8.6073326,,
Doce Real,bakery,Rua do Bolhão 133,41.1514531,-8.6073822,,06:00-20:00
Papelaria Araújo & Sobrinho,books, ,41.1430673,-8.6148835,,
Ticket Office information - Tourist Service,ticket,Rua do Infante Dom Henrique 83,41.1407984,-8.6149978,,
,ticket, ,41.1409308,-8.6145917,,
,gift,Rua do Infante Dom Henrique 35,41.1411257,-8.614058,,
,ticket, ,41.1487716,-8.5854252,,
Pau de Canela,bakery, ,41.1760254,-8.6346578,,
Acústica Médica,hearing_aids, ,41.1568448,-8.6288436,,
Humana,charity, ,41.1568467,-8.6282276,,
Ana Fred,clothes, ,41.1568256,-8.6290059,,
Moutinho Oticas,optician, ,41.1571495,-8.6301205,,
,clothes, ,41.1568212,-8.6290917,,
Centro Auditivo Widex,hearing_aids, ,41.1567504,-8.6296397,,
Confeitaria Aliança,pastry, ,41.1497581,-8.6167793,,
Minipreço,supermarket, ,41.1495125,-8.6164766,,08:00-21:00
BestGift - Têxteis Casa e Hotelaria,interior_decoration,Rua de Egas Moniz 588,41.1635284,-8.6233543,,
Almada em Branco,clothes,Rua do Almada 125,41.1472745,-8.6122636,,
Centro Lexus Porto,car, ,41.1792107,-8.6515898,,
Toyota Caetano Auto (Porto),car, ,41.1790648,-8.651649,,
Minipreço,convenience,Rua de Cinco de Outubro ,41.1621018,-8.6327971,,
Galp tangerina,convenience, ,41.16424,-8.6398948,,
Cardouro,car,Rua do Freixo 989,41.145136,-8.5800534,,
Mauser Porto,electronics,Rua do Freixo 1248,41.1452316,-8.5830094,,"Mo-Fr 09:00-12:30,14:30-19:00; Sa 10:00-13:00; Su,PH off"
,car_repair, ,41.1459396,-8.5839855,,
,car_repair, ,41.1463284,-8.5844196,,
Centro Comercial Campo Alegre,mall,Rua do Campo Alegre 1517,41.153998,-8.6468437,,
Centro Comercial Itália,mall,Rua de Júlio Dinis 728,41.1556539,-8.6266802,,
Eglo,lighting, ,41.152306,-8.6258088,,
Loja Andante - Bom Sucesso,ticket, ,41.1560295,-8.6284644,,Mo-Fr 08:00-18:30; Sa 09:00-12:30
Talhos Pessegueiro,butcher, ,41.1666025,-8.6268249,,Mo-Fr 07:30-19:30; Sa 07:30-19:00
Mercearia Lima,convenience, ,41.1664546,-8.6346588,,
Nova Real,pastry,Rua da Prelada 132,41.1667975,-8.6257801,,
Pepino,yes,Rua Adolfo Casais Monteiro 95 A,41.1492281,-8.6229586,,
Talho do Palácio,butcher,Rua de Dom Manuel II 106,41.1478393,-8.6224746,,
,vacant,Rua de Dom Manuel II 114,41.1478549,-8.6225393,,
,vacant,Rua de Dom Manuel II 96,41.147812,-8.6223588,,
,clothes,Rua de Dom Manuel II 144,41.1480187,-8.6232021,,
,stationery,Rua de Dom Manuel II 210,41.148284,-8.624135,,
Hair Project,hairdresser, ,41.1641175,-8.6247614,,
GASTRONOM Slaviansky,deli, ,41.1503227,-8.6116618,,Mo-Sa 09:00-20:00; Su 10:00-19:00
e-bike lovers,bicycle, ,41.1489137,-8.6099013,,
Biblioteca de Serralves,books, ,41.1591263,-8.6595239,,
ALE-HOP,gift, ,41.1438402,-8.6139252,,
Talho Vilas,butcher, ,41.1617371,-8.6203922,,
BC óptica,optician, ,41.1617547,-8.6203541,,
,convenience, ,41.1615549,-8.6207468,,
Flôr de Algodão 2,laundry, ,41.1617812,-8.6208519,,
,electronics, ,41.1620807,-8.6208167,,
Mercado Cruz de Cristo,convenience, ,41.162188,-8.6207913,,
Continente;Celeiro,supermarket,Rua dos Campeões Europeus 28-198,41.1634466,-8.5848024,,
Spar,supermarket, ,41.1444511,-8.6180908,,
Halcon Viagens,travel_agency, ,41.1518526,-8.6069197,,
Elétrica do Bolhão,electrical, ,41.1506231,-8.6077485,,
Nortel,hardware, ,41.1506832,-8.6077284,,
Fabio Lucci,clothes, ,41.1507897,-8.6076909,,
Praça do Feirante,shoes, ,41.1508645,-8.6076533,,
Castro,pastry,Rua de Mouzinho da Silveira 61,41.1429076,-8.6142415,,
,gift, ,41.1460723,-8.6081855,,
,clothes, ,41.1460714,-8.6081393,,
BAE,clothes, ,41.1462174,-8.6074114,,
Amour Glamour Porto,clothes, ,41.14622,-8.6074855,,
PROF,shoes, ,41.1462187,-8.6075573,,
Atlier Mobleu,clothes, ,41.1462112,-8.6080349,,
Ana Vasconcelos,clothes, ,41.1462059,-8.6081458,,
Greenswallow,cannabis, ,41.1462028,-8.6085007,,
Barbearia Santo António,hairdresser, ,41.146173,-8.6093407,,
Sanky,clothes, ,41.1461646,-8.6098392,,
,gas, ,41.1457439,-8.5780786,,
Tangerina,convenience, ,41.1457919,-8.5783448,,24/7
,gas, ,41.1453248,-8.5779291,,
Caffi,music,Rua da Constituição 281,41.1613931,-8.6016189,,"Mo-Fr 09:30-12:30,14:30-19:30; Sa 09:30-13:00"
Huawei,mobile_phone,Rua do Doutor Alfredo Magalhães 81,41.1547535,-8.6094812,,Mo-Fr 10:00-18:00; PH off
Midas,car_repair, ,41.1618273,-8.6034724,,
Mike Davis,clothes, ,41.1616417,-8.603093,,
Novo Imperador,bakery, ,41.1615648,-8.6037317,,06:30-20:30
Celeste,bakery, ,41.1613413,-8.6038559,,07:00-22:00
Brasilia,stationery, ,41.1613985,-8.6038342,,Mo-Fr 09:00-19:00; Sa 09:00-13:00
MultiOpticas,optician, ,41.1614386,-8.6038197,,Mo-Fr 09:00-19:30; Sa 09:00-14:00
Barbershop,hairdresser, ,41.161183,-8.607828,,
STOCKauto,car, ,41.161301,-8.6094719,,
Pó de Fada,gift, ,41.1610506,-8.6080463,,
suite cotton,household_linen, ,41.1612469,-8.6089943,,
Barbearia Dom Cortês,hairdresser, ,41.1612083,-8.6088009,,
Casa Rainha,clothes, ,41.1612602,-8.609069,,Mo-Fr 09:30-19:00; Sa 09:30-13:00
lensefree,optician, ,41.1616396,-8.6099481,,
AufiçãoActiva,hearing_aids, ,41.1612699,-8.609781,,
Fernanda Vilanova,hairdresser, ,41.1614885,-8.6103525,,
Beauty stores,cosmetics, ,41.1614951,-8.6104257,,
biorigem,supermarket, ,41.1615095,-8.6105693,,
Armazens Bacellar,clothes, ,41.1615161,-8.6106924,,
Manuel António,hairdresser, ,41.1615503,-8.6109427,,
Guanadecor,interior_decoration, ,41.161772,-8.611164,,
damião de gois,convenience, ,41.1619345,-8.6140078,,
Um Caprixo,household_linen, ,41.1618198,-8.613343,,"Mo-Sa 10:00-13:30,15:00-19:00"
MBC,houseware, ,41.1619865,-8.614537,,
Fernanda Pascoal,hairdresser, ,41.1620046,-8.6146961,,
Esquina dos Bichinhos,pet, ,41.1567655,-8.5989814,,
Matrículas Invicta,car_parts, ,41.1567802,-8.5992018,,
nortirev,tiles, ,41.1548544,-8.5993405,,
Suzuki,motorcycle, ,41.1552651,-8.599264,,
Stand Iberia,car_parts, ,41.1563962,-8.5990611,,
Talho Trigal,butcher, ,41.1537342,-8.5995374,,
Fortaleza Frutaria,greengrocer, ,41.15379,-8.5995339,,
PlantaViva,florist, ,41.1486519,-8.600707,,
,hairdresser, ,41.1752885,-8.6663672,,
,clothes, ,41.1747205,-8.6657163,,
,paint, ,41.1650829,-8.641226,,
Optica Médica do Cedro,optician, ,41.1619619,-8.6115429,,
Eleven Hair Studio,hairdresser, ,41.1619749,-8.6116415,,
Beatriz Soares,hairdresser, ,41.1622947,-8.6132365,,
olive,clothes, ,41.1624699,-8.6145577,,
Lavandawash,laundry, ,41.1624768,-8.6146919,,07:00-23:00
Joelma Almeida,beauty, ,41.1624924,-8.6147653,,Mo-Fr 10:00-20:00
cct Damião dr Góis,books, ,41.1624984,-8.6148536,,
Sara Santos,beauty, ,41.1625183,-8.6149362,,"Tu-Sa 09:00-13:00,14:00-19:00"
Limpa Veste,laundry, ,41.1625433,-8.6151082,,"Mo-Fr 08:00-13:00,14:00-19:00; Sa 08:00-13:00; PH off"
Bazar,clothes,Avenida dos Aliados 34;36,41.1471808,-8.6109048,,
Boulevard Club,vacant, ,41.1474847,-8.6108286,,
Miniso,gift,Praça de Dom João I 9,41.1473382,-8.6088551,,"Mo-Fr 10:00-20:00; Sa,Su 10:00-19:00"
Nº 10 Best Wines,wine,Rua de Sá da Bandeira 97,41.1469727,-8.609027,,
Chloe's,clothes, ,41.1470111,-8.6090047,,
Catai - B the Travel Brand,travel_agency, ,41.1464281,-8.6101881,,
Miss 101,clothes, ,41.1463991,-8.6102383,,
Superdecor,interior_decoration,Rua de Camões 215,41.1537581,-8.6102107,,"Mo-Sa 10:00-13:00,14:00-19:00; Su off"
A lavandaria self service,laundry,Rua de São Tomé 1064,41.1827878,-8.6092774,,Mo-Su 07:00-00:00
Easy Green,health_food,Rua de São Tomé 1054,41.1826986,-8.6092904,,
Nata Sweet Nata,bakery,Rua do Cais da Ribeira 18,41.1407493,-8.6108094,,Su-Th 09:00-23:00; Fr-Sa 09:00-00:00
Aviz lavandaria,laundry, ,41.1587071,-8.6201225,,
Minimarket,convenience, ,41.1433287,-8.6097736,,
Vinoteca - Wine Cellar & Wine Bar,alcohol,Rua de Mouzinho da Silveira 88;90,41.1422965,-8.6142116,,
O Galo - Arts & Crafts,gift,Rua de Mouzinho da Silveira 68,41.1420526,-8.6142953,,
Citybreak Tourism Point,travel_agency,Rua de Mouzinho da Silveira 58,41.1419102,-8.6143667,,Mo-Su 09:00-18:45
Ag Jewels,jewelry,Rua do Infante Dom Henrique 91,41.140744,-8.6151457,,
Kinda Home,vacant,Estrada Interior da Circunvalação ,41.1779225,-8.6544107,,
Pingo Doce,supermarket, ,41.1782113,-8.6537569,,
Icotrónica - Equipamento Médico-Hospitalar,medical_supply, ,41.1532577,-8.6036716,,
Airosa,kiosk, ,41.1534253,-8.6046695,,
Opodonuts,confectionery, ,41.1536254,-8.6046558,,
Banhu's - Mobiliário de Casa de Banho,kitchen, ,41.1537018,-8.6046538,,
Florista Rolinha,florist, ,41.1538205,-8.6046355,,
Confeitaria Santa Catarina,confectionery, ,41.1537767,-8.604636,,
Grandes Armazéns da Beira,clothes, ,41.1482029,-8.6066346,,
Casa Africana,clothes, ,41.147541,-8.6084428,,
Contraste,clothes, ,41.1508803,-8.6050357,,
Montra Vip,travel_agency, ,41.1526244,-8.6046741,,
Mascarilha.pt,clothes,Rua de Santa Catarina 700,41.1522779,-8.604773,,"Mo-Sa 10:00-14:00,15:00-19:00"
Iapmedic,medical_supply,Rua de Sá da Bandeira 565,41.1511644,-8.6067494,,Mo-Fr 10:00-19:00; Sa 10:00-13:00
Passa Casual,clothes, ,41.1512436,-8.6063962,,
Cardoso Perucas,hairdresser, ,41.147305,-8.6095128,,
Depósito da Marinha Grande,interior_decoration, 133,41.1474987,-8.6095226,,
Norboxe,motorcycle, ,41.1577498,-8.6100779,,
Brasil tropical,convenience, ,41.1547942,-8.6091013,,PH off
São Jorge,bakery, ,41.1546938,-8.6091042,,PH off
Salão Pereira,hairdresser,"Rua do Bonjardim 822,884",41.1553507,-8.6075377,,
Oculista de Campanhã,optician, ,41.1478014,-8.5865228,,
Minipreço,supermarket, ,41.1477005,-8.5861897,,Mo-Sa 09:00-20:00; Su 09:00-19:00
Courir,shoes, ,41.1494125,-8.6058182,,
Leonidas,chocolate, ,41.1502407,-8.6168066,,
Easyphoto,photo, ,41.1501977,-8.6167889,,
,gas, ,41.1711427,-8.6797087,,
André,clothes, ,41.1591071,-8.6118574,,
Micro center,computer, ,41.1607526,-8.6065971,,
Stone by stone,jewelry, ,41.1441947,-8.6133699,,
,clothes, ,41.1607677,-8.6067366,,
natura,clothes, ,41.1441093,-8.6135241,,
Motoboxe,motorcycle, ,41.1580066,-8.6100594,,
Moto spazio,motorcycle, ,41.1581712,-8.6098304,,
Ona Azul,laundry, ,41.1593548,-8.6117931,,
,convenience, ,41.1596704,-8.6119715,,
Thrilbus,hairdresser, ,41.1594192,-8.6117979,,
fredsontattoo,tattoo, ,41.1599701,-8.6119161,,
J'alma,hairdresser, ,41.1592405,-8.6118431,,
Norboxe,motorcycle, ,41.1583242,-8.6098221,,
Casa Rainha,clothes, ,41.1600735,-8.6100169,,
Pão quente,bakery, ,41.1615765,-8.611342,,
LAUANDI,laundry,Rua do Bonjardim 1356,41.1604309,-8.6052591,,07:00-23:00
Le Opazo,beauty, ,41.1595331,-8.6059838,,
Emília,hairdresser, ,41.1587662,-8.6065659,,
,greengrocer, ,41.1585206,-8.6067185,,
Electro Carneiro,appliance, ,41.1553548,-8.611815,,
m2m,hairdresser,Rua da Lapa 25,41.155815,-8.6133877,,
,clothes, ,41.1565171,-8.6132596,,
,convenience, ,41.157082,-8.6105539,,
Bull & Stein,art, ,41.1547698,-8.6134689,,
Supermercado Asiático,supermarket,Praça da República 103,41.1548227,-8.6134661,,
Violeta,clothes, ,41.1542626,-8.6118373,,
,newsagent, ,41.1551793,-8.6134515,,
Casa das Flores,florist,Rua da Lapa 16,41.1556318,-8.6134121,,"Mo-Sa 09:30-19:00; Su,PH 09:00-14:00"
Shop wonderful,variety_store, ,41.1534862,-8.6125609,,
Frutaria Duriense,greengrocer, ,41.1555561,-8.613426,,
Celeste,bakery,Rua da Lapa 48,41.1561879,-8.6133123,,
Drogaria da Lapa,chemist, ,41.1565536,-8.6132503,,
Tabacaria da Lapa,tobacco,Rua da Lapa 27,41.1558983,-8.6133788,,
,variety_store, ,41.1571231,-8.6102832,,
,florist, ,41.157093,-8.6104679,,
JLA,wine,Rua do Bonjardim 923,41.1573077,-8.607508,,"Mo-Fr 09:00-13:00,14:00-19:00; Sa 09:00-13:00; Su off"
,wine, ,41.1575314,-8.6093284,,
,books, ,41.1570558,-8.61072,,
Mimo,clothes, ,41.1503504,-8.6761995,,
Urban Wash,laundry,Rua da Boavista 558,41.1564349,-8.6198639,,Mo-Su 06:00-24:00
Persono,yes, 862,41.1570987,-8.6233797,,
Alecrim Perfumado,laundry, ,41.1562362,-8.6186899,,
Oásis,stationery, ,41.1567735,-8.6208658,,
Samsung,electronics, ,41.1575113,-8.6087403,,
,tattoo,Rua do Paraíso 82,41.1575668,-8.6082521,,
,greengrocer,Rua do Bonjardim 666,41.1526732,-8.6080418,,
Doce Giesta,bakery,Rua de Camões 85,41.1526834,-8.6102608,,
Homem do Mato,military_surplus,Rua de Guedes de Azevedo 218,41.1525595,-8.6075609,,"Mo-Fr 10:30-15:00,15:30-18:30; Sa 09:30-13:00"
Supply Market of Porto,doityourself,Rua de Chaves de Oliveira 181,41.1607073,-8.5794028,,
Sabai Thai Spa,massage,Rua de Guedes de Azevedo 229,41.1524459,-8.6077566,,
Carolina Senra,tailor,Rua do Bonjardim 786,41.154281,-8.6076405,,"Mo-Fr 09:00-12:30,14:00-18:30; Sa 09:00-12:30; Su off"
Nova Ferreira,furniture, ,41.1564865,-8.5946588,,
Cannabis Store Amsterdam,cannabis, ,41.1433685,-8.6131708,,
,gift,Rua das Flores 297,41.1451524,-8.6113693,,
Cristina Leite,hairdresser, ,41.1527191,-8.6770694,,
Paulo Camargo,bag, ,41.153049,-8.6765271,,
Mia Clinic,beauty, ,41.1536648,-8.6753995,,
Mercado Orgânico,supermarket, ,41.1536257,-8.6754675,,
,shoes, ,41.1547549,-8.6744532,,
,florist, ,41.1546859,-8.674237,,
Mercearia Mercado da Foz,convenience, ,41.1545252,-8.6742126,,
Lavandaria República,laundry, ,41.1536301,-8.6134956,,"PH,Mo-Su 08:00-22:00"
Würth Portugal - Porto,electronics,Rua Engenheiro Ferreira Dias 1138,41.1780032,-8.6480457,,
,florist, ,41.1578581,-8.6125711,,
,laundry, ,41.1606185,-8.6115702,,
,hairdresser, ,41.1584396,-8.6123342,,
,hairdresser, ,41.1576684,-8.612708,,
,hairdresser, ,41.1553177,-8.6140312,,
Florista,florist, ,41.1575576,-8.6127851,,
,hairdresser, ,41.162418,-8.6111116,,
,kiosk, ,41.1554984,-8.6134118,,
Nova Europa,bakery,Rua do Doutor Alfredo Magalhães 234,41.1539902,-8.6097615,,
North Paper,stationery, ,41.1633774,-8.5996115,,
O Barulhão,clothes, ,41.1650615,-8.5999841,,
Bolha de sabão,laundry, ,41.1654174,-8.6003699,,
Barbearia Orlando,hairdresser, ,41.1656354,-8.6027441,,
Vifumeiro,deli, ,41.1654421,-8.6027357,,
Top Car,car_repair, ,41.1653625,-8.6039577,,
Fátima Viana,hairdresser, ,41.1648884,-8.5989765,,
SB nails,beauty, ,41.1645775,-8.5988163,,
Talento Cabeleireiros,hairdresser,Rua da Natária 142,41.1673646,-8.6235546,,
Max Mara,clothes, ,41.1465962,-8.6144887,,
Marques Soares,optician, ,41.1465573,-8.6144247,,
Marques Soares,clothes, ,41.146487,-8.6143161,,
Brownie,vacant, ,41.1464428,-8.6141726,,
Bug Hug,clothes,Rua do Bonjardim 790,41.1543694,-8.6076347,,"Mo-Tu,Su off; We-Fr 15:30-19:00; Sa 10:30-13:00,15:30-19:00"
Barbearia Né,hairdresser,Rua de João Regras 15,41.1550581,-8.6079019,,"Mo,Su off; Tu-Sa 10:00-20:00"
Loja da Estelinha,kiosk,Rua do Bonjardim ,41.1552479,-8.6075724,,
Judite Areias,hairdresser,Rua de Fonseca Cardoso 7,41.155285,-8.609378,,
Kardo,erotic,Rua de João das Regras 176,41.1552772,-8.6096696,,"Mo-Fr 10:00-12:00, 14:00-17:00"
Dii SweetCake,bakery, ,41.1785294,-8.6243476,,
Drogaria,variety_store,Rua de João das Regras 314,41.1553162,-8.6114295,,
Drogaria Camões,variety_store, ,41.1553498,-8.6099255,,
O Sítio dos Cogumelos,yes, ,41.1492678,-8.6072011,,
,yes, ,41.1492959,-8.6071869,,
Cantinho da Dona Rosa,alcohol, ,41.1494671,-8.6072377,,
Bolhão Wine House - Hugo Silva,alcohol, ,41.1494004,-8.6068747,,
Talho do Toninho,butcher, ,41.1495532,-8.6071936,,
Café e Chás da Tuca,tea, ,41.1492795,-8.607121,,
Rosinha Florista,florist, ,41.1494615,-8.6071663,,
Flores da Tereza,florist, ,41.1494373,-8.6071783,,
Flores Angelina Berta,florist, ,41.1492817,-8.6072553,,
Flores José Silva,florist, ,41.1493096,-8.6072415,,
Inês das Plantas,florist, ,41.1491839,-8.6073036,,
Maria Plantas,florist, ,41.1492085,-8.6072915,,
Florista Rosa Maria,florist, ,41.1492615,-8.6070493,,
Horto das Enxurreiras,florist, ,41.1491309,-8.6071164,,
Cindinha,florist, ,41.1491761,-8.6071063,,
Frutaria Fátima Teixeira,greengrocer, ,41.1489209,-8.6072262,,
Fruta na Cidade,greengrocer, ,41.1489425,-8.6072966,,
Banca de Frutas,greengrocer, ,41.1489796,-8.6072773,,
Frutaria do Bolhão,greengrocer, ,41.148961,-8.6073567,,
Frutas Ermelinda & Gertrudes,greengrocer, ,41.1489763,-8.6074063,,
Teresa das Azeitonas,deli, ,41.1496393,-8.6070078,,
Cores e Sabores do Bolhão,deli, ,41.1496199,-8.6069393,,
Tradição - Produtos a Granel,deli, ,41.149511,-8.6070005,,
Capricho,deli, ,41.1495323,-8.6070669,,
Massas e Temperos do Bolhão,spices, ,41.1491891,-8.6071644,,
Queijaria Amaral II,cheese, ,41.1496569,-8.6070701,,
Queijaria do Bolhão,dairy, ,41.1495502,-8.6071226,,
Padaria Alzira do Bolhão,bakery, ,41.1490602,-8.6074457,,
Mercado das Empadas,pastry, ,41.1489646,-8.6071307,,
Delícia do Portomaxheight	4.3,pastry, ,41.1492778,-8.6073385,,
Padaria Madalena,bakery, ,41.1491385,-8.6070422,,
Hugo Silva,seafood, ,41.1493823,-8.6069865,,
Temos Lata,seafood, ,41.1494887,-8.6069312,,
Conserveira do Bolhão,seafood, ,41.1496028,-8.6068784,,
Peixaria Sara's,seafood, ,41.1496787,-8.6067672,,
,seafood, ,41.1496395,-8.6067871,,
Peixaria Rosa,seafood, ,41.1495008,-8.6068578,,
Peixaria do Bolhão,seafood, ,41.1495414,-8.6068371,,
Peixaria Bininha,seafood, ,41.1495845,-8.6068151,,
Peixaria Rosa Maria,seafood, ,41.1497903,-8.606752,,
Peixaria Ermelinda Lopes,seafood, ,41.1498091,-8.6068137,,
Peixaria Lúcia,seafood, ,41.1498624,-8.6069887,,
Peixaria Teresa Soares da Costa,seafood, ,41.1498436,-8.606927,,
Charcutaria Princesa,deli, ,41.14911,-8.6074202,,
Salsicharia Leandro,deli, ,41.149167,-8.6073911,,
Salsicharia Branquinha,deli, ,41.1490216,-8.6071017,,
Salsicharia Luísa,deli, ,41.1490754,-8.6070743,,
As Irmãs Araújo,greengrocer, ,41.1490614,-8.6073642,,
Verde Vida,greengrocer, ,41.1491163,-8.607337,,
Maria do Álvaro,greengrocer, ,41.149047,-8.6073131,,
Dona Ilda,greengrocer, ,41.1491018,-8.6072853,,
Emília Horticaleira,greengrocer, ,41.1490297,-8.6072512,,
Aninhas de Gondomar,greengrocer, ,41.1490843,-8.6072228,,
Os Legumes da Russa,greengrocer, ,41.1490097,-8.6071801,,
Os Legumes da Tininha,greengrocer, ,41.1490642,-8.6071517,,
Casta D'Ouro,alcohol, ,41.1495008,-8.6072228,,
Docaria Portuguesa,pastry, ,41.1492341,-8.6073632,,
Ervanário Natura Bolhão,herbalist, ,41.1497801,-8.6067051,,
"Grainha: Bolhão, de Rosa Gonçalves",alcohol, ,41.1493722,-8.6068892,,
Lurdes das Toalhas,household_linen, ,41.1497448,-8.607097,,
Flores Ana Rita,florist, ,41.1491702,-8.6070827,,
Peixaria Zaida Silva,seafood, ,41.1498795,-8.6070413,,
Sweet Bolhão,confectionery, ,41.1494284,-8.607044,,
Black Mamba Burgers & Records,music,Rua Martires da Liberdade 130,41.1512878,-8.6138824,,
Cork Solutions,craft, ,41.1453258,-8.6134373,,
Café Horizonte,bakery,Avenida das Congostas ,41.1784066,-8.6344502,,
Papelaria Tabacaria Bonjardim,tobacco,"Rua do Bonjardim 706,708",41.1531584,-8.6079677,,
Ticket Office,ticket, ,41.1434978,-8.6103192,,
,optician, ,41.1444242,-8.61176,,
,boutique, ,41.141452,-8.6144177,,
,clothes, ,41.1440216,-8.6122676,,
,ticket, ,41.1426989,-8.610108,,
Professional Brokers,estate_agent, ,41.1428082,-8.613921,,
Tane Timor,gift, ,41.1405845,-8.6146318,,
,gift, ,41.1430298,-8.6101528,,
Typographia,boutique, ,41.1423879,-8.6146312,,"PH,Mo-Su 10:30-19:00"
,gift, ,41.142876,-8.6101374,,
Predibisa,estate_agent, ,41.1430943,-8.6135478,,
Fine & Country,estate_agent, ,41.1423311,-8.6146311,,"PH,Mo-Su 09:00-13:00,14:00-18:00"
,gift, ,41.14271,-8.6145116,,
Continente Bom Dia,supermarket, ,41.1489582,-8.6047044,,Mo-Su 10:00-21:00
Livraria Académica,books, ,41.1501319,-8.6146561,,
Talho Ganha Pouco,butcher,Avenida Fernão Magalhães 760,41.1564235,-8.594452,,
Confeitaria Pastelaria Luena,pastry, ,41.1609184,-8.592717,,
Padaria Pão Quente Trigal,bakery,Avenida de Fernão de Magalhães 1164,41.1597789,-8.5925065,,
Galeria Comercial Avenida,mall,Avenida de Fernão de Magalhães 1060,41.1588392,-8.5929425,,
,convenience,Rua da Alegria 765,41.1580248,-8.6017604,,
Ydentik,perfumery, ,41.1497632,-8.6072397,,
,shoes, ,41.1496569,-8.6072906,,
Decathlon,sports, ,41.1551249,-8.6300183,,"Mo-Su,PH 10:00-22:00"
Barbershop TalentoVanguarda,hairdresser,Rua de Camões 585,41.1570918,-8.6100906,,Tu-Fr 09:30-20:00; Sa 09:30-18:00
Zero Plástico,chemist,Rua Cardeal Dom Américo 191,41.1529384,-8.5992156,,Mo-Fr 10:00-19:00; Sa 10:00-13:00
Chaves Bonjardim,locksmith,Rua do Bonjardim 396,41.1497107,-8.6094111,,
,books,Rua do Bonjardim 398,41.1497549,-8.609413,,
Lojinha da Lurdes,greengrocer,"Rua do Bonjardim 755,757",41.1555601,-8.6077765,,"Mo-Fr 09:00-13:00,15:00-19:00; Sa 09:00-13:00; Su off"
"Jorge Bastos, Guerra & Bonachy",tobacco,Rua Formosa 442,41.1492311,-8.6093264,,
Amor Perfeito,perfumery,Rua Formosa 434,41.1492117,-8.6092672,,
Licínio,watches,Rua do Bonjardim 492,41.1506349,-8.6087325,,
Chaves Simões,locksmith,Rua de Guedes de Azevedo 236,41.1526178,-8.6078208,,
O Pretinho do Japão,convenience,Rua do Bonjardim 496A,41.1507044,-8.608696,,Mo-Sa 09:30-19:00; Su off
"Vaz, Oliveira e Companhia",household_linen,Rua do Bonjardim 513,41.1516788,-8.6084168,,
Pratil,jewelry,Rua do Bonjardim 354,41.1493456,-8.6094349,,
Dotamed São João,medical_supply, ,41.1843488,-8.6034665,,
Gotas de Afetos,laundry, ,41.1782581,-8.6335474,,Mo-Su 07:00-23:00
5àsec,dry_cleaning, ,41.1632399,-8.5849049,,
Bertrand,books, ,41.1632929,-8.5848777,,
Calzedonia,clothes, ,41.1633909,-8.5848254,,
Continente,supermarket, ,41.1635465,-8.5847475,,
Douglas,perfumery, ,41.1635974,-8.5847195,,
H&M,clothes, ,41.1637042,-8.5846592,,
Intimissimi,clothes, ,41.1638019,-8.5846077,,
Levi's,clothes, ,41.1638972,-8.584553,,
Massimo Dutti,clothes, ,41.1639433,-8.5845284,,
MEO,mobile_phone, ,41.1640394,-8.5844747,,
Multiópticas,optician, ,41.1640886,-8.5844457,,
NOS,mobile_phone, ,41.1641379,-8.5844168,,
O Boticário,perfumery, ,41.1641928,-8.5843889,,
Opticalia,optician, ,41.163276,-8.5848204,,
Parfois,fashion_accessories, ,41.1633785,-8.5847665,,
Sport Zone,sports, ,41.1634796,-8.5847134,,
Springfield,clothes, ,41.1635333,-8.5846851,,
Sunglass Hut,optician, ,41.1635789,-8.5846612,,
Tous,jewelry, ,41.1636307,-8.584634,,
United Colors of Benetton,clothes, ,41.1636859,-8.5846049,,
Abreu,travel_agency, ,41.1637412,-8.5845758,,
Vodafone,mobile_phone, ,41.1638385,-8.5845247,,
Wells,chemist, ,41.163889,-8.5844982,,
Wiñk,beauty, ,41.1639358,-8.5844736,,
Women'secret,clothes, ,41.1640224,-8.584428,,
Worten,electronics, ,41.1640757,-8.5844,,
Zara,clothes, ,41.1641319,-8.5843705,,
Zippy,baby_goods, ,41.1641826,-8.5843438,,
Cabrito,butcher, ,41.1568846,-8.609066,,
Moto Luar,car_repair, ,41.1567443,-8.6090871,,
Humana,clothes,Rua de Passos Manuel 62,41.1470702,-8.6076488,,Mo-Sa 09:30-19:30; Su 11:00-18:30
Prénatal,baby_goods, ,41.1631998,-8.5847866,,
CeX,electronics, ,41.1632554,-8.5847564,,
Acium,jewelry, ,41.1490647,-8.6051339,,
Abreu,travel_agency, ,41.1490648,-8.6050325,,
Bijou Brigitte,jewelry, ,41.1490664,-8.6053533,,
O Boticário,perfumery, ,41.1490664,-8.6053028,,
Calzedonia,clothes, ,41.1490665,-8.6052496,,
Celeiro,supermarket, ,41.1490666,-8.6051946,,
CeX,electronics,Rua de Santa Catarina ,41.1492812,-8.6047716,,Mo-Su 10:00-21:00
claire's,fashion_accessories, ,41.1490667,-8.6050845,,
Flying Tiger Copenhagen,variety_store, ,41.1490668,-8.6049697,,
Fotosport,photo, ,41.1490669,-8.6049139,,
H&M,clothes, ,41.14913,-8.6048076,,
Hussel,confectionery, ,41.1490228,-8.6047902,,
Intimissimi,clothes, ,41.1490215,-8.6048516,,
Jean Louis David,hairdresser, ,41.1490212,-8.6049107,,
KIKO Milano,cosmetics, ,41.149021,-8.6049672,,
Levi's,clothes, ,41.1491484,-8.6058053,,
Mais Optica,optician, ,41.1490203,-8.6050827,,
MEO,mobile_phone, ,41.1490198,-8.6051919,,
New Yorker,clothes, ,41.1489266,-8.6047659,,
NOS,mobile_phone, ,41.1490192,-8.6053058,,
Pandora,jewelry, ,41.1490186,-8.6054081,,
Perfumes & Companhia,cosmetics, ,41.1489782,-8.6054581,,
Pluricosmética,cosmetics, ,41.1490623,-8.6054673,,
Sport Zone,sports, ,41.1489788,-8.6053028,,
Springfield,clothes, ,41.1489797,-8.6052456,,
Sunglass Hut,optician, ,41.1489805,-8.6051913,,
The Barber Company,hairdresser, ,41.1489822,-8.6050825,,
Triumph,clothes, ,41.148984,-8.6049653,,
Vilanova,fashion_accessories, ,41.1489894,-8.6058797,,
Vodafone,mobile_phone, ,41.1489867,-8.6047882,,
Wells,chemist, ,41.1490658,-8.6048518,,
Women'secret,clothes, ,41.1489078,-8.6048014,,
Worten,electronics, ,41.1490897,-8.604701,,
Zippy,baby_goods, ,41.1490175,-8.6050248,,
O Boticário,perfumery, ,41.1547902,-8.6295948,,
Giramassa,bakery, ,41.1530131,-8.6079941,,
Biclas & Triclas,bicycle,Rua Nova da Alfândega 108,41.1417225,-8.6186904,,Mo-Su 10:00-20:00
,shoe_repair,Rua do Bonjardim 549,41.1522004,-8.6082905,,
montana,paint,Travessa de Alferes Malheiro 83,41.1525337,-8.6087389,,Mo-Sa 10:00-19:00; Su off
Lino & Pinto,car_repair, 72,41.1561018,-8.6216615,,
Casa das Cortinas,variety_store, ,41.1475025,-8.6146251,,
Edite Mesquita,beauty,Rua do Bonjardim 504,41.1507864,-8.608622,,
Typographia,clothes, ,41.1443826,-8.6121351,,
Royale Pão Paixão,bakery,Rua Guerra Junqueiro 634,41.1586172,-8.6358318,,Mo-Fr 08:00-19:00; Sa 08:30-19:30
Vício da cópia,copyshop, ,41.1771657,-8.6091999,,
Lavandaria Social,laundry, ,41.1432117,-8.6071162,,
Pete's Laundry,laundry, ,41.1434265,-8.6027638,,Mo-Su 08:00-23:00
Já agora,supermarket, ,41.1432268,-8.606558,,
Masseira Padaria Artesanal,bakery,Rua Diogo Brandão 69,41.149399,-8.6175141,,We-Fr 10:00-19:30; Sa 10:00-18:30; Tu 09:00-19:30
,sewing, ,41.1573702,-8.6072339,,
,tailor,Rua de Fonseca Cardoso 19,41.1553672,-8.6093791,,
Tacão Rápido,shoe_repair,Rua do Bonjardim 1133,41.1602302,-8.6055092,,
theLAB,supermarket, ,41.1586316,-8.6064154,,
Funpla,vacant, 130,41.1485889,-8.6039248,,
Intimissimi,clothes, ,41.1547522,-8.630073,,
Calzedonia,clothes, ,41.1548371,-8.6300663,,
United Colors of Benetton,clothes, ,41.1549106,-8.6300893,,
Ale-hop,fashion_accessories, ,41.1549704,-8.6299307,,
Lethes Home,interior_decoration, ,41.146668,-8.6090447,,
Porto Lindo Gigts & Souvenirs,gift,Praça da Liberdade 130,41.146556,-8.6108183,,
Livraria Mundo Fantasma,anime,Avenida da Boavista 267,41.1567555,-8.6289227,,Mo-Sa 10:00-20:00; Su off; PH 15:00-19:00
O'Kilo Porto,clothes, ,41.1515884,-8.605228,,
Mercearia do Bolhão,supermarket,Rua Formosa 305,41.1484827,-8.6071343,,
Lãs Deltrila,clothes, ,41.1484762,-8.6072248,,
Sergent Major,clothes,Rua Formosa 333,41.1486193,-8.6075983,,
Lanidor,clothes,Rua de Sá da Bandeira 218,41.1480667,-8.6081073,,Mo-Sa 10:00-19:30
Visionlab,optician, ,41.1479167,-8.6081743,,
Bazar Paris,toys, 190,41.1478485,-8.6082454,,
Vodafone,mobile_phone, ,41.1476819,-8.6083292,,
Portocâmbios,kiosk,Rua de Rodrigues Sampaio 193,41.1489731,-8.6102245,,
SIM Chocolate,chocolate, ,41.1414775,-8.6130985,,10:00-20:00
Matéria Prima,books,Rua de Miguel Bombarda 232,41.1498641,-8.6197014,,Mo-Sa 11:00-19:00
Cicloficina Porto,bicycle,Rua de João das Regras 151,41.155068,-8.6094578,,"Mo-Tu,Th-Su off; We 17:00-18:00"
Maria Mostarda,clothes,Rua de João das Regras 336,41.1553322,-8.6116758,,Mo-Fr 13:00-18:00; Sa-Su off
Ryu Tattoo Porto,tattoo,Rua de João das Regras 164,41.1552704,-8.6096037,,"Mo-Tu,Su off; We-Fr 14:00-20:00; Sa 09:30-20:00"
Top Biketours Portugal,travel_agency,Rua de João Regras 62,41.1552475,-8.6083389,,
Froiz,supermarket, ,41.164222,-8.6214735,,
Odete Bakery,bakery,Rua Santo Ildefonso 478,41.1478524,-8.5996061,,Mo-Sa 10:00-19:00; Su 10:00-15:00
My Auchan,supermarket, ,41.1664175,-8.6249493,,
My Auchan,supermarket, ,41.1632714,-8.5980518,,
Morgan,clothes, ,41.1491417,-8.605755,,
Copy-Shop Coordenada Perfeita,copyshop, ,41.1491987,-8.6046807,,
Fototécnica,photo,Rua Santa Catarina 71,41.1471835,-8.6072796,,"Mo-Fr 09:30-12:30,14:30-19:00"
,greengrocer,Rua de Santa Catarina 7587,41.1603234,-8.6045842,,
Tabacaria Jogo D'épocas,tobacco, ,41.159212,-8.6043719,,
Essencia do Livro,books, ,41.1531654,-8.6034382,,Mo-Sa 10:00-18:00
TRAVEL iNTi Passeios a pé gratuitos,travel_agency,Praça do General Humberto Delgado ,41.1493905,-8.6109121,,Su-Sa 10:00-12:00
Frutaria do Amial,greengrocer, ,41.1752619,-8.6138259,,
S4TECH,mobile_phone, ,41.1738207,-8.6131374,,
Shopping dos Sofás,furniture, ,41.1738461,-8.6131467,,
,mobile_phone,Rua Chã 100,41.1439901,-8.6098316,,
Cafe hotel linha 22,alcohol,Rua dos Clérigos 23,41.1458676,-8.6127872,,
Pet Outlet,pet, ,41.1552504,-8.6273494,,
Cachemira,clothes, ,41.1568163,-8.6285837,,
,furniture, ,41.1505192,-8.6261863,,
Dexa Studio,tattoo, ,41.1540628,-8.6268231,,
Suits Inc,clothes, ,41.1565204,-8.6283517,,
Atelier da Beleza,hairdresser, ,41.1730276,-8.6376511,,
,ticket, ,41.142596,-8.609268,,
Spar,supermarket, ,41.1465164,-8.5961832,,
Garagem União,car_repair, ,41.1776946,-8.6286786,,
My Auchan,supermarket, ,41.1528019,-8.610265,,
Minipreço,supermarket, ,41.1660805,-8.6250905,,
Pingo Doce,supermarket,Rua de Serpa Pinto 700/738,41.1666414,-8.6201375,,
Pingo Doce,supermarket, ,41.1584656,-8.5833453,,
NorthSpirit,copyshop, 1902,41.1630726,-8.5992811,,
Tesla Porto,car, ,41.1779979,-8.6506592,,Mo-Sa 10:00-19:00; Su off
Raízes Criativas,craft,Rua de São Tomé 1046,41.182606,-8.6092739,,
,yes, ,41.1828771,-8.6092848,,
,yes, ,41.182973,-8.6092982,,
,yes, ,41.1831113,-8.6093049,,
,yes, ,41.1767192,-8.6077786,,
3 Desejos,convenience, ,41.1793727,-8.6453921,,
Espaço Casa,interior_decoration, ,41.1712975,-8.5690618,,
Rádio Popular,electronics, ,41.1710635,-8.5697735,,
Decathlon,sports,Rua Companhia Portuguesa do Cobre 50,41.1708832,-8.5701566,,Mo-Su 10:00-22:00
Normal,chemist, ,41.1548718,-8.6298466,,
Clínica de Medicina Estética e Saúde Mental,beauty, ,41.1572678,-8.644066,,
NONNO,yes, ,41.1574132,-8.6444362,,
Easyday,general, ,41.1574535,-8.6446936,,
Mr Jeff,laundry, ,41.1574778,-8.6447795,,
Soul - Beauty Concept,beauty, ,41.1570113,-8.6452006,,
Ald Automotive,car_parts, ,41.1568598,-8.6452328,,
Querer Voltar,general, ,41.1496333,-8.6242374,,
MANNA,vacant, ,41.150015,-8.6140245,,
Ned Barbearias,hairdresser, ,41.1502901,-8.6122828,,
Arte Nova,jewelry, ,41.1502577,-8.6124179,,
New Souvenirs,gift, ,41.1503634,-8.6114368,,
Abreu,travel_agency, ,41.1510107,-8.6110114,,
The North Face,clothes, ,41.1508222,-8.6110324,,
Superdecor,interior_decoration, ,41.1469218,-8.6087837,,
Talhos Boavista,butcher, ,41.1500455,-8.6065845,,
,vacant, ,41.1499192,-8.6060505,,
,vacant, ,41.1498858,-8.6058875,,
,vacant, ,41.1499426,-8.6061456,,
,vacant, ,41.1499908,-8.6063627,,
Loja do Gás,fuel, ,41.15009,-8.6067893,,
Óptica Portuense,optician, ,41.1503567,-8.6069005,,
The curlies,hairdresser, ,41.150893,-8.6064877,,
,yes, ,41.14899,-8.6143776,,
,vacant, ,41.1488776,-8.6144007,,
,vacant, ,41.1488062,-8.6144118,,
,wine, ,41.149575,-8.614766,,
,vacant, ,41.1494488,-8.6147879,,
,vacant, ,41.1493018,-8.61482,,
Stara,shoes, ,41.183244,-8.5995681,,
Tek4life,computer,Estrada da Circunvalação 7624,41.1833681,-8.6000035,,
Pão Quente São João,bakery, ,41.1842343,-8.6018491,,
Lírio,florist, ,41.1839106,-8.6013629,,
Perry Sampaio,interior_decoration, ,41.1473495,-8.6151661,,
Armazéns Cunha,clothes, ,41.147404,-8.6155175,,
,vacant, ,41.1473226,-8.6147891,,
Melo & Cia,fabric, ,41.1476234,-8.6149677,,
Farmácia Guilherme Fernandes,vacant, ,41.1480015,-8.614767,,
,vacant, ,41.1480289,-8.6148387,,
The Art Corner,stationery, ,41.1479615,-8.6146044,,
Intimoda,clothes, ,41.1477137,-8.6142921,,
Mercearia Rodela,general, ,41.1477236,-8.6144465,,
,vacant, ,41.147686,-8.6144825,,
,vacant, ,41.1478505,-8.6142508,,
,vacant, ,41.1478373,-8.6141903,,
Perfumaria Freitas,perfumery, ,41.1478181,-8.6141253,,
,vacant, ,41.1477996,-8.614063,,
,vacant, ,41.1477811,-8.6140025,,
Ofícina de Joalheria Contemporânea,jewelry, ,41.1477666,-8.6139463,,
,vacant, ,41.1477501,-8.6138875,,
Cosmética do Norte,perfumery, ,41.1477244,-8.6138,,
Bertrand,books, ,41.1476793,-8.6136681,,
Livraria De José Alves,books, ,41.1476239,-8.6134146,,
,vacant, ,41.1476529,-8.6135093,,
,vacant, ,41.1474785,-8.6134848,,
,vacant, ,41.147014,-8.6143701,,
,vacant, ,41.1470662,-8.6145448,,
,interior_decoration, ,41.1469961,-8.6145869,,
,vacant, ,41.1469155,-8.6146211,,
Btm Travel,travel_agency, ,41.147229,-8.613979,,
,vacant, ,41.1472778,-8.613966,,
,yes, ,41.1471745,-8.6139851,,
,vacant, ,41.147104,-8.6139904,,
Marques Soares,clothes, ,41.1468278,-8.6140582,,
,vacant, ,41.1467754,-8.614071,,
Marques Soares,clothes, ,41.146712,-8.6140824,,
Pandora,jewelry, ,41.1466704,-8.6140921,,
Fred Perry,clothes, ,41.1465977,-8.6140982,,
,variety_store, ,41.1465105,-8.6141175,,
,yes, ,41.1465964,-8.6138964,,
,vacant, ,41.1473444,-8.6135217,,
Decreto,vacant, ,41.146858,-8.6135156,,
,vacant, ,41.1468693,-8.6136349,,
,vacant, ,41.1468171,-8.6136279,,
Dot Club,vacant,Rua do Conde de Vizela 89,41.1467636,-8.6136288,,
,vacant, ,41.14671,-8.613627,,
,vacant, ,41.1465703,-8.6136313,,
,vacant, ,41.146517,-8.6136273,,
,vacant, ,41.1464538,-8.6136293,,
,vacant, ,41.1463929,-8.6136273,,
,vacant, ,41.146345,-8.6136262,,
,vacant, ,41.1458729,-8.6127418,,
FORA Sunglasses,optician, ,41.145861,-8.6128296,,
"Amazingsearch - Unipessoal, Lda.",gift, ,41.1458048,-8.6133631,,
,vacant, ,41.1460514,-8.6128429,,
,vacant, ,41.1460932,-8.6123668,,
Estrela D'Ouro,vacant, ,41.147418,-8.6131446,,
,vacant, ,41.1475116,-8.6130466,,
,vacant, ,41.1473731,-8.6129627,,
,yes, ,41.1472578,-8.6125698,,
,vacant, ,41.1474774,-8.612241,,
,gift, ,41.1475428,-8.6122346,,
Ferragens Rocha Leitão,hardware, ,41.1476791,-8.6122319,,
,vacant, ,41.1478037,-8.6120925,,
,vacant, ,41.1477536,-8.6120921,,
,vacant, ,41.1475754,-8.6121025,,
,vacant, ,41.1475067,-8.6121071,,
Almada,wine, ,41.1474532,-8.6121079,,
,vacant, ,41.1473508,-8.6121071,,
,vacant, ,41.1472927,-8.6121079,,
Burberry,clothes, ,41.1480012,-8.6116324,,
Salão Veneza,hairdresser, ,41.1478567,-8.6118271,,
Optivisão,optician, ,41.1478805,-8.6123353,,
"Neves, Loureiro & Cia.",electrical, ,41.147898,-8.6124342,,
Livraria Porto Editora,books, ,41.1479137,-8.6126388,,
Taylor's Port Shop,wine, ,41.1479224,-8.612696,,
,vacant, ,41.1480876,-8.613229,,
Moreira da Costa Alfarrabistas,books, ,41.147788,-8.6131378,,
,vacant, ,41.1483871,-8.6135472,,
Linda Mendes,clothes, ,41.1483993,-8.613731,,
Just,clothes, ,41.1483941,-8.6136275,,
Noctalia,bed, ,41.1484209,-8.6139295,,
Livraria Almedina,books, ,41.1482121,-8.6141653,,
Vodafone,mobile_phone, ,41.1482196,-8.6142987,,
,vacant, ,41.1484553,-8.6142317,,
Talho Sá Noronha,butcher, ,41.1480988,-8.6143437,,
Mundo Astral,yes, ,41.1479894,-8.614377,,
Optica Portuense,optician, ,41.1481953,-8.6145059,,
,clothes, ,41.1481599,-8.6145237,,
,clothes, ,41.1481133,-8.6145446,,
,vacant, ,41.1483933,-8.6127509,,
,vacant, ,41.1483831,-8.6126815,,
,vacant, ,41.1484076,-8.6120859,,
M Guimarães Novais & Maia,hardware, ,41.1485141,-8.6120706,,
,interior_decoration, ,41.1485713,-8.6120695,,
,leather, ,41.1486384,-8.6120552,,
,vacant, ,41.1487403,-8.612046,,
,vacant, ,41.1487734,-8.6122061,,
Toro's,clothes, ,41.1486507,-8.6122082,,
Sociedade Portuense De Sucatas Lda,hardware, ,41.1485897,-8.6122093,,
,tobacco, ,41.1484693,-8.6122113,,
Casa Cofil,lighting, ,41.1489,-8.6118062,,
MESH,jewelry, ,41.1490582,-8.6119414,,
,yes, ,41.1490875,-8.6119025,,
,yes, ,41.1491084,-8.6118697,,
Barbearia Garret,hairdresser, ,41.1492071,-8.611718,,
Óptica do Porto,optician, ,41.1489741,-8.6114382,,
,hardware, ,41.1491296,-8.6120422,,
,hardware, ,41.1491629,-8.6120413,,
,hardware, ,41.1492029,-8.6120402,,
,vacant, ,41.1492393,-8.6120392,,
,hardware, ,41.1490882,-8.6120433,,
Almeida & Neves,stationery, ,41.1493692,-8.612196,,
Rofir,trade, ,41.1493282,-8.6120367,,
Faústo & Almeida,lighting, ,41.149435,-8.6120338,,
Portologia,wine, ,41.1495194,-8.6121865,,
,vacant, ,41.1496474,-8.612028,,
,vacant, ,41.149735,-8.6120256,,
Aqui e Agora,furniture, ,41.1496225,-8.6121868,,
Dona Chama,deli, ,41.1496607,-8.612187,,
,vacant, ,41.1497647,-8.6121874,,
,vacant, ,41.1497913,-8.612024,,
,vacant, ,41.1498349,-8.6120228,,
,vacant, ,41.1498837,-8.6120215,,
,vacant, 374,41.1499761,-8.612019,,
,vacant, ,41.1500243,-8.6120176,,
,vacant, ,41.1500722,-8.6120163,,
Por Gui,hardware, ,41.1501149,-8.6120152,,
,vacant, ,41.1499549,-8.6121881,,
,vacant, ,41.1499069,-8.6121879,,
,vacant, ,41.1498554,-8.6121877,,
,vacant,Rua de Ricardo Jorge 89,41.1500629,-8.6127117,,
Champagne Perrier-Jouét,alcohol, ,41.149813,-8.6131022,,
Restaurador de Móveis,furniture, ,41.1496903,-8.6130566,,
,vacant, ,41.149493,-8.6130571,,
,vacant, ,41.1493925,-8.6130574,,
Moldursant,art, ,41.1492601,-8.6129031,,
,vacant, ,41.148917,-8.6130586,,
,vacant, ,41.1487587,-8.6130591,,
,furniture, ,41.1487161,-8.6130592,,
Carvalho & Cunha Lda,furniture, ,41.1486503,-8.6129046,,
Talho Conceição,butcher, ,41.1499366,-8.6132314,,
Garrafeira Viera da Silva,wine, ,41.1499303,-8.6133766,,
Porto Gift,gift, ,41.1499241,-8.6134226,,
Livraria Timtimportimtim;Tintim por Tintim,books, ,41.1499215,-8.6135678,,
Emperus,gift,Rua da Conceição 46,41.1500221,-8.613835,,
Mercado 48,art,Rua da Conceição 48,41.150021,-8.6139204,,
Agarrafeira Wine House,alcohol, ,41.1499063,-8.6138334,,
Paraíso do Livro,books, ,41.1497748,-8.6139562,,
,vacant, ,41.1494583,-8.614262,,
,vacant, ,41.1493819,-8.6142974,,
,vacant, ,41.1492512,-8.6143304,,
,vacant, ,41.1493179,-8.6143127,,
,vacant, ,41.1495321,-8.614007,,
,vacant, ,41.1492441,-8.6140743,,
,vacant, ,41.1490468,-8.6141191,,
,vacant, ,41.1479098,-8.6152713,,
,vacant, ,41.1480591,-8.6156196,,
,vacant, ,41.1481534,-8.6153764,,
,vacant, ,41.1481783,-8.6154743,,
,vacant, ,41.1482076,-8.6155877,,
,vacant, ,41.1481783,-8.6152158,,
,yes, ,41.1482218,-8.6151993,,
,vacant, ,41.1479036,-8.6158132,,
Avenida 7,clothes, ,41.1479003,-8.6161463,,
Backstage,clothes, ,41.1479493,-8.6161383,,
,vacant, ,41.1481806,-8.616147,,
Popygum,clothes, ,41.1483133,-8.6161752,,
Ortomedical,medical_supply, ,41.1483866,-8.616204,,
A Petala,clothes, ,41.148637,-8.6162829,,
Patrício Pires & Silva,clothes, ,41.148701,-8.6163092,,
,vacant, ,41.1487795,-8.6163354,,
,vacant, ,41.1489953,-8.6157847,,
,vacant, ,41.1482585,-8.6155896,,
Cafetaria Docelandia,bakery, ,41.1483033,-8.6155667,,
Café Luso,vacant,Praça de Carlos Alberto 92,41.1483698,-8.6155328,,
,vacant, ,41.1485769,-8.6154273,,
Companhia União Crédito Popular,pawnbroker, ,41.148622,-8.6154049,,
FreshJealous,clothes, ,41.1486715,-8.6153804,,
Livraria Vieira,books, ,41.1487817,-8.6152107,,
Salão Ferreira,hairdresser, ,41.1495693,-8.6149165,,
The Portuguese Cock,gift, ,41.1496145,-8.6149069,,
Noa,vacant, ,41.1515431,-8.613946,,
,vacant, ,41.1515032,-8.613937,,
Máquinas de Outros Tempos,photo,Rua dos Mártires da Liberdade 154,41.1516938,-8.6137537,,
Mercado de Cedofeita,general, ,41.1517497,-8.6139364,,
Casa Bento,vacant, ,41.1518042,-8.6137299,,
,vacant, ,41.1518368,-8.6139184,,
,vacant, ,41.1518871,-8.613908,,
,vacant, ,41.1519392,-8.6138973,,
,vacant, ,41.1520587,-8.6138726,,
Velharias e Curiosidades,antiques, ,41.1521457,-8.6138546,,
Fábrica de Candeeiros,lighting, ,41.1523139,-8.6138199,,
Louro's velharias,antiques, ,41.1524092,-8.6138002,,
Pedro Rezende,antiques, ,41.1526527,-8.6137499,,
Chapelaria Aliança,antiques, ,41.1525511,-8.6137709,,
,vacant, ,41.1526055,-8.6137596,,
,stationery, ,41.152711,-8.6137378,,
,antiques, ,41.1527518,-8.6137294,,
Dois Dedos de Conversa,antiques, ,41.1521213,-8.6136614,,
,vacant, ,41.1520286,-8.6136814,,
,vacant, ,41.1521881,-8.6136469,,
,vacant, ,41.1522434,-8.613635,,
O Baú dos 60,antiques, ,41.1524098,-8.613599,,
,vacant, ,41.1525921,-8.6135596,,
,vacant, ,41.1525226,-8.6135747,,
,vacant, ,41.1526942,-8.6135376,,
,vacant, ,41.1527862,-8.6135177,,
,vacant, ,41.1529228,-8.6134882,,
,general, ,41.1528378,-8.6135066,,
,hardware, ,41.1528747,-8.6134986,,
,yes, ,41.1500104,-8.6141203,,
Armarter,travel_agency, ,41.1500104,-8.6143576,,
Mokador,tattoo, ,41.1501635,-8.6143616,,
,vacant, ,41.1500637,-8.6146686,,
,vacant, ,41.1500351,-8.6148909,,
,vacant, ,41.1502326,-8.614855,,
,vacant, ,41.1502866,-8.614537,,
,vacant, ,41.1503662,-8.6144832,,
AGVA,clothes, ,41.150472,-8.614866,,
,vacant, ,41.1505928,-8.6148381,,
Armazenistas,vacant, ,41.1506258,-8.6146611,,
Casanova,antiques, ,41.1507194,-8.6148373,,
Restaumovi,antiques, ,41.1506677,-8.6148369,,
Luzia,yes, ,41.1509406,-8.6145689,,
Charme Cabeleireiro & Estética,hairdresser, ,41.1513578,-8.6145794,,
Artur Faro,vacant, ,41.1516556,-8.6144275,,
Porta Dezanove,yes, ,41.1516662,-8.6143379,,
,vacant, ,41.1515945,-8.6139458,,
Picasso Cabeleireiro e Estética,hairdresser, ,41.1533951,-8.6135475,,
,vacant, ,41.1534579,-8.6135317,,
,vacant, ,41.1534977,-8.6135224,,
,vacant, ,41.1534708,-8.6133677,,
,vacant, ,41.153419,-8.6133782,,
,vacant, ,41.1533832,-8.6133862,,
,vacant, ,41.1533314,-8.6133941,,
,vacant, ,41.1532866,-8.61341,,
,vacant, ,41.1531721,-8.6134312,,
,vacant, ,41.1531173,-8.6134457,,
,antiques, ,41.1530675,-8.6134563,,
Grampo de Cabelo,hairdresser, ,41.1527568,-8.6138412,,
,books, ,41.1528952,-8.6140237,,
,copyshop, ,41.1528872,-8.6141229,,
,vacant, ,41.1528832,-8.614238,,
Divisão  de Investigação Criminal (sede),vacant,Rua dos Bragas 61,41.1526815,-8.6143298,,
Dinocar - Reparações Gerais de Automóveis,car_repair, ,41.152708,-8.6144641,,
,hairdresser, ,41.1526472,-8.6150792,,
,vacant, ,41.1526442,-8.6152961,,
,vacant, ,41.1527747,-8.6153503,,
Máquinas de Costura,sewing, ,41.1527936,-8.6152749,,
,vacant, ,41.1526653,-8.6167122,,
Conforto Lavandaria & Limpeza,laundry, ,41.1524689,-8.617443,,
LOJA DOS SACOS,yes, ,41.1524634,-8.6175606,,
,vacant, ,41.1524568,-8.6177003,,
,hairdresser, ,41.1525901,-8.6176825,,
Clinica Dentária Dr. Sérgio Azevedo,vacant, ,41.1525663,-8.6179898,,
LowCost IS,computer, ,41.1524523,-8.6177958,,
,vacant, ,41.1524624,-8.6181664,,
Kajal,vacant, ,41.1524183,-8.6181515,,
Cássio - Home Gift Style,clothes, ,41.1521658,-8.6180344,,
,vacant, ,41.1521607,-8.6178105,,
Casa a Gramado,chemist, ,41.152056,-8.6177611,,
Livraria Franciscana,books, ,41.151986,-8.6177244,,
,vacant, ,41.1518209,-8.6176314,,
Loja Couto,yes, ,41.1517673,-8.6176107,,
Stiletto,clothes, ,41.1517275,-8.6175981,,
Feira dos Tecidos,fabric, ,41.1515987,-8.6175154,,
,variety_store, ,41.1514871,-8.6177186,,
Pátio d'as Marias,general, ,41.1517033,-8.6178128,,
,vacant, ,41.1517534,-8.6178357,,
,yes, ,41.151801,-8.6178553,,
Arteclass,yes, ,41.1521071,-8.6180022,,
,variety_store, ,41.1522126,-8.6182743,,
,variety_store, ,41.1514059,-8.6181034,,
,vacant, ,41.151482,-8.6182124,,
Retrosaria Lavores,vacant, ,41.1513316,-8.6183514,,
Galeria Comercial,mall, ,41.1529942,-8.6221223,,
Ambar Clinic,beauty, ,41.1520561,-8.6257472,,
,vacant, ,41.1520228,-8.6257457,,
,vacant, ,41.1519735,-8.6257777,,
Restos de Stock,bed,Rua de Dom Manuel II 196,41.1482034,-8.6238545,,
Barbeiro Queirós,hairdresser, ,41.1481459,-8.6237088,,
,vacant, ,41.1480937,-8.6234701,,
Tipografia do Carmo,copyshop, ,41.1480561,-8.6233236,,
,vacant, ,41.1526947,-8.6180587,,
Bazar R & R,variety_store, ,41.152799,-8.6181128,,
Antiqualha,antiques, ,41.1528582,-8.6181335,,
Frutaria Cedofeita,greengrocer, ,41.1529061,-8.6181513,,
,vacant, ,41.1526233,-8.6182417,,
Exuberâcias,clothes, ,41.152683,-8.6182758,,
,clothes, ,41.1527271,-8.6182995,,
Paulinas,books, ,41.1528548,-8.6183462,,
Larshop,houseware, ,41.152953,-8.6183973,,
Oculista Confiança,optician, ,41.1529965,-8.6184054,,
,vacant, ,41.1533172,-8.6185101,,
,vacant, ,41.1533641,-8.6185212,,
,vacant, ,41.1533269,-8.618313,,
,vacant, ,41.15342,-8.6185434,,
Spider Tattoos,tattoo, ,41.1534734,-8.6185622,,
,vacant, ,41.1534168,-8.6183693,,
,vacant, ,41.1534843,-8.6183898,,
,vacant, ,41.1535746,-8.6184146,,
Graphite,vacant, ,41.1536206,-8.6184327,,
,vacant, ,41.1538645,-8.6185199,,
Supereuro,variety_store, ,41.154064,-8.6185799,,
Centro Comercial de Cedofeita,mall, ,41.1545918,-8.6190805,,Mo-Sa 10:00-22:00
,clothes, ,41.154527,-8.6189661,,
,clothes, ,41.1546319,-8.6190069,,
,vacant, ,41.1547947,-8.6190397,,
,clothes, ,41.1546643,-8.6188076,,
,florist, ,41.1547001,-8.61882,,
Gota a Gota,alcohol, ,41.1547845,-8.6188427,,
Rei Das Carnes,butcher, ,41.1548902,-8.6188766,,
,vacant, ,41.1548518,-8.6190035,,
Socos,shoes, ,41.1548936,-8.6190329,,
,vacant, ,41.1549465,-8.619059,,
,vacant, ,41.1549883,-8.6190737,,
Ourivesaria Paz,vacant, ,41.1550275,-8.619085,,
,vacant, ,41.155088,-8.6190997,,
Dupla Inspiração,hairdresser, ,41.1551452,-8.6191156,,
,vacant, ,41.1550659,-8.6188211,,
Outlet,vacant, ,41.1553131,-8.6190023,,
,appliance, ,41.1553839,-8.6192617,,
Passadopresente,antiques, ,41.1553984,-8.61935,,
,clothes, ,41.1554214,-8.6194327,,
,hairdresser, ,41.1554274,-8.6195153,,
Adega Figueiroa,vacant, ,41.1552279,-8.6195776,,
Feni Cabeleireiro,hairdresser, ,41.1548808,-8.6204858,,
Tapeçarias Auto-lar,yes, ,41.155348,-8.6201568,,
,vacant, ,41.1553695,-8.6202724,,
Guerreiro Barbershop,hairdresser, ,41.1544679,-8.620794,,
Supercasa,interior_decoration, ,41.1543689,-8.6208338,,
,vacant, ,41.1544601,-8.62109,,
,vacant, ,41.1542503,-8.6210952,,
,vacant, ,41.1541447,-8.621109,,
Supercasa,interior_decoration, ,41.1543754,-8.6210935,,
Supercasa,interior_decoration, ,41.1542425,-8.6208788,,
,laundry, ,41.1541499,-8.6208961,,
Casa Gramado,chemist, ,41.1535726,-8.6208788,,
,hairdresser, ,41.1532208,-8.620865,,
Supercasa,interior_decoration, ,41.153196,-8.6211073,,
,stationery, ,41.152933,-8.620771,,
,vacant, ,41.1528818,-8.6207586,,
,vacant, ,41.1529091,-8.6207676,,
,vacant, ,41.15273,-8.6206997,,
,vacant, ,41.1526379,-8.6205038,,
,vacant, ,41.1526465,-8.6205819,,
,vacant, ,41.1526268,-8.6204177,,
Estores e Persianas Silva Pinto,window_blind, ,41.1527496,-8.6209873,,
2NDLife Mobile Porto,mobile_phone, ,41.1525194,-8.6206499,,
,vacant, ,41.1525186,-8.6208899,,
,hardware, ,41.1524077,-8.6207269,,
Peixaria Oceano,seafood, ,41.152371,-8.6207574,,
,clothes, ,41.1522802,-8.6208018,,
Daniela Morais,massage, ,41.1522361,-8.6208318,,
Emili Andrade Cabeleireiros,hairdresser, ,41.1520316,-8.6211747,,
Nara Reis,beauty, ,41.1520952,-8.6211252,,
,vacant, ,41.1522829,-8.6210365,,
,vacant, ,41.1522385,-8.6210663,,
,vacant, ,41.1516351,-8.6214453,,
,vacant, ,41.1516627,-8.6214137,,
,yes, ,41.1516261,-8.6211892,,
,greengrocer, ,41.1515779,-8.6211705,,
MAMO Nara Reis,yes, ,41.1515361,-8.6211628,,
Be Beautiful,beauty, ,41.1514391,-8.6211389,,
,vacant, ,41.1510573,-8.6210578,,
,vacant, ,41.1510111,-8.6210493,,
,vacant, ,41.1509378,-8.6210322,,
,vacant, ,41.1508806,-8.6210177,,
,vacant, ,41.1508131,-8.6210023,,
,vacant, ,41.1512341,-8.6212677,,
,chemist, ,41.1514815,-8.621336,,
,clothes, ,41.1515477,-8.6213301,,
,vacant, ,41.1515593,-8.6216211,,
,hairdresser, ,41.1515072,-8.6217303,,
Lito's Barbeiro,hairdresser, ,41.1514674,-8.6217969,,
,yes, ,41.1506021,-8.6230378,,
Só Tapas,vacant, ,41.1504069,-8.6230084,,
,vacant, ,41.150345,-8.6229928,,
,vacant, ,41.1501152,-8.6232119,,
,laundry, ,41.1501054,-8.6232785,,
,vacant, ,41.1500789,-8.6233737,,
Moriauto,car_repair, ,41.149972,-8.623839,,
,vacant, ,41.1499286,-8.6239933,,
,vacant, ,41.1494363,-8.6244404,,
Sonho,hairdresser, ,41.1492501,-8.6245942,,
,vacant, ,41.1514061,-8.6185547,,
,vacant, ,41.1513744,-8.6186968,,
Breinar,yes, ,41.1511881,-8.6188653,,
Paraiso do Livro,books, ,41.1509899,-8.620171,,
Livraria Simphonia das Letras,books, ,41.1509185,-8.6205237,,
,vacant, ,41.1505909,-8.621305,,
,vacant, ,41.150651,-8.6215402,,
Tromba,yes, ,41.1505377,-8.6215643,,
olá Breiner,yes, ,41.1505513,-8.6219414,,
,yes, ,41.1504795,-8.6222706,,
,vacant, ,41.1503426,-8.6227965,,
,vacant, ,41.1503596,-8.6227349,,
,vacant, ,41.1503765,-8.6226552,,
Pedro Guimarães,interior_decoration, ,41.1501604,-8.6227965,,
Banema Studio,interior_decoration, ,41.1498352,-8.6230938,,
,yes, ,41.1497544,-8.6230718,,
Copo d'Uva,wine, ,41.1495472,-8.6230559,,
,vacant, ,41.1488548,-8.6229098,,
Martim centro de fotocópias,copyshop, ,41.1486808,-8.6228804,,
,vacant, ,41.148408,-8.6228396,,
,vacant, ,41.1482442,-8.6228124,,
Beleza do Palácio,hairdresser, ,41.1482059,-8.6228034,,
O Espaço Vermelho,clothes, ,41.1481649,-8.6227966,,
,vacant, 26,41.1480967,-8.6226494,,
,vacant, 16,41.1479808,-8.6226211,,
Agência Funerária Castilho,funeral_directors, ,41.1477697,-8.6205933,,
,vacant, ,41.1477842,-8.6204039,,
,vacant, ,41.1478248,-8.6206044,,
,vacant, ,41.1478797,-8.6206154,,
,vacant, ,41.1479568,-8.6206309,,
,vacant, ,41.1479908,-8.6206377,,
Dan&Deo,beauty, ,41.1480425,-8.6206481,,
,vacant, ,41.1479722,-8.620444,,
,vacant, ,41.1480438,-8.6204592,,
,furniture, ,41.1482072,-8.6206812,,
2A's Cabeleireiros,hairdresser, ,41.1484139,-8.620538,,
ysabel Mora Swimwear,clothes, ,41.1482486,-8.6206895,,
,vacant, ,41.1483528,-8.6207104,,
,hairdresser, ,41.1483983,-8.6207195,,
Lira,clothes, ,41.1485713,-8.6207543,,
,fashion_accessories, ,41.1487798,-8.6207961,,
,vacant, ,41.1487291,-8.6206051,,
Minisom,hearing_aids, ,41.1488617,-8.6206333,,
,vacant, ,41.1489393,-8.6208281,,
liliana guerreiro,jewelry, ,41.1490848,-8.6208574,,
,vacant, ,41.1491025,-8.6206846,,
,vacant, ,41.1491267,-8.6208658,,
,stationery, ,41.1492305,-8.6208866,,
,vacant, ,41.1491765,-8.6207003,,
Riera Alta,fabric, ,41.1493339,-8.6207338,,
Flor D'Açafrão,spices, ,41.1496051,-8.6207315,,
Minipreço,supermarket,Rua de Miguel Bombarda 317,41.1496252,-8.6205792,,
,vacant, ,41.1496916,-8.621004,,
Quintal Bioshop,general, ,41.1497708,-8.6210253,,
,clothes, ,41.1498511,-8.621039,,
,yes, ,41.1498701,-8.6208136,,
PURO,beauty, ,41.1499125,-8.6208256,,
,vacant, ,41.1501921,-8.6209043,,
,lighting, ,41.1502128,-8.621107,,
,yes, ,41.1503918,-8.6211414,,
,yes, ,41.1504436,-8.6211529,,
,vacant, ,41.1492397,-8.6174538,,
Reuse,vacant, ,41.1494546,-8.6175286,,
,vacant, ,41.1500792,-8.6181191,,
,vacant, ,41.1500528,-8.6183135,,
Lúcia Branco Cabeleireiro,hairdresser, ,41.1499021,-8.618483,,
,vacant, ,41.1499973,-8.6187215,,
Porto Surf School,water_sports, ,41.1498524,-8.6188593,,
,general, ,41.1499851,-8.6188114,,
TILSITT GALLERY,vacant, ,41.1498386,-8.6189638,,
7CLEAN,laundry, ,41.1498042,-8.6192239,,
LOJA,yes, ,41.1497875,-8.6193502,,
,vacant, ,41.1497385,-8.6197214,,
,vacant, ,41.1497258,-8.6207181,,
,yes, ,41.1497402,-8.6206121,,
Chiadu Terrace,clothes, ,41.1496043,-8.6216797,,
,vacant, ,41.1494519,-8.6217913,,
José Coelho,antiques, ,41.1494444,-8.6218551,,
Casa Diogo,general, ,41.1495711,-8.6218708,,
Artes Cabeleireiro,hairdresser, ,41.14956,-8.6219997,,
L de luz,yes,Rua de Miguel Bombarda 469,41.1493821,-8.6224692,,
,vacant, ,41.1477852,-8.622234,,
OrtoNeves,medical_supply, ,41.147347,-8.6214165,,
,clothes, ,41.1472294,-8.6218688,,
,stationery, ,41.1473211,-8.621845,,
,clothes, ,41.147344,-8.621685,,
Optica Do Porto,optician, ,41.1473141,-8.6210911,,
Sapataria Vaniel,shoes, ,41.1472826,-8.6209021,,
,vacant, ,41.1470363,-8.6205456,,
,vacant, ,41.1460972,-8.6203695,,
,vacant, ,41.1460642,-8.6206582,,
,vacant, ,41.1460582,-8.6207328,,
,vacant, ,41.1457845,-8.6211939,,
Paulus,books, ,41.1495491,-8.6254429,,
,vacant, ,41.1496291,-8.6258304,,
,travel_agency, ,41.1506476,-8.625531,,
,vacant, ,41.1514609,-8.6256151,,
Vista Alegre,interior_decoration, ,41.1515859,-8.6277444,,
Wewood,interior_decoration, ,41.1515166,-8.6279404,,
Maria do Rosário,antiques, ,41.1524117,-8.6187513,,
Barbershop Spot27,hairdresser, ,41.1524186,-8.6198008,,
Curb,vacant, ,41.1524463,-8.619996,,
Yesterday,clothes, ,41.1524636,-8.6201315,,
Desocupado,furniture, ,41.1525621,-8.6210559,,
Galerias de Arte,antiques, ,41.1525829,-8.6212143,,
Kazed Roupeiras,furniture, ,41.1527636,-8.6211638,,
Gonçalo Ferreira Marques,antiques, ,41.1527809,-8.6213303,,
D Antiguidades,antiques, ,41.1527938,-8.6215645,,
Discos do Baú,music, ,41.152646,-8.6219503,,
,vacant, ,41.1526555,-8.6220835,,
Snopão,bakery, ,41.1526693,-8.6222133,,
Oficina dos Violinos,musical_instrument, ,41.1529019,-8.6219767,,
,antiques, ,41.1529209,-8.6220812,,
Fátima Resende Antiguidades,antiques, ,41.1529495,-8.6224418,,
Dona Vitamina,general, ,41.1526797,-8.6222868,,
D. Pedro,antiques, ,41.152882,-8.622583,,
Angelo Neto,antiques, ,41.152729,-8.6227943,,
LMP- Car Service Unip,car_repair, ,41.1545835,-8.6257671,,
Centro Laser,beauty, ,41.1537088,-8.6263762,,
,vacant, ,41.1538538,-8.6264198,,
,vacant, ,41.1537888,-8.62639,,
A Caloi,hairdresser, ,41.1540023,-8.6264885,,
,vacant, ,41.1540886,-8.6265092,,
,vacant, ,41.1541645,-8.6265267,,
,vacant, ,41.1542307,-8.6265474,,
Dexa Studios Tattoos,tattoo, ,41.1539455,-8.6267878,,
,vacant, ,41.1540083,-8.6268066,,
Arte Nova,beauty, ,41.154359,-8.6270955,,
Martins Soares,travel_agency, ,41.1542632,-8.6271854,,
,interior_decoration, ,41.1541779,-8.6272684,,
Chic`House,interior_decoration, ,41.1545657,-8.6265723,,
,vacant, ,41.1553254,-8.6274108,,
Clínica Acusis,hearing_aids, ,41.1554468,-8.6275031,,
ColchaoNet,bed, ,41.1557687,-8.6277623,,
,vacant, ,41.1558448,-8.627822,,
Ervanário Portuense,herbalist, ,41.1559385,-8.6278954,,
GRAZZE,clothes, ,41.1560201,-8.6279595,,
Glassdrive,car_repair, ,41.1562491,-8.6271795,,
Roberto Verino,clothes, ,41.1562971,-8.6281766,,
Foreva,shoes, ,41.1563654,-8.6282302,,
Joalheiros Julio Dinis,jewelry, ,41.1566599,-8.6280786,,
,vacant, ,41.1567793,-8.6281739,,
Ótica SAMS Quadros,optician, ,41.1567521,-8.6285334,,
,clothes, ,41.1566749,-8.6284729,,
LORIS,shoes, ,41.1564427,-8.6282908,,
Bazar Chinês,variety_store, ,41.1523114,-8.627661,,
Puro Charme,hairdresser, ,41.1523571,-8.6283625,,
Ouse,hairdresser, ,41.1527012,-8.6295317,,
Jocorum,tobacco, ,41.1527993,-8.6313631,,
BROOKLYN BARBEARIA,hairdresser, ,41.1526931,-8.6338924,,
Chaves Martins,locksmith, ,41.1508215,-8.6119868,,
,gift, ,41.1507784,-8.6119857,,
INKTOXICA TATTOO,tattoo, ,41.1508694,-8.611986,,
Charm Garden,yes, ,41.1509549,-8.6119875,,
,vacant, ,41.1510045,-8.6119847,,
Thor,vacant, ,41.1510524,-8.6119816,,
,vacant, ,41.1511544,-8.6119816,,
,vacant, ,41.1513279,-8.6119837,,
,vacant, ,41.1514124,-8.6119776,,
,vacant, ,41.1515098,-8.6119756,,
Northern Ride,motorcycle, ,41.1515532,-8.6119715,,
,yes, ,41.151605,-8.6119715,,
Trinity Porto,mall,Rua Heróis e Mártires de Angola ,41.151604,-8.61097,,
La Casa del Habano,tobacco, ,41.1516717,-8.6104781,,
Spot Luggage & Lounge,bag, ,41.1522303,-8.6103429,,
,variety_store, ,41.1525371,-8.6102696,,
,vacant, ,41.1525818,-8.6102673,,
Manuel Gonçalves,sewing, ,41.1522557,-8.610655,,
,vacant, ,41.152218,-8.6108634,,
NOG Eletrónica,radiotechnics, ,41.1524284,-8.6112092,,
,chemist, ,41.1524608,-8.6112604,,
Glávi,deli, ,41.1526362,-8.6112674,,
Mirra,massage, ,41.1525748,-8.611456,,
Incoorpus SPA,beauty, ,41.152708,-8.6116574,,
Antiguidades Albano Teixeira,vacant, ,41.1528133,-8.6118898,,
Robbialac,paint, ,41.1534318,-8.612136,,
Despertar do Hara,massage, ,41.1532811,-8.612122,,
,vacant, ,41.1530093,-8.612122,,
Dissocal,leather, ,41.1526008,-8.6121325,,
,vacant, ,41.1525543,-8.6121278,,
,vacant, ,41.1525061,-8.6121325,,
,vacant, ,41.1524482,-8.6121267,,
Cash&Go,antiques, ,41.1523711,-8.6121407,,
,vacant, ,41.1522422,-8.6121453,,
,vacant, ,41.1521966,-8.6121453,,
,vacant, ,41.1521265,-8.6121469,,
,vacant, ,41.1519731,-8.6121465,,
,vacant, ,41.1517788,-8.6121449,,
Wild at Heart,clothes, ,41.1513884,-8.6121639,,
Vieira Silva,bed, ,41.1512428,-8.6121709,,
Zedelga,car_parts, ,41.1511631,-8.6121616,,
Jorge Cardoso Caravancerai,antiques,Rua do Almada 449,41.1510552,-8.6121721,,
,vacant, ,41.1510053,-8.6121744,,
,vacant, ,41.1509588,-8.6121814,,
Almada 437,antiques,Rua do Almada 437,41.1509103,-8.6121864,,
,vacant, ,41.1508659,-8.6121814,,
,vacant, ,41.1506827,-8.6121814,,
,vacant,Rua do Almada 405,41.1505922,-8.6121843,,
Carli Borrachas e Plásticos,Borrachas_e_Plasticos,Rua do Almada ,41.1506366,-8.6121835,,
,vacant, ,41.1504565,-8.6121796,,
The little shoppe,variety_store, ,41.1505425,-8.6121846,,
,vacant, ,41.1504601,-8.6115271,,
Ferragens Zacarias,hardware, 504,41.1516364,-8.6119755,,
,vacant, ,41.1518287,-8.6119685,,
,vacant, ,41.1518805,-8.6119634,,
,vacant, ,41.1520114,-8.6119574,,
,vacant, ,41.1522835,-8.6119446,,
Aços Raul Santos,doityourself, ,41.1525609,-8.6119324,,
,vacant, ,41.1526461,-8.6119311,,
,vacant, ,41.1525981,-8.6119321,,
,vacant, ,41.152691,-8.6119281,,
Norauto,car_repair, ,41.1713877,-8.5688342,,
Seaside,shoes, ,41.1712183,-8.5692902,,
Prinfor,computer,Estrada da Circunvalação 8130,41.1846616,-8.6057156,,
,vacant, ,41.1842258,-8.6040427,,
Praxe Artigos Académicos,clothes, ,41.1844483,-8.6028026,,
MONKEY BARBER SHOP,hairdresser, ,41.1843703,-8.6024979,,
Abaco,bakery, ,41.1841467,-8.6014466,,
Companhia da Saúde e Bem-estar,medical_supply, ,41.1840573,-8.6013141,,
Praxe,clothes, ,41.1838211,-8.6013979,,
Colchões & Conpanhia,bed, ,41.1836223,-8.6009293,,
Laser Clinic,beauty, ,41.1838409,-8.6007655,,
Hair Store,hairdresser, ,41.1835603,-8.5994261,,
Centro linden Saúde,medical_supply, ,41.1833292,-8.5995298,,
Minisom,hearing_aids, ,41.1833972,-8.6000776,,
Ervanária Portuense,herbalist, ,41.1834793,-8.6003505,,
,vacant, ,41.1485155,-8.6063758,,
Massimo Dutti,clothes, ,41.1484645,-8.60617,,
Antike,antiques, 56,41.1504935,-8.6143982,,
,vacant, ,41.1491881,-8.6041547,,
Cristina Ferreira N&G,hairdresser, ,41.1489972,-8.6041348,,
,clothes, ,41.1491119,-8.6041521,,
,vacant, ,41.148866,-8.6041293,,
Nervo Tattoo,tattoo, ,41.149007,-8.603976,,
Pasgelpan,houseware, ,41.1489102,-8.6039597,,
Eletronica,radiotechnics, ,41.1488596,-8.6039591,,
,clothes, ,41.1486432,-8.603925,,
Queijaria Amaral,convenience, ,41.1465112,-8.6036226,,
Confeitaria Rainha,bakery, ,41.157418,-8.5938842,,
Chok,stationery, 891,41.1575907,-8.5940762,,
Athena,wine, ,41.155635,-8.5952068,,
,vacant, ,41.1557278,-8.5951411,,
Estúdio Zero,photo, ,41.1601219,-8.6318103,,"Mo-Fr 09:00-13:00, 14:30-19:00; Sa 09:00-13:00"
Confeitaria Chicana,confectionery,Avenida de Rodrigues de Freitas 36,41.1461234,-8.5966853,,Su-Fr 07:00-19:30; Sa 07:00-19:00
Blogstage,electronics,"R. São Roque da Lameira 1284, 4350-304 Porto, Portugal 1284",41.1602745,-8.5788021,,
Kiwoko,pet,Rua Companhia Portuguesa do Cobre ,41.1711473,-8.5695177,,
OportoRent,rental, ,41.1425108,-8.615599,,
Tipografia Progresso,yes, ,41.1425131,-8.6148954,,
Verde Mar,laundry, ,41.1783159,-8.6305336,,"We-Fr 09:00-13:00,14:00-19:00; Sa 09:00-13:00"
Chocolataria Equador,chocolate, ,41.1424565,-8.6146445,,
Witch house atelier,tattoo,Rua Trindade Coehlo 1C,41.1447608,-8.6117405,,Tu-Su 13:00-18:00
,greengrocer, ,41.1510039,-8.6172474,,
,greengrocer, ,41.1527012,-8.6180997,,
Porto 360,ticket, ,41.1469258,-8.6254527,,
My Auchan,grocery, ,41.1570295,-8.6246159,,
FC Porto Store,clothes, ,41.1610835,-8.5824183,,
O Rei do Pão de Queijo,bakery, ,41.1503955,-8.6091852,,
Chocolataria Equador,chocolate,Rua de Sousa Viterbo 103,41.1425809,-8.6146749,,
Alameda Shop & Spot,mall, ,41.16392765589238,-8.583841806382749,,
Cepsa,kiosk, ,41.182888719551165,-8.598365064842994,,
La Vie Porto Baixa Shopping Center,vacant,Rua de Fernandes Tomás ,41.15019913338699,-8.604696657568494,,
Mercado do Bom Sucesso,department_store,Praça do Bom Sucesso 3,41.15582146964363,-8.629109084897964,,"Mo-Th,Su,PH 08:00-23:00; Fr-Sa 08:00-24:00"
Recheio,wholesale,Rua Chaves de Oliveira 181,41.164564910183415,-8.577836989543428,,Mo-Fr 07:30-23:00
Recheio Cash & Carry,wholesale, ,41.1615522548689,-8.580435270029671,,
Mercado de São Sebastião,yes, ,41.1438647732875,-8.611201608734174,,
Zeza Cortinados,clothes, ,41.143377497585774,-8.609770520918882,,
Ourivesaria das Flores,jewelry, ,41.14496671274852,-8.61187163765025,,
Relojoaria Adriano,jewelry, ,41.14509467984672,-8.611969436616684,,
Casa Nunes,clothes, ,41.14454220699335,-8.612694535802655,,
Bottega Verde,alcohol, ,41.1452206398638,-8.612368921611846,,
,lighting, ,41.14524987572379,-8.612335628392314,,
Apostolado Litúrgico,yes, ,41.145291796241985,-8.612312121595751,,
Casa Dos Candeeiros-Lampadas,electronics, ,41.14516018804368,-8.612472740290643,,
Sociedade Quinta Ventozelo,alcohol, ,41.14261105917532,-8.615919625052602,,
O Galo,vacant,Rua de Mouzinho da Silveira 61,41.14290767520773,-8.61426007993241,,
Papelaria Peninsular,books, ,41.14300365635174,-8.614151347375195,,
Drogaria Moura,yes, ,41.142958620719405,-8.614440483416622,,
Central da Borracha,drugstore, ,41.145337298916026,-8.613892807609332,,
Lidia Jóias,jewelry, ,41.14553037951379,-8.613634562310326,,
Chapéus 9 Abril,clothes, ,41.14535928721029,-8.605499033848679,,
Ourivesaria Pinheiro,jewelry, ,41.14642851354323,-8.604632256628555,,
Marcolino Relojoeiro,watches, ,41.146839358469514,-8.606614493003255,,
Casa da Sorte,lottery, ,41.14683293414827,-8.610092692969008,,
Livraria Figueirinhas,books, ,41.146617728214984,-8.61235518209527,,
Livraria Científico-Médica,books, ,41.14708062787644,-8.616872595458787,,
Drogaria Moura,yes, ,41.1432263278538,-8.62056036215428,,
Talho São Lázaro,butcher, ,41.14582248611117,-8.603465015005954,,
Fredi Fredi,hairdresser, ,41.145935481532774,-8.60382205120806,,
Horta Fresca,convenience, ,41.145873805756786,-8.603463975163917,,
Conde & Silva,jewelry, ,41.146372412128905,-8.6026055271126,,
Primor,bakery, ,41.1467251356614,-8.602541358491917,,
Aquadom,swimming_pool, ,41.147018709252364,-8.602481503083409,,
Expert,convenience, ,41.14687439262651,-8.60291001305257,,
A Supersónica,shoes, ,41.14742100753542,-8.60356134062187,,
Lamiré Pianos,music, ,41.14713500738127,-8.603774296563914,,
Passos Manuel Gravuras,frame, ,41.14732729445912,-8.60364442399424,,
Poveiros,kiosk, ,41.14666108827476,-8.60446315010379,,
Penhalta Noivas,clothes, ,41.14662764669071,-8.604403169551425,,
Centro Comercial Invictos,mall, ,41.147112370775716,-8.604314000661779,,
Diva Lingerie,clothes, ,41.14676791862086,-8.604808102811864,,
Casa Rodrigues,clothes, ,41.1477882825224,-8.60498538958143,,
Armazéns Nova Iorque,clothes, ,41.14803402112531,-8.605797086783006,,
Pé Formoso,clothes, ,41.147917566465914,-8.605434711344618,,
Mosdental - Equipamento Dentário,medical_supply, ,41.147320180826355,-8.607208504271675,,
Adriano Vieira Silva Lima - Solas e Cabedais,hardware, ,41.14756071937308,-8.607583077504732,,
A Pérola do Bolhão,greengrocer,Rua Formosa ,41.14833438143016,-8.606712592459502,,
Trópicos,clothes, ,41.14899449742515,-8.609019471211093,,
Móveis S. João,furniture, ,41.14205068246124,-8.613952235585282,,
Vinoteca,alcohol, ,41.14232944859382,-8.61407282133161,,
Centro de Artes Tradicionais,gift, 125,41.14015380916994,-8.615001853779548,,
Alfarrabista Chaminé da Mota,books,Rua das Flores 28,41.1434441587637,-8.614236579587015,,
Neves & Filha,jewelry, ,41.144389771716135,-8.61325613178861,,
J. Lima,hifi,Rua do Bonjardim 370,41.149517988259994,-8.60933225223753,,"Mo-Fr 09:00-12:30,14:00-18:00; Sa 09:30-12:00; Su off"
Bernardino Francisco Guimarães Sucr.,leather,"Rua do Bonjardim 400,402,404",41.14977232399341,-8.609147775366063,,Mo-Fr 09:00-19:00; Sa 10:00-13:00; Su off
César Castro Cookshop,houseware,Rua do Bonjardim 420,41.14996717517554,-8.609234470261407,,"Mo-Fr 10:00-13:00,14:30-19:00; Sa 10:00-13:00; Su off"
HorIsis,clothes, ,41.150200086313866,-8.60919787135999,,
Tabacaria Bonjardim,kiosk, ,41.15014819349942,-8.609225311665318,,
Tavares Oliveira,clothes, ,41.15033128804233,-8.608825113630022,,
Casa de Guimarães,hardware,Rua do Bonjardim 464,41.15022433083941,-8.609069717348174,,
Ferreira,clothes, ,41.15029914672733,-8.608687964547611,,
Mundo dos Tecidos,fabric, ,41.150255642479735,-8.608591784539797,,
Nortel,houseware, ,41.150121608902026,-8.608069177448357,,
Marilu,clothes, ,41.15017102411476,-8.608253860530922,,
Casa Neves,clothes, ,41.15011778863636,-8.6078598660629,,
Tamegão,clothes, ,41.14891637364965,-8.607934138277555,,
Pingo Doce,supermarket,Rua de Sá da Bandeira 385,41.14965586097346,-8.607654523955503,,Mo-Sa 8:30-20:30; Su 9:00-20:00
Ferreira Alves,clothes,Rua de Sá da Bandeira 417,41.14988698491655,-8.607532498313567,,
Minipreço,supermarket,Rua de Sá da Bandeira 347,41.149354007366135,-8.607764205338764,,"Mo-Sa 08:30-20:30; Su 09:00-13:00, 15:00-19:00"
Maria Marcelino,clothes,Rua de Sá da Bandeira 401,41.14982325415288,-8.607567424012638,,
Plácido,clothes,Rua de Sá da Bandeira 331,41.14903304427798,-8.607872616937426,,
Adolfo Dominguez,clothes,Avenida Sá da Bandeira 458,41.14972988710263,-8.606329348169226,,Mo-Sa 10:00-19:00
Argus,books, ,41.14889163204473,-8.606722015456928,,
Salão Ernesto Borges,hairdresser, ,41.14930111056246,-8.60653902486976,,
Rosa Clara,clothes, ,41.14851677024281,-8.606637089957252,,
O Mundo do Bebé,baby_goods, ,41.148974505585116,-8.606678848898197,,
Sapataria Formosa,shoes, ,41.148057850121255,-8.604969134967739,,
Eurolines,travel_agency,"Rua Formosa 70,72",41.14752065577008,-8.602992370469769,,
Super-Rápido Formosa,shoes,"Rua Formosa 80,84",41.14745385908949,-8.602795246458415,,
Livraria Lello & Irmão,books,Rua das Carmelitas 144,41.14688707397948,-8.614792481424661,,Mo-Su 09:30-19:00
Galerias Lumière,mall, ,41.149373896543096,-8.614591492671929,,
Livraria Livro Ler,books, ,41.1494452035206,-8.616297674887644,,
Colectus,yes, ,41.14952708693398,-8.616337044187482,,
Sapataria Simona,shoes,Rua de Cedofeita 24,41.149106382906936,-8.616240033162123,,
Talho Sá de Noronha,butcher, ,41.14845247342888,-8.615127960189758,,
Optiser,optician, ,41.1491385262133,-8.616549912542062,,
Me Allegro,clothes, ,41.150058267851065,-8.616993242177703,,
Galeria Minimal,art_gallery,Rua Miguel Bombarda 221,41.149726416820194,-8.61943791142195,,Tu-Fr 14:00-19:00; Sa 15:00-19:30
Centro Comercial Bombarda,mall,Rua de Miguel Bombarda 285,41.14931468842192,-8.6202641630976,,Mo-Sa 12:00-20:00
Lojas Low Cost,gift, ,41.148354668284256,-8.619856976742286,,
Morais & Costa,garden_centre, ,41.147906339463475,-8.620234059657902,,
Talho Diamantino,butcher, ,41.14813065538214,-8.620003417914754,,
,car_repair, ,41.14799588391792,-8.620133556242129,,
Franciso J. Fonseca Estofador,furniture, ,41.14809713636187,-8.62004922149873,,
Galeria Quadrado Azul 2,art_gallery, ,41.14922880855582,-8.621980641113492,,
Continente,supermarket,Rua de João dos Santos Ferreira ,41.17064594197458,-8.635385180610522,,Mo-Su 08:00-21:00
Pingo Doce,supermarket,Rua Central de Francos 744/758,41.17287655548798,-8.63883077085474,,Mo-Su 08:00-21:00
Agência Aut. Ideal,yes, ,41.149118314226165,-8.622723351896449,,
Centro Comercial Cristal Park,mall,R. de Dom Manuel II 101,41.147184867793314,-8.621507263016078,,
Pneus Vredestein,car_repair, ,41.146119230182904,-8.62439524000233,,
,car_repair, ,41.14597545373494,-8.624341076332097,,
,yes, ,41.1458236870205,-8.623948940332237,,
Bosh Inter-Palácio,car_repair, ,41.14625636085966,-8.62405729294511,,
Quiosque do Palácio,kiosk, ,41.14849815,-8.625651349999998,,
,kiosk, ,41.14687885275645,-8.62665204759543,,
Casa Teixeira,gift, ,41.14130308645388,-8.617001532386272,,
Continente Bom Dia Boavista,supermarket,Avenida da Boavista 2528,41.16230949592601,-8.653316568441559,,08:30-21:00
Velo Culture,bicycle,Rua de Dom Manuel II 346,41.1489026072902,-8.626406599306105,,
Perfect Space - Júlio Dinis,storage_rental, ,41.14937441822817,-8.626294460008952,,
Lavandaria Olímpica,laundry, ,41.15009021662393,-8.618305309148383,,
Bazar dos Três Vintens,toys,"Rua de Cedofeita 98,102",41.149753609518086,-8.616501036854112,,
Lidl,supermarket,Rua Professor Joaquim Bastos ,41.16937358785136,-8.610324061496529,,
Vigemac Viagens,travel_agency, ,41.15346767585914,-8.612331370407698,,
Artur & Silva Ferragens,hardware, ,41.1534591186912,-8.612885511036433,,
Ourivesaria Ducado,jewelry,"Rua de Cedofeita 224,226",41.15080819793361,-8.617041486513772,,"Mo-Fr 09:30-12:30,14:30-19:00; Sa 09:30-13:00"
Crisia,clothes, ,41.15144390718392,-8.617323866314774,,
Galeria Símbolo,yes, ,41.149192434268656,-8.622196848863359,,
Manuel Gonçalves Sucr.,hifi, ,41.15236075257583,-8.61066015000736,,
"S. Conrado, S.A.",car,Rua de Santa Luzia 1022,41.178229515309766,-8.623210073418672,,
Monteiro's,clothes, ,41.15045698426039,-8.609136129872727,,
David & Filhos,hardware, 929,41.15053035884709,-8.609488143706995,,
Super-Rápido da Trindade,clothes, ,41.150466492644696,-8.609460131554538,,
Renor,hifi, ,41.1503566337191,-8.609361502027427,,
Luz Mat Elétrico,electrical, ,41.150685465915785,-8.60897678248404,,
Que Seja Flor,florist,Rua do Bonjardim 479,41.15133224912152,-8.608611451720327,,Mo-Sa 08:30-19:00
Talho Bonjardim,butcher,Rua do Bonjardim 486,41.15056748284301,-8.608674202056404,,
Ricardo Meireles,hairdresser,Rua do Bonjardim 504,41.15067395,-8.6079943,,
Norte Color,tattoo, ,41.151049798518414,-8.608373211726219,,
Zara,clothes, ,41.147519227626255,-8.606030785067759,,
Quebra Gelo,laundry,Rua do Bonjardim 676,41.15290350639776,-8.60792397846038,,"Mo-Fr 08:30-20:30; Sa-Su,PH 10:00-20:30"
L'atelier TF,hairdresser,"Rua do Bonjardim 696,696B",41.153077919509805,-8.607895135466267,,"Mo-Sa 09:00-19:00; Su,PH off"
Fotosport,photo, ,41.15212564909097,-8.60509618191053,,
Loja Dinâmica,convenience, ,41.151092047066236,-8.6056938485279,,
Cursor Eletrónica,hifi, ,41.150083984687136,-8.604326457897441,,
Casa Moreira,clothes, ,41.14960135386523,-8.604406501318763,,
Pasgelpan,yes, ,41.149902386223715,-8.604296963546423,,
Remar Móveis,furniture;charity, ,41.15179792620075,-8.607751717059465,,
Segundo Mercado,convenience, ,41.15217817341295,-8.604751792376813,,
Medialar,hifi, ,41.15207522826006,-8.604791565809355,,
Prenda Linda,gift, ,41.151880160559344,-8.604865492031312,,
Casa dos Rolamentos,sewing, ,41.1516638028409,-8.604358327261984,,
Frescas Tentações,convenience, ,41.151587310511104,-8.604946452349875,,
Casas & Coisas,furniture, ,41.151684014782134,-8.604891198898503,,
Women'secret,clothes,Rua de Santa Catarina 312A,41.151054793446804,-8.605108085840305,,
Casa Nun'Álvares,religion, ,41.15130057219536,-8.605037831085582,,
Maxmat,doityourself,Rua de António da Silva Mourinho ,41.176462376097106,-8.654784946747617,,
Lidl,supermarket,Estrada da Circunvalação 13941,41.17697522971302,-8.655207828315802,,
Pingo Doce,supermarket,Rua de Monte Pedral 31,41.162730497844336,-8.614940147027447,,
Auto Stéreo Oficina Auto,car_repair,Rua Sport Comércio e Salgueiros 4 A,41.16254637395787,-8.61255770573728,,
Continente,supermarket, ,41.14783426822566,-8.633953776832442,,
Shopping Cidade do Porto,mall,Rua Gonçalo Sampaio 61,41.154888773838934,-8.629700789194441,,
Nasamotor Mercedes-Benz,car, ,41.14974410732557,-8.602744114763608,,
Casa Araújo,convenience, ,41.153171421375745,-8.60257260986137,,
Salão Glória,hairdresser, ,41.153184382660086,-8.603172071454333,,
Garagem Mercedes,car, ,41.14763501405534,-8.607518817808396,,
Nelma,clothes, ,41.14853600628449,-8.606706554538063,,
Aquário,hifi, ,41.14824333493122,-8.604082506071975,,
Mini-Trem Tecidos,fabric, ,41.1479645035779,-8.604631295343506,,
Corte08 Peles,leather, ,41.14804460289893,-8.604853796278979,,
Massimo Dutti,clothes,Rua de Santa Catarina 258; 264,41.14839864096773,-8.605955783786596,,
Zara,clothes, ,41.14864163355166,-8.605528957816187,,
Via Catarina Shopping,mall,Rua de Santa Catarina 312,41.14901544216253,-8.605184359548616,,Mo-Su 09:00-22:00
Aquario,electronics, ,41.1481889802201,-8.603860797756948,,
Tecidarte,clothes, ,41.14731149279903,-8.602282382509054,,
Artegás: reparação fogões,fireplace, ,41.14783953979781,-8.60263094842439,,
Edições Salesianas,books, ,41.14881453803504,-8.602968514974691,,
ITV - ZUIR,car_repair, ,41.179206320416654,-8.649834201213206,,
Tangerina,convenience, ,41.165754,-8.67825625,,
"Rádio Batalha - Utilidades, Relógios",yes, ,41.14560806840875,-8.606841596199573,,
,kiosk, ,41.14598295579777,-8.610553812965902,,
Pingo Doce,supermarket, ,41.17638313557036,-8.626794687404677,,Mo-Su 08:00-21:00
Campus São João,mall, ,41.18038309717875,-8.6041243753636,,
António Teixeira Lopes,wholesale, ,41.161816657489545,-8.580333021711734,,08:00 - 23:00
Supercor,supermarket,Rua de Aleixo Mota 306,41.151219641606176,-8.655337924077521,,
Lidl,supermarket,Rua de Agramonte 291-329,41.15792629400475,-8.633404072490467,,"Mo-Su,PH 08:00-21:30"
Vodafone,mobile_phone,Avenida da Boavista ,41.16252931634197,-8.658407799441116,,
Horto da Boavista,garden_centre, ,41.16764788985255,-8.68473229935866,,
Pingo Doce,supermarket, ,41.170887376402966,-8.65870263864351,,Mo-Su 08:00-21:00
Staples,stationery,Estrada Interior da Circunvalação 12437,41.17973496121892,-8.65046939229802,,
Caetano Technik,car, ,41.17885242241073,-8.651625276828812,,
Loja de Rega,swimming_pool,Estrada Interior da Circunvalação 14037,41.176999957979206,-8.65665904118249,,
Bicicletas Coelho,bicycle,Estrada Interior da Circunvalação 14069,41.17694797978368,-8.656821603313695,,
Caetano Power,car, ,41.178227970927985,-8.652879389630504,,
Vera Store,supermarket, ,41.17607189488377,-8.65438532400639,,
Memórias,furniture,Rua das Flores 18,41.143369127462655,-8.6143407690822,,
Arte D'Ouro,hairdresser,Rua de O Comércio do Porto 133,41.14218846388081,-8.61643101086925,,
Lavandaria do Infante,laundry, ,41.1414016167914,-8.617144929096364,,
Deborla,doityourself, ,41.170013238400095,-8.644405072667507,,
hôma,furniture,"Rua Manuel Pinto de Azevedo, Zona industrial do Porto 7",41.16975380051702,-8.644565530940493,,Mo-Su 10:00-20:00
Recheio Cash & Carry,wholesale, ,41.17551419150031,-8.651052946020467,,
Continente Bom Dia,supermarket, ,41.16755688400515,-8.654729604681885,,
Bilheteira do Estádio do Dragão,ticket, ,41.162775671280144,-8.584999982001587,,
Renault Boavista,car_repair, ,41.156224624548315,-8.649114375148246,,
Joalharia,jewelry, ,41.14460435000679,-8.61247233147792,,
Tavares,gift, ,41.141777752122195,-8.613774323845506,,
GALP,convenience,Avenida da Boavista ,41.16585075,-8.67824365,,
Reprografia,copyshop, ,41.1735496016491,-8.611083491398189,,
Pingo Doce,supermarket,Rua João Pedro Ribeiro 700,41.16116367268103,-8.606578921342386,,Mo-Su 08:00-21:00
Lidl,supermarket, ,41.149428003444534,-8.594297475074232,,
,kiosk, ,41.145906831082,-8.596104306105318,,
Pingo Doce,supermarket, ,41.173484493886285,-8.616679922603131,,
Livraria Exclamação,books,Rua de Aníbal Cunha 263,41.15625487302778,-8.62091995586988,,"Tu-Fr 14:00-19:00; Sa 10:00-13:00, 14:00-19:00"
Shopping Center Brasília,mall,Praça de Mouzinho de Alburquerque 113,41.15691486468096,-8.627230634529385,,
,kiosk, ,41.14330390000001,-8.609126150000002,,
Loja de Serralves,gift, ,41.15980350354144,-8.659712540897761,,"Mo-Fr 10:00-19:00; PH,Sa,Su 10:00-20:00"
Quiosque no Largo da Ramadinha,kiosk, ,41.148927103598744,-8.615676393869702,,
Quiosque do Marquês,kiosk, ,41.16060020277167,-8.604599631010027,,
,yes, ,41.154342147677525,-8.647085324934698,,
Lidl,supermarket,Rua Diogo Botelho 440/161,41.15277562407581,-8.652852181035225,,Mo-Su 08:30-21:30
Minimercado Alcino,greengrocer, ,41.14982776677556,-8.658118052260939,,
Boulangerie Formosa,bakery,Rua de Gondarém ,41.15639043755018,-8.679768145138931,,
Mercadona,supermarket,Rua Domingos Sequeira 225,41.16271459202559,-8.629965593770695,,Mo-Su 09:00-21:30
Pingo Doce,supermarket, ,41.158018522376835,-8.664328006664709,,Mo-Su 08:00-21:00
Continente,supermarket,Rua de Fernandes Tomás ,41.148930046737746,-8.599637427248375,,
Lidl,supermarket,Rua Diamantina 238 - 340,41.17982302180071,-8.580636547827012,,
The white factory,laundry, ,41.17713457453896,-8.662542418583008,,
Eternidade by Geodesign,florist, ,41.16711303655619,-8.663234653442379,,
Mercedes-Benz,car, ,41.16397319636972,-8.667239383062265,,
Quiosque do Castelo do Queijo,kiosk, ,41.1677865,-8.68714955,,
,mall, ,41.17894525649225,-8.64505802667887,,
Porcelanosa Porto,bathroom_furnishing, ,41.168622825178495,-8.643294741277982,,
César Castro,houseware,Rua Engenheiro Ferreira Dias 253,41.171673904745845,-8.642580413712974,,
Würth Portugal - Porto,electronics,Rua Engenheiro Ferreira Dias 1138,41.17800697095014,-8.648059832471997,,
Filipe Pinto Automóveis,car, ,41.1805570115209,-8.649453480891424,,
Pingo Doce,supermarket,Estrada Exterior da Circunvalação ,41.18510400690811,-8.608377364383125,,Mo-Su 08:00-20:00
Livraria Utopia,books,Rua da Regeneração 22,41.15543987546013,-8.611784422405197,,
"Bras & Filho, Lda",car_repair,Rua da Constituição 677,41.161664901186434,-8.606497037970822,,
Antiga Padaria,vacant, ,41.16045239789965,-8.607064362182818,,
Tangerina Caffé,convenience, ,41.151757149999995,-8.634272,,
Continente,supermarket,R. Henrique de Sousa Reis ,41.177735198477166,-8.591456766427969,,8:30-21:00
Lidl,supermarket,Avenida de Fernão de Magalhães 1009,41.15855877935778,-8.593762844624004,,"Mo-Fr 08:00-21:00; PH,Sa,Su 08:00-19:00"
Continente,supermarket,Rua do Amial 831,41.181330873776574,-8.61485380591061,,Mo-Su 08:00-21:00
,hardware, ,41.155288812696064,-8.595005257030632,,
Mercadona,supermarket,Rua da Pasteleira 263,41.15286702448685,-8.653815408387006,,Mo-Su 09:00-21:30
Centro Comercial Green Center,mall, ,41.1595120456943,-8.639687569747073,,
Garagem Graciosa,car_repair, ,41.162412238539055,-8.625464881531009,,
"Oficinas Raga-Reparações De Automoveis, Lda.",car_repair, ,41.16236864532596,-8.627062716944208,,
Galeria Comercial do Foco,mall, ,41.16274853684007,-8.647200436231463,,
Galeria Comercial Bessa-Leite,mall, ,41.15692250510588,-8.642124735674372,,
SUB954,bicycle,Rua de Oliveira Monteiro 84,41.16307246648615,-8.62463096847651,,
,yes, ,41.158588544441876,-8.648282195105438,,
Centro Comercial Aviz,mall,Avenida da Boavista 3483,41.16348540736962,-8.664927788800341,,
Maçaroca,convenience, ,41.16642757962943,-8.647192452268355,,Mo-Sa 09:00-20:00
,pet, ,41.166366345418275,-8.647215655294321,,
Purocorte,hairdresser,Rua da Restauração 31,41.14646732949799,-8.630786365669964,,"Mo-Sa 09:30-13:30,14:30-19:30"
Grab and Go Loja 24 horas,convenience,"Rua da Restauração 15,17",41.14644834235995,-8.6309498835858,,24/7
,car, ,41.172929130231886,-8.56813318822102,,
,greengrocer, ,41.15229895452414,-8.565512664483153,,
Depaso,convenience, ,41.17121995,-8.6794504,,
BCL Car Oficina,car_repair, ,41.14206026399907,-8.595742954255474,,
,convenience, ,41.173410298840714,-8.616273830061807,,
Papelaria Dona Beatriz,stationery, ,41.177543287592314,-8.596829831305334,,"8:30-12:00,13:30-19:00"
"Centro de Cópias ""Editorial""",copyshop, ,41.17762284622351,-8.596805926746024,,"9:00-11:30,12:30-18:00"
Continente Bom Dia,supermarket, ,41.170303297066575,-8.571116331548708,,
Mercadona,supermarket,Alameda de Cartes 448,41.163131192365206,-8.574719332526477,,Mo-Su 09:00-21:30
Casa Peixoto,trade, ,41.17982320841647,-8.576652250771035,,
,convenience, ,41.14044739074759,-8.591841006339955,,
